{"type":"FeatureCollection","features":[
{"type":"Feature","id":84,"geometry":{"type":"Point","coordinates":[-122.28124957840124,37.86300798271759]},"properties":{"OBJECTID":84,"Name_of_Lo":"Homeade Café","Address_Co":"2454 Sacramento","Capacity":2,"Type":"4. Inverted U, old subsurface"}},
{"type":"Feature","id":85,"geometry":{"type":"Point","coordinates":[-122.28112263880635,37.863121241186136]},"properties":{"OBJECTID":85,"Name_of_Lo":"Liquor Store","Address_Co":"2449 Sacramento","Capacity":2,"Type":"4. Inverted U, old subsurface"}},
{"type":"Feature","id":86,"geometry":{"type":"Point","coordinates":[-122.29772821810295,37.87916707307356]},"properties":{"OBJECTID":86,"Name_of_Lo":"Industrial Bldg","Address_Co":"1385 9th St","Capacity":12,"Type":"3. Circle"}},
{"type":"Feature","id":87,"geometry":{"type":"Point","coordinates":[-122.29641239524365,37.880421526583426]},"properties":{"OBJECTID":87,"Name_of_Lo":"Pic n Pac Liquor","Address_Co":"1049 Gilman","Capacity":2,"Type":"4. Inverted U, old subsurface"}},
{"type":"Feature","id":88,"geometry":{"type":"Point","coordinates":[-122.29512288301342,37.87495200298035]},"properties":{"OBJECTID":88,"Name_of_Lo":"Genki Sushi","Address_Co":"1032 Cedar","Capacity":8,"Type":"10. Old Rack Other"}},
{"type":"Feature","id":89,"geometry":{"type":"Point","coordinates":[-122.28937555346008,37.87762753431476]},"properties":{"OBJECTID":89,"Name_of_Lo":"Apartments","Address_Co":"1260 Hopkins","Capacity":5,"Type":"8. Wave Rack"}},
{"type":"Feature","id":90,"geometry":{"type":"Point","coordinates":[-122.28890498745335,37.87788405397906]},"properties":{"OBJECTID":90,"Name_of_Lo":"Cedar Rose Park Tennis Courts","Address_Co":"1270 Hopkins","Capacity":2,"Type":"4. Inverted U, old subsurface"}},
{"type":"Feature","id":91,"geometry":{"type":"Point","coordinates":[-122.29077294467952,37.88143695720148]},"properties":{"OBJECTID":91,"Name_of_Lo":"Westbrae Nursary","Address_Co":"1272 Gilman","Capacity":2,"Type":"4. Inverted U, old subsurface"}},
{"type":"Feature","id":92,"geometry":{"type":"Point","coordinates":[-122.29036175146764,37.88158011162534]},"properties":{"OBJECTID":92,"Name_of_Lo":"Clarine's Florentines","Address_Co":"1287 Gilman","Capacity":6,"Type":"4. Inverted U, old subsurface"}},
{"type":"Feature","id":93,"geometry":{"type":"Point","coordinates":[-122.29063122857838,37.881578669553996]},"properties":{"OBJECTID":93,"Name_of_Lo":"Toot Sweet","Address_Co":"1279 Gilman","Capacity":2,"Type":"4. Inverted U, old subsurface"}},
{"type":"Feature","id":94,"geometry":{"type":"Point","coordinates":[-122.28992625995478,37.88136411761269]},"properties":{"OBJECTID":94,"Name_of_Lo":"Ana's Flowers","Address_Co":"1302 Gilman","Capacity":2,"Type":"4. Inverted U, old subsurface"}},
{"type":"Feature","id":95,"geometry":{"type":"Point","coordinates":[-122.28839983936336,37.880989399267456]},"properties":{"OBJECTID":95,"Name_of_Lo":"Berkeley Natural Grocery","Address_Co":"1336 Gilman","Capacity":2,"Type":"4. Inverted U, old subsurface"}},
{"type":"Feature","id":151,"geometry":{"type":"Point","coordinates":[-122.28935396096728,37.8602411343847]},"properties":{"OBJECTID":151,"Name_of_Lo":"Ecology Center","Address_Co":"2530 San Pablo Ave","Capacity":2,"Type":"4. Inverted U, old subsurface"}},
{"type":"Feature","id":158,"geometry":{"type":"Point","coordinates":[-122.29303626495529,37.8714746853264]},"properties":{"OBJECTID":158,"Name_of_Lo":"Albatross","Address_Co":"1814 San Pablo Ave","Capacity":2,"Type":"4. Inverted U, old subsurface"}},
{"type":"Feature","id":159,"geometry":{"type":"Point","coordinates":[-122.29304386829189,37.871498209657084]},"properties":{"OBJECTID":159,"Name_of_Lo":"Aikikai","Address_Co":"1812 San Pablo Ave","Capacity":2,"Type":"4. Inverted U, old subsurface"}},
{"type":"Feature","id":161,"geometry":{"type":"Point","coordinates":[-122.29254915049899,37.86995666811027]},"properties":{"OBJECTID":161,"Name_of_Lo":"Seeds","Address_Co":"1966 San Pablo Ave","Capacity":2,"Type":"4. Inverted U, old subsurface"}},
{"type":"Feature","id":162,"geometry":{"type":"Point","coordinates":[-122.29254915049899,37.86995666811027]},"properties":{"OBJECTID":162,"Name_of_Lo":"Seeds","Address_Co":"1966 San Pablo Ave","Capacity":2,"Type":"4. Inverted U, old subsurface"}},
{"type":"Feature","id":186,"geometry":{"type":"Point","coordinates":[-122.29218348645755,37.858637044020256]},"properties":{"OBJECTID":186,"Name_of_Lo":"Berkeley Clock Factory","Address_Co":"948 Parker","Capacity":2,"Type":"4. Inverted U, old subsurface"}},
{"type":"Feature","id":187,"geometry":{"type":"Point","coordinates":[-122.29218348645755,37.858637044020256]},"properties":{"OBJECTID":187,"Name_of_Lo":"Berkeley Clock Factory","Address_Co":"948 Parker","Capacity":2,"Type":"4. Inverted U, old subsurface"}},
{"type":"Feature","id":192,"geometry":{"type":"Point","coordinates":[-122.28369205180499,37.86925448317106]},"properties":{"OBJECTID":192,"Name_of_Lo":"Saver's","Address_Co":"1417 Addison","Capacity":4,"Type":"4. Inverted U, old subsurface"}},
{"type":"Feature","id":193,"geometry":{"type":"Point","coordinates":[-122.28369205180499,37.86925448317106]},"properties":{"OBJECTID":193,"Name_of_Lo":"Saver's","Address_Co":"1417 Addison","Capacity":4,"Type":"4. Inverted U, old subsurface"}},
{"type":"Feature","id":194,"geometry":{"type":"Point","coordinates":[-122.28820705348019,37.87840333151023]},"properties":{"OBJECTID":194,"Name_of_Lo":"Community Garden","Address_Co":"1305 Hopkins","Capacity":2,"Type":"4. Inverted U, old subsurface"}},
{"type":"Feature","id":195,"geometry":{"type":"Point","coordinates":[-122.28820705348019,37.87840333151023]},"properties":{"OBJECTID":195,"Name_of_Lo":"Community Garden","Address_Co":"1305 Hopkins","Capacity":2,"Type":"4. Inverted U, old subsurface"}},
{"type":"Feature","id":196,"geometry":{"type":"Point","coordinates":[-122.28820705348019,37.87840333151023]},"properties":{"OBJECTID":196,"Name_of_Lo":"Community Garden","Address_Co":"1305 Hopkins","Capacity":2,"Type":"4. Inverted U, old subsurface"}},
{"type":"Feature","id":197,"geometry":{"type":"Point","coordinates":[-122.28820705348019,37.87840333151023]},"properties":{"OBJECTID":197,"Name_of_Lo":"Community Garden","Address_Co":"1305 Hopkins","Capacity":4,"Type":"4. Inverted U, old subsurface"}},
{"type":"Feature","id":242,"geometry":{"type":"Point","coordinates":[-122.28665476430719,37.866932029090336]},"properties":{"OBJECTID":242,"Name_of_Lo":"Strawberry Creek Park","Address_Co":"1260 Alston","Capacity":5,"Type":"8. Wave Rack"}},
{"type":"Feature","id":243,"geometry":{"type":"Point","coordinates":[-122.31570075825628,37.863433042730975]},"properties":{"OBJECTID":243,"Name_of_Lo":"Berkeley Marina-Nature Center","Address_Co":"160 University Ave","Capacity":20,"Type":"8. Wave Rack"}},
{"type":"Feature","id":244,"geometry":{"type":"Point","coordinates":[-122.31570075825628,37.863433042730975]},"properties":{"OBJECTID":244,"Name_of_Lo":"Berkeley Marina-Nature Center","Address_Co":"160 University Ave","Capacity":8,"Type":"10. Old Rack Other"}},
{"type":"Feature","id":245,"geometry":{"type":"Point","coordinates":[-122.28655009213446,37.87054537970427]},"properties":{"OBJECTID":245,"Name_of_Lo":"West Street Path at Berkeley Way Mini Park","Address_Co":"1300 Berkeley Way","Capacity":2,"Type":"4. Inverted U, old subsurface"}},
{"type":"Feature","id":252,"geometry":{"type":"Point","coordinates":[-122.29990456500015,37.86760306230013]},"properties":{"OBJECTID":252,"Name_of_Lo":"Berkeley Amtrak","Address_Co":"701 Unversity Ave","Capacity":4,"Type":"1. Inverted U, surface"}},
{"type":"Feature","id":253,"geometry":{"type":"Point","coordinates":[-122.3005689228922,37.86999373146056]},"properties":{"OBJECTID":253,"Name_of_Lo":"Erica Tanov","Address_Co":"1827 4th Street","Capacity":2,"Type":"4. Inverted U, old subsurface"}},
{"type":"Feature","id":254,"geometry":{"type":"Point","coordinates":[-122.29933495233645,37.86615459634743]},"properties":{"OBJECTID":254,"Name_of_Lo":"Berkeley Steam Works","Address_Co":"2107 4th Street","Capacity":2,"Type":"4. Inverted U, old subsurface"}},
{"type":"Feature","id":255,"geometry":{"type":"Point","coordinates":[-122.30060907818222,37.86967090773608]},"properties":{"OBJECTID":255,"Name_of_Lo":"Aveda","Address_Co":"1846 4th Street","Capacity":2,"Type":"4. Inverted U, old subsurface"}},
{"type":"Feature","id":256,"geometry":{"type":"Point","coordinates":[-122.30102367130691,37.87096969450965]},"properties":{"OBJECTID":256,"Name_of_Lo":"Napa Style","Address_Co":"1760 4th Street","Capacity":2,"Type":"4. Inverted U, old subsurface"}},
{"type":"Feature","id":257,"geometry":{"type":"Point","coordinates":[-122.30115948903713,37.87139456098606]},"properties":{"OBJECTID":257,"Name_of_Lo":"CB2","Address_Co":"1730 4th Street","Capacity":2,"Type":"10. Old Rack Other"}},
{"type":"Feature","id":258,"geometry":{"type":"Point","coordinates":[-122.30115948903713,37.87139456098606]},"properties":{"OBJECTID":258,"Name_of_Lo":"CB2","Address_Co":"1730 4th Street","Capacity":2,"Type":"10. Old Rack Other"}},
{"type":"Feature","id":259,"geometry":{"type":"Point","coordinates":[-122.29260651226708,37.85960198942919]},"properties":{"OBJECTID":259,"Name_of_Lo":"Sawtooth Bldg. Bay 2","Address_Co":"2547 8th Street","Capacity":2,"Type":"1. Inverted U, surface"}},
{"type":"Feature","id":260,"geometry":{"type":"Point","coordinates":[-122.29260651226708,37.85960198942919]},"properties":{"OBJECTID":260,"Name_of_Lo":"Sawtooth Bldg. Bay 2","Address_Co":"2547 8th Street","Capacity":2,"Type":"1. Inverted U, surface"}},
{"type":"Feature","id":261,"geometry":{"type":"Point","coordinates":[-122.29260651226708,37.85960198942919]},"properties":{"OBJECTID":261,"Name_of_Lo":"Sawtooth Bldg. Bay 2","Address_Co":"2547 8th Street","Capacity":2,"Type":"4. Inverted U, old subsurface"}},
{"type":"Feature","id":262,"geometry":{"type":"Point","coordinates":[-122.29155085673186,37.859559618638464]},"properties":{"OBJECTID":262,"Name_of_Lo":" ","Address_Co":"2560 9th Street","Capacity":2,"Type":"1. Inverted U, surface"}},
{"type":"Feature","id":263,"geometry":{"type":"Point","coordinates":[-122.29155085673186,37.859559618638464]},"properties":{"OBJECTID":263,"Name_of_Lo":" ","Address_Co":"2560 9th Street","Capacity":2,"Type":"1. Inverted U, surface"}},
{"type":"Feature","id":299,"geometry":{"type":"Point","coordinates":[-122.28686077117021,37.86701515142598]},"properties":{"OBJECTID":299,"Name_of_Lo":"Berkeley Youth Alternatives","Address_Co":"1255 Allston","Capacity":2,"Type":"4. Inverted U, old subsurface"}},
{"type":"Feature","id":300,"geometry":{"type":"Point","coordinates":[-122.28686077117021,37.86701515142598]},"properties":{"OBJECTID":300,"Name_of_Lo":"Berkeley Youth Alternatives","Address_Co":"1255 Allston","Capacity":2,"Type":"4. Inverted U, old subsurface"}},
{"type":"Feature","id":301,"geometry":{"type":"Point","coordinates":[-122.29887168914263,37.86478726970883]},"properties":{"OBJECTID":301,"Name_of_Lo":"Vintage European Posters","Address_Co":"726 Allston","Capacity":2,"Type":"4. Inverted U, old subsurface"}},
{"type":"Feature","id":302,"geometry":{"type":"Point","coordinates":[-122.29887168914263,37.86478726970883]},"properties":{"OBJECTID":302,"Name_of_Lo":"Vintage European Posters","Address_Co":"726 Allston","Capacity":2,"Type":"4. Inverted U, old subsurface"}},
{"type":"Feature","id":303,"geometry":{"type":"Point","coordinates":[-122.29887168914263,37.86478726970883]},"properties":{"OBJECTID":303,"Name_of_Lo":"Vintage European Posters","Address_Co":"726 Allston","Capacity":2,"Type":"4. Inverted U, old subsurface"}},
{"type":"Feature","id":312,"geometry":{"type":"Point","coordinates":[-122.29099852539134,37.85111274602489]},"properties":{"OBJECTID":312,"Name_of_Lo":"Ashby Chiropractic & Health Center","Address_Co":"931 Ashby","Capacity":2,"Type":"4. Inverted U, old subsurface"}},
{"type":"Feature","id":323,"geometry":{"type":"Point","coordinates":[-122.28655009213446,37.87054537970427]},"properties":{"OBJECTID":323,"Name_of_Lo":"West Street Path at Berkeley Way Mini Park","Address_Co":"1300 Berkeley Way","Capacity":2,"Type":"4. Inverted U, old subsurface"}},
{"type":"Feature","id":324,"geometry":{"type":"Point","coordinates":[-122.28655009213446,37.87054537970427]},"properties":{"OBJECTID":324,"Name_of_Lo":"West Street Path at Berkeley Way Mini Park","Address_Co":"1300 Berkeley Way","Capacity":2,"Type":"4. Inverted U, old subsurface"}},
{"type":"Feature","id":325,"geometry":{"type":"Point","coordinates":[-122.30212357436601,37.86560885114652]},"properties":{"OBJECTID":325,"Name_of_Lo":"Aquatic Park-Dreamland Playground","Address_Co":"96 Bolivar","Capacity":2,"Type":"1. Inverted U, surface"}},
{"type":"Feature","id":326,"geometry":{"type":"Point","coordinates":[-122.30212357436601,37.86560885114652]},"properties":{"OBJECTID":326,"Name_of_Lo":"Aquatic Park-Dreamland Playground","Address_Co":"96 Bolivar","Capacity":2,"Type":"1. Inverted U, surface"}},
{"type":"Feature","id":327,"geometry":{"type":"Point","coordinates":[-122.30212357436601,37.86560885114652]},"properties":{"OBJECTID":327,"Name_of_Lo":"Aquatic Park-Dreamland Playground","Address_Co":"96 Bolivar","Capacity":2,"Type":"1. Inverted U, surface"}},
{"type":"Feature","id":328,"geometry":{"type":"Point","coordinates":[-122.28837566248019,37.86858453045154]},"properties":{"OBJECTID":328,"Name_of_Lo":"West Berkeley Swim Ctr.","Address_Co":"2100 Browning","Capacity":2,"Type":"1. Inverted U, surface"}},
{"type":"Feature","id":329,"geometry":{"type":"Point","coordinates":[-122.28837566248019,37.86858453045154]},"properties":{"OBJECTID":329,"Name_of_Lo":"West Berkeley Swim Ctr.","Address_Co":"2100 Browning","Capacity":2,"Type":"1. Inverted U, surface"}},
{"type":"Feature","id":330,"geometry":{"type":"Point","coordinates":[-122.28837566248019,37.86858453045154]},"properties":{"OBJECTID":330,"Name_of_Lo":"West Berkeley Swim Ctr.","Address_Co":"2100 Browning","Capacity":4,"Type":"1. Inverted U, surface"}},
{"type":"Feature","id":331,"geometry":{"type":"Point","coordinates":[-122.28039947987656,37.8769261851514]},"properties":{"OBJECTID":331,"Name_of_Lo":"Cedar Market","Address_Co":"1601 California","Capacity":2,"Type":"1. Inverted U, surface"}},
{"type":"Feature","id":370,"geometry":{"type":"Point","coordinates":[-122.31783820439354,37.865824257866635]},"properties":{"OBJECTID":370,"Name_of_Lo":"Berkeley Marina","Address_Co":"1 Seawall Drive","Capacity":14,"Type":"1. Inverted U, surface"}},
{"type":"Feature","id":371,"geometry":{"type":"Point","coordinates":[-122.31747815590097,37.863596268564216]},"properties":{"OBJECTID":371,"Name_of_Lo":"Berkeley Marina, Skates & Pier","Address_Co":"100 Seawall Drive","Capacity":5,"Type":"8. Wave Rack"}},
{"type":"Feature","id":373,"geometry":{"type":"Point","coordinates":[-122.3166944874726,37.86313820054096]},"properties":{"OBJECTID":373,"Name_of_Lo":"South Berkely Marina path","Address_Co":"111 University","Capacity":10,"Type":"1. Inverted U, surface"}},
{"type":"Feature","id":374,"geometry":{"type":"Point","coordinates":[-122.31408211173337,37.863637646592416]},"properties":{"OBJECTID":374,"Name_of_Lo":"Berkeley Marina Path by Hana Seafood","Address_Co":"235 University","Capacity":5,"Type":"8. Wave Rack"}},
{"type":"Feature","id":376,"geometry":{"type":"Point","coordinates":[-122.31408211173337,37.863637646592416]},"properties":{"OBJECTID":376,"Name_of_Lo":"Berkeley Marina Path by Hana Seafood","Address_Co":"235 University","Capacity":20,"Type":"7. Five Rack - Rail"}},
{"type":"Feature","id":383,"geometry":{"type":"Point","coordinates":[-122.30018126975193,37.86884044653939]},"properties":{"OBJECTID":383,"Name_of_Lo":"4th Street Shopping District","Address_Co":"730 Hearst","Capacity":2,"Type":"4. Inverted U, old subsurface"}},
{"type":"Feature","id":384,"geometry":{"type":"Point","coordinates":[-122.30067468476038,37.868859492587056]},"properties":{"OBJECTID":384,"Name_of_Lo":"4th Street Shopping District","Address_Co":"715 Hearst","Capacity":2,"Type":"4. Inverted U, old subsurface"}},
{"type":"Feature","id":385,"geometry":{"type":"Point","coordinates":[-122.29987151153067,37.869016724839675]},"properties":{"OBJECTID":385,"Name_of_Lo":"4th Street Shopping District","Address_Co":"755 Hearst","Capacity":2,"Type":"4. Inverted U, old subsurface"}},
{"type":"Feature","id":387,"geometry":{"type":"Point","coordinates":[-122.2817005362098,37.881731995206806]},"properties":{"OBJECTID":387,"Name_of_Lo":"Hopkins St. Bakery","Address_Co":"1584 Hopkins","Capacity":2,"Type":"1. Inverted U, surface"}},
{"type":"Feature","id":395,"geometry":{"type":"Point","coordinates":[-122.3129428542329,37.86813218322153]},"properties":{"OBJECTID":395,"Name_of_Lo":" Cesar Chavez Park SE corner","Address_Co":"200 Marina","Capacity":5,"Type":"8. Wave Rack"}},
{"type":"Feature","id":413,"geometry":{"type":"Point","coordinates":[-122.29259377128835,37.85866780763556]},"properties":{"OBJECTID":413,"Name_of_Lo":"Studio Rasa/Sawtooth Bldg","Address_Co":"933 Parker","Capacity":2,"Type":"1. Inverted U, surface"}},
{"type":"Feature","id":414,"geometry":{"type":"Point","coordinates":[-122.29259377128835,37.85866780763556]},"properties":{"OBJECTID":414,"Name_of_Lo":"Studio Rasa/Sawtooth Bldg","Address_Co":"933 Parker","Capacity":2,"Type":"1. Inverted U, surface"}},
{"type":"Feature","id":420,"geometry":{"type":"Point","coordinates":[-122.29564260997685,37.87996728435609]},"properties":{"OBJECTID":420,"Name_of_Lo":"The Meal Ticket Restaurant","Address_Co":"1325 San Pablo Ave","Capacity":2,"Type":"1. Inverted U, surface"}},
{"type":"Feature","id":421,"geometry":{"type":"Point","coordinates":[-122.28899296869756,37.85929447529292]},"properties":{"OBJECTID":421,"Name_of_Lo":"Eco Home Improvement","Address_Co":"2619 San Pablo Ave","Capacity":2,"Type":"1. Inverted U, surface"}},
{"type":"Feature","id":492,"geometry":{"type":"Point","coordinates":[-122.31735732609253,37.87015972225801]},"properties":{"OBJECTID":492,"Name_of_Lo":"Cesar Chavez Park-SW corner","Address_Co":"11 Spinnaker Way","Capacity":4,"Type":"1. Inverted U, surface"}},
{"type":"Feature","id":517,"geometry":{"type":"Point","coordinates":[-122.31714402149402,37.86232895340306]},"properties":{"OBJECTID":517,"Name_of_Lo":"Berkeley Marina-municipal pier","Address_Co":"198 Sea Wall Drive","Capacity":7,"Type":"8. Wave Rack"}},
{"type":"Feature","id":520,"geometry":{"type":"Point","coordinates":[-122.29985935794721,37.867468562019035]},"properties":{"OBJECTID":520,"Name_of_Lo":"Berkeley Rail Stop","Address_Co":"700 University","Capacity":2,"Type":"1. Inverted U, surface"}},
{"type":"Feature","id":521,"geometry":{"type":"Point","coordinates":[-122.29985935794721,37.867468562019035]},"properties":{"OBJECTID":521,"Name_of_Lo":"Berkeley Rail Stop","Address_Co":"700 University","Capacity":2,"Type":"1. Inverted U, surface"}},
{"type":"Feature","id":522,"geometry":{"type":"Point","coordinates":[-122.29985935794721,37.867468562019035]},"properties":{"OBJECTID":522,"Name_of_Lo":"Berkeley Rail Stop","Address_Co":"700 University","Capacity":2,"Type":"1. Inverted U, surface"}},
{"type":"Feature","id":523,"geometry":{"type":"Point","coordinates":[-122.29985935794721,37.867468562019035]},"properties":{"OBJECTID":523,"Name_of_Lo":"Berkeley Rail Stop","Address_Co":"700 University","Capacity":2,"Type":"1. Inverted U, surface"}},
{"type":"Feature","id":524,"geometry":{"type":"Point","coordinates":[-122.29985935794721,37.867468562019035]},"properties":{"OBJECTID":524,"Name_of_Lo":"Berkeley Rail Stop","Address_Co":"700 University","Capacity":2,"Type":"1. Inverted U, surface"}},
{"type":"Feature","id":525,"geometry":{"type":"Point","coordinates":[-122.29985935794721,37.867468562019035]},"properties":{"OBJECTID":525,"Name_of_Lo":"Berkeley Rail Stop","Address_Co":"700 University","Capacity":2,"Type":"1. Inverted U, surface"}},
{"type":"Feature","id":526,"geometry":{"type":"Point","coordinates":[-122.29985935794721,37.867468562019035]},"properties":{"OBJECTID":526,"Name_of_Lo":"Berkeley Rail Stop","Address_Co":"700 University","Capacity":2,"Type":"1. Inverted U, surface"}},
{"type":"Feature","id":527,"geometry":{"type":"Point","coordinates":[-122.29985935794721,37.867468562019035]},"properties":{"OBJECTID":527,"Name_of_Lo":"Berkeley Rail Stop","Address_Co":"700 University","Capacity":2,"Type":"1. Inverted U, surface"}},
{"type":"Feature","id":528,"geometry":{"type":"Point","coordinates":[-122.29985935794721,37.867468562019035]},"properties":{"OBJECTID":528,"Name_of_Lo":"Berkeley Rail Stop","Address_Co":"700 University","Capacity":2,"Type":"1. Inverted U, surface"}},
{"type":"Feature","id":529,"geometry":{"type":"Point","coordinates":[-122.29985935794721,37.867468562019035]},"properties":{"OBJECTID":529,"Name_of_Lo":"Berkeley Rail Stop","Address_Co":"700 University","Capacity":2,"Type":"1. Inverted U, surface"}},
{"type":"Feature","id":530,"geometry":{"type":"Point","coordinates":[-122.29985935794721,37.867468562019035]},"properties":{"OBJECTID":530,"Name_of_Lo":"Berkeley Rail Stop","Address_Co":"700 University","Capacity":2,"Type":"1. Inverted U, surface"}},
{"type":"Feature","id":531,"geometry":{"type":"Point","coordinates":[-122.29985935794721,37.867468562019035]},"properties":{"OBJECTID":531,"Name_of_Lo":"Berkeley Rail Stop","Address_Co":"700 University","Capacity":2,"Type":"1. Inverted U, surface"}},
{"type":"Feature","id":532,"geometry":{"type":"Point","coordinates":[-122.29985935794721,37.867468562019035]},"properties":{"OBJECTID":532,"Name_of_Lo":"Berkeley Rail Stop","Address_Co":"700 University","Capacity":2,"Type":"1. Inverted U, surface"}},
{"type":"Feature","id":536,"geometry":{"type":"Point","coordinates":[-122.29814740051951,37.86926147327832]},"properties":{"OBJECTID":536,"Name_of_Lo":"West Berkeley Senior Center","Address_Co":"1900 6th Street","Capacity":4,"Type":"1. Inverted U, surface"}},
{"type":"Feature","id":537,"geometry":{"type":"Point","coordinates":[-122.29292284049514,37.85689031832815]},"properties":{"OBJECTID":537,"Name_of_Lo":"Bistro 7","Address_Co":"2703 7th Street","Capacity":4,"Type":"1. Inverted U, surface"}},
{"type":"Feature","id":545,"geometry":{"type":"Point","coordinates":[-122.28039947987656,37.8769261851514]},"properties":{"OBJECTID":545,"Name_of_Lo":"Cedar Market","Address_Co":"1601 California","Capacity":2,"Type":"1. Inverted U, surface"}},
{"type":"Feature","id":549,"geometry":{"type":"Point","coordinates":[-122.28007894039942,37.85866684484195]},"properties":{"OBJECTID":549,"Name_of_Lo":"Longfellow School","Address_Co":"1500 Derby","Capacity":12,"Type":"10. Old Rack Other"}},
{"type":"Feature","id":550,"geometry":{"type":"Point","coordinates":[-122.28007894039942,37.85866684484195]},"properties":{"OBJECTID":550,"Name_of_Lo":"Longfellow School","Address_Co":"1500 Derby","Capacity":12,"Type":"10. Old Rack Other"}},
{"type":"Feature","id":559,"geometry":{"type":"Point","coordinates":[-122.3041092686005,37.878849996087816]},"properties":{"OBJECTID":559,"Name_of_Lo":"Tag Pottery","Address_Co":"725 Gilman","Capacity":4,"Type":"1. Inverted U, surface"}},
{"type":"Feature","id":560,"geometry":{"type":"Point","coordinates":[-122.30339577195531,37.878894624569284]},"properties":{"OBJECTID":560,"Name_of_Lo":"New Pieces\n","Address_Co":"766 Gilman","Capacity":2,"Type":"1. Inverted U, surface"}},
{"type":"Feature","id":564,"geometry":{"type":"Point","coordinates":[-122.28231411712916,37.881420284853014]},"properties":{"OBJECTID":564,"Name_of_Lo":"Monterey Market","Address_Co":"1550 Hopkins","Capacity":4,"Type":"1. Inverted U, surface"}},
{"type":"Feature","id":571,"geometry":{"type":"Point","coordinates":[-122.29562436909472,37.879913362705445]},"properties":{"OBJECTID":571,"Name_of_Lo":"Ashkenaz","Address_Co":"1317 San Pablo Ave","Capacity":6,"Type":"1. Inverted U, surface"}},
{"type":"Feature","id":572,"geometry":{"type":"Point","coordinates":[-122.29562436909472,37.879913362705445]},"properties":{"OBJECTID":572,"Name_of_Lo":"Ashkenaz","Address_Co":"1317 San Pablo Ave","Capacity":6,"Type":"1. Inverted U, surface"}},
{"type":"Feature","id":627,"geometry":{"type":"Point","coordinates":[-122.28341906320829,37.87010968974342]},"properties":{"OBJECTID":627,"Name_of_Lo":"Build it Green","Address_Co":"1434 University","Capacity":2,"Type":"1. Inverted U, surface"}},
{"type":"Feature","id":628,"geometry":{"type":"Point","coordinates":[-122.29532912025155,37.86857609392068]},"properties":{"OBJECTID":628,"Name_of_Lo":"Temple Bar Tiki Bar and Grill","Address_Co":"984 University","Capacity":4,"Type":"1. Inverted U, surface"}},
{"type":"Feature","id":629,"geometry":{"type":"Point","coordinates":[-122.29542322983586,37.86855705131582]},"properties":{"OBJECTID":629,"Name_of_Lo":"Milan International","Address_Co":"990 University","Capacity":2,"Type":"1. Inverted U, surface"}},
{"type":"Feature","id":638,"geometry":{"type":"Point","coordinates":[-122.30289024058797,37.88019623329007]},"properties":{"OBJECTID":638,"Name_of_Lo":"North Face Outlet","Address_Co":"1238 5th Street","Capacity":4,"Type":"3. Circle"}},
{"type":"Feature","id":646,"geometry":{"type":"Point","coordinates":[-122.28440692617869,37.87832578369043]},"properties":{"OBJECTID":646,"Name_of_Lo":"Jefferson School","Address_Co":"1452 Rose","Capacity":6,"Type":"1. Inverted U, surface"}},
{"type":"Feature","id":650,"geometry":{"type":"Point","coordinates":[-122.28182971760477,37.8816678336543]},"properties":{"OBJECTID":650,"Name_of_Lo":"Country Cheese Market","Address_Co":"1578 Hopkins","Capacity":2,"Type":"1. Inverted U, surface"}},
{"type":"Feature","id":651,"geometry":{"type":"Point","coordinates":[-122.29952223848132,37.87019763620109]},"properties":{"OBJECTID":651,"Name_of_Lo":"Melissa Joy Manning Store","Address_Co":"1827 5th Street","Capacity":2,"Type":"1. Inverted U, surface"}},
{"type":"Feature","id":652,"geometry":{"type":"Point","coordinates":[-122.30141969445698,37.87954369638049]},"properties":{"OBJECTID":652,"Name_of_Lo":"Jimmy Bean's","Address_Co":"1290 6th Street","Capacity":4,"Type":"1. Inverted U, surface"}},
{"type":"Feature","id":653,"geometry":{"type":"Point","coordinates":[-122.29292284049514,37.85689031832815]},"properties":{"OBJECTID":653,"Name_of_Lo":"Nina's Café","Address_Co":"2703 7th Street","Capacity":2,"Type":"1. Inverted U, surface"}},
{"type":"Feature","id":654,"geometry":{"type":"Point","coordinates":[-122.29252201494639,37.85523563598835]},"properties":{"OBJECTID":654,"Name_of_Lo":"Greener Printer","Address_Co":"2800 7th Street","Capacity":8,"Type":"1. Inverted U, surface"}},
{"type":"Feature","id":655,"geometry":{"type":"Point","coordinates":[-122.29819034700965,37.87643606438606]},"properties":{"OBJECTID":655,"Name_of_Lo":"Franklin Preschool","Address_Co":"1460 8th Street","Capacity":6,"Type":"1. Inverted U, surface"}},
{"type":"Feature","id":656,"geometry":{"type":"Point","coordinates":[-122.29149759159044,37.85939042981533]},"properties":{"OBJECTID":656,"Name_of_Lo":"Westside Restaurant","Address_Co":"2570 9th Street","Capacity":6,"Type":"4. Inverted U, old subsurface"}},
{"type":"Feature","id":657,"geometry":{"type":"Point","coordinates":[-122.29180654510044,37.860371737673724]},"properties":{"OBJECTID":657,"Name_of_Lo":"Office Building","Address_Co":"2512 9th Street","Capacity":2,"Type":"4. Inverted U, old subsurface"}},
{"type":"Feature","id":678,"geometry":{"type":"Point","coordinates":[-122.29304135460288,37.868790681011966]},"properties":{"OBJECTID":678,"Name_of_Lo":"UA Homes","Address_Co":"1040 University","Capacity":4,"Type":"1. Inverted U, surface"}},
{"type":"Feature","id":690,"geometry":{"type":"Point","coordinates":[-122.28039947987656,37.8769261851514]},"properties":{"OBJECTID":690,"Name_of_Lo":"Cedar Market","Address_Co":"1601 California","Capacity":2,"Type":"1. Inverted U, surface"}},
{"type":"Feature","id":737,"geometry":{"type":"Point","coordinates":[-122.30013776904023,37.86864381775555]},"properties":{"OBJECTID":737,"Name_of_Lo":"Spenger's Grotto","Address_Co":"1919 4th Street","Capacity":4,"Type":"3. Circle"}},
{"type":"Feature","id":738,"geometry":{"type":"Point","coordinates":[-122.29641239524365,37.880421526583426]},"properties":{"OBJECTID":738,"Name_of_Lo":"Gilman/San pablo","Address_Co":"1049 Gilman","Capacity":2,"Type":"1. Inverted U, surface"}},
{"type":"Feature","id":739,"geometry":{"type":"Point","coordinates":[-122.28839983936336,37.880989399267456]},"properties":{"OBJECTID":739,"Name_of_Lo":"Berkeley Natural Foods","Address_Co":"1336 Gilman","Capacity":2,"Type":"1. Inverted U, surface"}},
{"type":"Feature","id":740,"geometry":{"type":"Point","coordinates":[-122.29063122857838,37.881578669553996]},"properties":{"OBJECTID":740,"Name_of_Lo":"Toot Sweets","Address_Co":"1279 Gilman","Capacity":4,"Type":"1. Inverted U, surface"}},
{"type":"Feature","id":741,"geometry":{"type":"Point","coordinates":[-122.2894505001752,37.881364280724725]},"properties":{"OBJECTID":741,"Name_of_Lo":"Dental Offices/Chiropractor","Address_Co":"1313 Gilman","Capacity":4,"Type":"1. Inverted U, surface"}},
{"type":"Feature","id":742,"geometry":{"type":"Point","coordinates":[-122.2924219894023,37.855257134714314]},"properties":{"OBJECTID":742,"Name_of_Lo":"900 Greyson Restaurant","Address_Co":"900 Grayson","Capacity":6,"Type":"1. Inverted U, surface"}},
{"type":"Feature","id":749,"geometry":{"type":"Point","coordinates":[-122.29169568574409,37.86775442673732]},"properties":{"OBJECTID":749,"Name_of_Lo":"Anja's Kitchen","Address_Co":"2121 San Pablo Ave","Capacity":6,"Type":"1. Inverted U, surface"}},
{"type":"Feature","id":750,"geometry":{"type":"Point","coordinates":[-122.28157138082356,37.88179614866306]},"properties":{"OBJECTID":750,"Name_of_Lo":"Monterey Liquors","Address_Co":"1590 Hopkins","Capacity":2,"Type":"1. Inverted U, surface"}},
{"type":"Feature","id":761,"geometry":{"type":"Point","coordinates":[-122.28413594456897,37.87854686149538]},"properties":{"OBJECTID":761,"Name_of_Lo":"Crowden School","Address_Co":"1475 Rose","Capacity":4,"Type":"3. Circle"}},
{"type":"Feature","id":764,"geometry":{"type":"Point","coordinates":[-122.28899296869756,37.85929447529292]},"properties":{"OBJECTID":764,"Name_of_Lo":"Eco Home Improvement","Address_Co":"2619 San Pablo Ave","Capacity":2,"Type":"1. Inverted U, surface"}},
{"type":"Feature","id":765,"geometry":{"type":"Point","coordinates":[-122.29018643329309,37.86285976434501]},"properties":{"OBJECTID":765,"Name_of_Lo":"Barbarella's Beauty Salon","Address_Co":"2442 San Pablo Ave","Capacity":4,"Type":"1. Inverted U, surface"}},
{"type":"Feature","id":766,"geometry":{"type":"Point","coordinates":[-122.29129908727538,37.86640703659179]},"properties":{"OBJECTID":766,"Name_of_Lo":"Next to Ackerman's volvo service","Address_Co":"2218 San Pablo Ave","Capacity":4,"Type":"1. Inverted U, surface"}},
{"type":"Feature","id":767,"geometry":{"type":"Point","coordinates":[-122.29072598323027,37.86465115465317]},"properties":{"OBJECTID":767,"Name_of_Lo":"East Bay Nursury","Address_Co":"2300 San Pablo Ave","Capacity":4,"Type":"1. Inverted U, surface"}},
{"type":"Feature","id":768,"geometry":{"type":"Point","coordinates":[-122.2920330717197,37.868528586590536]},"properties":{"OBJECTID":768,"Name_of_Lo":"Mi Tierra Foods","Address_Co":"2096 San Pablo Ave","Capacity":4,"Type":"1. Inverted U, surface"}},
{"type":"Feature","id":769,"geometry":{"type":"Point","coordinates":[-122.29197538712907,37.86883271362423]},"properties":{"OBJECTID":769,"Name_of_Lo":"Local 123 (Café) aka Café Berlin","Address_Co":"2047 San Pablo Ave","Capacity":6,"Type":"1. Inverted U, surface"}},
{"type":"Feature","id":770,"geometry":{"type":"Point","coordinates":[-122.2933434863686,37.872565678765326]},"properties":{"OBJECTID":770,"Name_of_Lo":"Cafe Leila","Address_Co":"1724 San Pablo Ave","Capacity":4,"Type":"1. Inverted U, surface"}},
{"type":"Feature","id":771,"geometry":{"type":"Point","coordinates":[-122.29293999547127,37.87161957674244]},"properties":{"OBJECTID":771,"Name_of_Lo":"Casa Latina","Address_Co":"1805 San Pablo Ave","Capacity":8,"Type":"1. Inverted U, surface"}},
{"type":"Feature","id":772,"geometry":{"type":"Point","coordinates":[-122.29300585626422,37.8713805817169]},"properties":{"OBJECTID":772,"Name_of_Lo":"Albatross Pub","Address_Co":"1822 San Pablo Ave","Capacity":4,"Type":"1. Inverted U, surface"}},
{"type":"Feature","id":773,"geometry":{"type":"Point","coordinates":[-122.29199714690466,37.8689112677873]},"properties":{"OBJECTID":773,"Name_of_Lo":"Lanesplitter's Pizza","Address_Co":"2033 San Pablo Ave","Capacity":4,"Type":"1. Inverted U, surface"}},
{"type":"Feature","id":806,"geometry":{"type":"Point","coordinates":[-122.31917490952164,37.86982139376068]},"properties":{"OBJECTID":806,"Name_of_Lo":"Spinnaker Way","Address_Co":"1 Spinnaker Way","Capacity":10,"Type":"7. Five Rack - Rail"}},
{"type":"Feature","id":811,"geometry":{"type":"Point","coordinates":[-122.29189659434887,37.86899977751411]},"properties":{"OBJECTID":811,"Name_of_Lo":"Kabana Restaurant","Address_Co":"1106 University","Capacity":4,"Type":"1. Inverted U, surface"}},
{"type":"Feature","id":823,"geometry":{"type":"Point","coordinates":[-122.31356917900634,37.86374009618628]},"properties":{"OBJECTID":823,"Name_of_Lo":"Berkeley Marina - Cal Sailing Area","Address_Co":"201 University","Capacity":20,"Type":"7. Five Rack - Rail"}},
{"type":"Feature","id":824,"geometry":{"type":"Point","coordinates":[-122.31356917900634,37.86374009618628]},"properties":{"OBJECTID":824,"Name_of_Lo":"Berkeley Marina - L/M Docks","Address_Co":"201 University","Capacity":20,"Type":"7. Five Rack - Rail"}},
{"type":"Feature","id":830,"geometry":{"type":"Point","coordinates":[-122.29271428954718,37.86728658267707]},"properties":{"OBJECTID":830,"Name_of_Lo":"George Florence Park","Address_Co":"2121 10th Street","Capacity":2,"Type":"1. Inverted U, surface"}},
{"type":"Feature","id":831,"geometry":{"type":"Point","coordinates":[-122.30357780664566,37.87885984456258]},"properties":{"OBJECTID":831,"Name_of_Lo":"Gilman Grill","Address_Co":"1300 4th Street","Capacity":4,"Type":"1. Inverted U, surface"}},
{"type":"Feature","id":832,"geometry":{"type":"Point","coordinates":[-122.29702300566055,37.86922224099453]},"properties":{"OBJECTID":832,"Name_of_Lo":"Multi-Cultural Institute","Address_Co":"1920 7th Street","Capacity":2,"Type":"1. Inverted U, surface"}},
{"type":"Feature","id":833,"geometry":{"type":"Point","coordinates":[-122.2922098543861,37.85470370743936]},"properties":{"OBJECTID":833,"Name_of_Lo":"Metro Lofts (West Berkeley Wellness)","Address_Co":"2833 7th Street","Capacity":4,"Type":"1. Inverted U, surface"}},
{"type":"Feature","id":834,"geometry":{"type":"Point","coordinates":[-122.29272445705215,37.85997463693943]},"properties":{"OBJECTID":834,"Name_of_Lo":"Sawtooth Building (studio 12)","Address_Co":"2525 8th Street","Capacity":4,"Type":"1. Inverted U, surface"}},
{"type":"Feature","id":858,"geometry":{"type":"Point","coordinates":[-122.30254596885007,37.87594065857823]},"properties":{"OBJECTID":858,"Name_of_Lo":"Acupuncture Clinic","Address_Co":"770 Page","Capacity":2,"Type":"1. Inverted U, surface"}},
{"type":"Feature","id":862,"geometry":{"type":"Point","coordinates":[-122.29209834648746,37.868764257129]},"properties":{"OBJECTID":862,"Name_of_Lo":"Middle East Market","Address_Co":"2054 San Pablo Ave","Capacity":2,"Type":"1. Inverted U, surface"}},
{"type":"Feature","id":863,"geometry":{"type":"Point","coordinates":[-122.29135060485636,37.86625818983819]},"properties":{"OBJECTID":863,"Name_of_Lo":"Gallego's","Address_Co":"2200 San Pablo Ave","Capacity":2,"Type":"1. Inverted U, surface"}},
{"type":"Feature","id":864,"geometry":{"type":"Point","coordinates":[-122.28880788917834,37.858340680361046]},"properties":{"OBJECTID":864,"Name_of_Lo":"Far Leaves Tea","Address_Co":"2626 San Pablo Ave","Capacity":2,"Type":"1. Inverted U, surface"}},
{"type":"Feature","id":865,"geometry":{"type":"Point","coordinates":[-122.28888089146471,37.85856982113579]},"properties":{"OBJECTID":865,"Name_of_Lo":"Black Oak Books","Address_Co":"2618 San Pablo Ave","Capacity":6,"Type":"1. Inverted U, surface"}},
{"type":"Feature","id":866,"geometry":{"type":"Point","coordinates":[-122.29623000012323,37.881822092233755]},"properties":{"OBJECTID":866,"Name_of_Lo":"Sabuy Sabuy II","Address_Co":"1233 San Pablo Ave","Capacity":2,"Type":"1. Inverted U, surface"}},
{"type":"Feature","id":867,"geometry":{"type":"Point","coordinates":[-122.29288678266457,37.87145489922576]},"properties":{"OBJECTID":867,"Name_of_Lo":"Karate Studio","Address_Co":"1819 San Pablo Ave","Capacity":6,"Type":"1. Inverted U, surface"}},
{"type":"Feature","id":871,"geometry":{"type":"Point","coordinates":[-122.28963663709855,37.85769751805157]},"properties":{"OBJECTID":871,"Name_of_Lo":"Oceanworks Berkeley","Address_Co":"2703 10th Street","Capacity":2,"Type":"2. Post and Ring"}},
{"type":"Feature","id":873,"geometry":{"type":"Point","coordinates":[-122.30234992129857,37.8785608027403]},"properties":{"OBJECTID":873,"Name_of_Lo":"Flip and Tumble (Donkey & Goat)","Address_Co":"1330 5th Street","Capacity":2,"Type":"3. Circle"}},
{"type":"Feature","id":874,"geometry":{"type":"Point","coordinates":[-122.29129180831839,37.86827113663936]},"properties":{"OBJECTID":874,"Name_of_Lo":"West Berkeley Fencing","Address_Co":"1111 Addison","Capacity":4,"Type":"1. Inverted U, surface"}},
{"type":"Feature","id":875,"geometry":{"type":"Point","coordinates":[-122.29464956612203,37.86564370976864]},"properties":{"OBJECTID":875,"Name_of_Lo":"BUSD - Rosa Parks School","Address_Co":"920 Allston","Capacity":20,"Type":"7. Five Rack - Rail"}},
{"type":"Feature","id":876,"geometry":{"type":"Point","coordinates":[-122.29464956612203,37.86564370976864]},"properties":{"OBJECTID":876,"Name_of_Lo":"BUSD - Rosa Parks School","Address_Co":"920 Allston","Capacity":6,"Type":"5. Three Rack - Rail"}},
{"type":"Feature","id":879,"geometry":{"type":"Point","coordinates":[-122.28977254983592,37.88132706482174]},"properties":{"OBJECTID":879,"Name_of_Lo":"Blue Heron Bikes","Address_Co":"1306 Gilman","Capacity":4,"Type":"3. Circle"}},
{"type":"Feature","id":882,"geometry":{"type":"Point","coordinates":[-122.29079575747939,37.85364944048261]},"properties":{"OBJECTID":882,"Name_of_Lo":"Berkeley Bowl South","Address_Co":"920 Heinz","Capacity":4,"Type":"3. Circle"}},
{"type":"Feature","id":889,"geometry":{"type":"Point","coordinates":[-122.28935396096728,37.8602411343847]},"properties":{"OBJECTID":889,"Name_of_Lo":"Ecology Center","Address_Co":"2530 San Pablo Ave","Capacity":4,"Type":"1. Inverted U, surface"}},
{"type":"Feature","id":891,"geometry":{"type":"Point","coordinates":[-122.29213253340274,37.868887706388826]},"properties":{"OBJECTID":891,"Name_of_Lo":"Mi Ranchito","Address_Co":"2032 San Pablo Ave","Capacity":4,"Type":"1. Inverted U, surface"}},
{"type":"Feature","id":892,"geometry":{"type":"Point","coordinates":[-122.29251355367853,37.870364692100694]},"properties":{"OBJECTID":892,"Name_of_Lo":"Capoeira School","Address_Co":"1901 San Pablo Ave","Capacity":8,"Type":"1. Inverted U, surface"}},
{"type":"Feature","id":896,"geometry":{"type":"Point","coordinates":[-122.2834643706284,37.87010410889787]},"properties":{"OBJECTID":896,"Name_of_Lo":"Berkeley Federation of Teachers","Address_Co":"1432 University","Capacity":8,"Type":"1. Inverted U, surface"}},
{"type":"Feature","id":901,"geometry":{"type":"Point","coordinates":[-122.30023995518131,37.879280094781166]},"properties":{"OBJECTID":901,"Name_of_Lo":"BUSD Transportation Department","Address_Co":"1314 7th Street","Capacity":6,"Type":"5. Three Rack - Rail"}},
{"type":"Feature","id":904,"geometry":{"type":"Point","coordinates":[-122.2894965880725,37.861054011577046]},"properties":{"OBJECTID":904,"Name_of_Lo":"Cruz Skate Shop","Address_Co":"2505 San Pablo Ave","Capacity":4,"Type":"1. Inverted U, surface"}},
{"type":"Feature","id":905,"geometry":{"type":"Point","coordinates":[-122.28960521247292,37.861122962562895]},"properties":{"OBJECTID":905,"Name_of_Lo":"Trieste Café","Address_Co":"2500 San Pablo Ave","Capacity":6,"Type":"1. Inverted U, surface"}},
{"type":"Feature","id":906,"geometry":{"type":"Point","coordinates":[-122.28962573660854,37.86109845582736]},"properties":{"OBJECTID":906,"Name_of_Lo":"Eat","Address_Co":"2512 San Pablo Ave","Capacity":2,"Type":"1. Inverted U, surface"}},
{"type":"Feature","id":907,"geometry":{"type":"Point","coordinates":[-122.2896154751281,37.861110707396556]},"properties":{"OBJECTID":907,"Name_of_Lo":"Sign-a-rama","Address_Co":"2506 San Pablo Ave","Capacity":4,"Type":"1. Inverted U, surface"}},
{"type":"Feature","id":909,"geometry":{"type":"Point","coordinates":[-122.29777906087912,37.86136989144705]},"properties":{"OBJECTID":909,"Name_of_Lo":"Poly Seal Industries","Address_Co":"725 Channing","Capacity":6,"Type":"1. Inverted U, surface"}},
{"type":"Feature","id":911,"geometry":{"type":"Point","coordinates":[-122.29170121720874,37.86776923942004]},"properties":{"OBJECTID":911,"Name_of_Lo":"Post Office","Address_Co":"2111 San Pablo Ave","Capacity":2,"Type":"1. Inverted U, surface"}},
{"type":"Feature","id":914,"geometry":{"type":"Point","coordinates":[-122.29209523516369,37.86875303625043]},"properties":{"OBJECTID":914,"Name_of_Lo":"Restaurant & Market","Address_Co":"2056 San Pablo Ave","Capacity":4,"Type":"1. Inverted U, surface"}},
{"type":"Feature","id":919,"geometry":{"type":"Point","coordinates":[-122.28964284066183,37.861078028441234]},"properties":{"OBJECTID":919,"Name_of_Lo":"Kiss My Ring","Address_Co":"2522 San Pablo Ave","Capacity":2,"Type":"1. Inverted U, surface"}},
{"type":"Feature","id":920,"geometry":{"type":"Point","coordinates":[-122.28935396096728,37.8602411343847]},"properties":{"OBJECTID":920,"Name_of_Lo":"Ecology Center","Address_Co":"2530 San Pablo Ave","Capacity":10,"Type":"1. Inverted U, surface"}},
{"type":"Feature","id":921,"geometry":{"type":"Point","coordinates":[-122.28962573660854,37.86109845582736]},"properties":{"OBJECTID":921,"Name_of_Lo":"Vacant (\"Lounge\")","Address_Co":"2512 San Pablo Ave","Capacity":2,"Type":"1. Inverted U, surface"}},
{"type":"Feature","id":922,"geometry":{"type":"Point","coordinates":[-122.28963941937822,37.86108211589865]},"properties":{"OBJECTID":922,"Name_of_Lo":"Juniper Tree","Address_Co":"2520 San Pablo Ave","Capacity":2,"Type":"1. Inverted U, surface"}},
{"type":"Feature","id":923,"geometry":{"type":"Point","coordinates":[-122.28962915790234,37.861094367469114]},"properties":{"OBJECTID":923,"Name_of_Lo":"Paisan Osteria & Bar","Address_Co":"2514 San Pablo Ave","Capacity":2,"Type":"1. Inverted U, surface"}},
{"type":"Feature","id":929,"geometry":{"type":"Point","coordinates":[-122.28756214809378,37.869659269152145]},"properties":{"OBJECTID":929,"Name_of_Lo":"BUSD- Admin Offices","Address_Co":"2000 Bonar","Capacity":4,"Type":"1. Inverted U, surface"}},
{"type":"Feature","id":931,"geometry":{"type":"Point","coordinates":[-122.29349451032135,37.873389100159564]},"properties":{"OBJECTID":931,"Name_of_Lo":"BUSD - Berkeley Adult School","Address_Co":"1701 San Pablo Ave","Capacity":8,"Type":"6. Four Rack - Rail"}},
{"type":"Feature","id":932,"geometry":{"type":"Point","coordinates":[-122.29349451032135,37.873389100159564]},"properties":{"OBJECTID":932,"Name_of_Lo":"BUSD - Berkeley Adult School","Address_Co":"1701 San Pablo Ave","Capacity":8,"Type":"6. Four Rack - Rail"}},
{"type":"Feature","id":935,"geometry":{"type":"Point","coordinates":[-122.30625489838825,37.88020833832831]},"properties":{"OBJECTID":935,"Name_of_Lo":"City of Berkeley Zero Waste Recycling Center","Address_Co":"1201 2nd St","Capacity":6,"Type":"5. Three Rack - Rail"}},
{"type":"Feature","id":936,"geometry":{"type":"Point","coordinates":[-122.29175428827577,37.85732403841267]},"properties":{"OBJECTID":936,"Name_of_Lo":"Juan's Place","Address_Co":"941 Carleton Street","Capacity":4,"Type":"1. Inverted U, surface"}},
{"type":"Feature","id":937,"geometry":{"type":"Point","coordinates":[-122.2851977588654,37.87894253329585]},"properties":{"OBJECTID":937,"Name_of_Lo":"BUSD - Jefferson Elementary School","Address_Co":"1400 Ada Street","Capacity":30,"Type":"7. Five Rack - Rail"}},
{"type":"Feature","id":939,"geometry":{"type":"Point","coordinates":[-122.28756214809378,37.869659269152145]},"properties":{"OBJECTID":939,"Name_of_Lo":"BUSD - Admin Offices","Address_Co":"2000 Bonar","Capacity":12,"Type":"5. Three Rack - Rail"}},
{"type":"Feature","id":940,"geometry":{"type":"Point","coordinates":[-122.28756214809378,37.869659269152145]},"properties":{"OBJECTID":940,"Name_of_Lo":"BUSD - Admin Offices","Address_Co":"2000 Bonar","Capacity":8,"Type":"6. Four Rack - Rail"}},
{"type":"Feature","id":941,"geometry":{"type":"Point","coordinates":[-122.28873889358803,37.85813233406851]},"properties":{"OBJECTID":941,"Name_of_Lo":"Dave's Record Shop","Address_Co":"2634 San Pablo Ave","Capacity":2,"Type":"1. Inverted U, surface"}},
{"type":"Feature","id":948,"geometry":{"type":"Point","coordinates":[-122.2851977588654,37.87894253329585]},"properties":{"OBJECTID":948,"Name_of_Lo":"BUSD - Jefferson Elementary School","Address_Co":"1400 Ada Street","Capacity":4,"Type":"1. Inverted U, surface"}}
]}
