{"type":"FeatureCollection","features":[
{"type":"Feature","id":32,"geometry":{"type":"Point","coordinates":[-122.28080950413494,37.87963886153979]},"properties":{"OBJECTID":32,"HYDRANTNUMBER":"1103","LIFECYCLESTATUS":"AC"}},
{"type":"Feature","id":34,"geometry":{"type":"Point","coordinates":[-122.29517865032277,37.87506114828819]},"properties":{"OBJECTID":34,"HYDRANTNUMBER":"17881","LIFECYCLESTATUS":"AC"}},
{"type":"Feature","id":35,"geometry":{"type":"Point","coordinates":[-122.29339407736428,37.87263969608687]},"properties":{"OBJECTID":35,"HYDRANTNUMBER":"1089","LIFECYCLESTATUS":"AC"}},
{"type":"Feature","id":36,"geometry":{"type":"Point","coordinates":[-122.29376639535275,37.873459714015695]},"properties":{"OBJECTID":36,"HYDRANTNUMBER":"581","LIFECYCLESTATUS":"AC"}},
{"type":"Feature","id":37,"geometry":{"type":"Point","coordinates":[-122.29257322263928,37.87368568412003]},"properties":{"OBJECTID":37,"HYDRANTNUMBER":"582","LIFECYCLESTATUS":"AC"}},
{"type":"Feature","id":38,"geometry":{"type":"Point","coordinates":[-122.29223496781239,37.875515432544205]},"properties":{"OBJECTID":38,"HYDRANTNUMBER":"1390","LIFECYCLESTATUS":"AC"}},
{"type":"Feature","id":39,"geometry":{"type":"Point","coordinates":[-122.29087694301795,37.873892625177085]},"properties":{"OBJECTID":39,"HYDRANTNUMBER":"584","LIFECYCLESTATUS":"AC"}},
{"type":"Feature","id":40,"geometry":{"type":"Point","coordinates":[-122.28974592825855,37.87195988546678]},"properties":{"OBJECTID":40,"HYDRANTNUMBER":"657","LIFECYCLESTATUS":"AC"}},
{"type":"Feature","id":41,"geometry":{"type":"Point","coordinates":[-122.28961928011175,37.870837147961375]},"properties":{"OBJECTID":41,"HYDRANTNUMBER":"654","LIFECYCLESTATUS":"AC"}},
{"type":"Feature","id":42,"geometry":{"type":"Point","coordinates":[-122.28701302771042,37.87253874180755]},"properties":{"OBJECTID":42,"HYDRANTNUMBER":"1098","LIFECYCLESTATUS":"AC"}},
{"type":"Feature","id":43,"geometry":{"type":"Point","coordinates":[-122.28680194691599,37.87523242542556]},"properties":{"OBJECTID":43,"HYDRANTNUMBER":"13885","LIFECYCLESTATUS":"AC"}},
{"type":"Feature","id":44,"geometry":{"type":"Point","coordinates":[-122.28694534295347,37.87435651277212]},"properties":{"OBJECTID":44,"HYDRANTNUMBER":"588","LIFECYCLESTATUS":"AC"}},
{"type":"Feature","id":45,"geometry":{"type":"Point","coordinates":[-122.28685893545682,37.87344592901311]},"properties":{"OBJECTID":45,"HYDRANTNUMBER":"1132","LIFECYCLESTATUS":"AC"}},
{"type":"Feature","id":46,"geometry":{"type":"Point","coordinates":[-122.28662329276156,37.871384476186186]},"properties":{"OBJECTID":46,"HYDRANTNUMBER":"1500","LIFECYCLESTATUS":"AC"}},
{"type":"Feature","id":47,"geometry":{"type":"Point","coordinates":[-122.28816042403382,37.87121202696305]},"properties":{"OBJECTID":47,"HYDRANTNUMBER":"646","LIFECYCLESTATUS":"AC"}},
{"type":"Feature","id":48,"geometry":{"type":"Point","coordinates":[-122.28860422425456,37.87514740764704]},"properties":{"OBJECTID":48,"HYDRANTNUMBER":"1388","LIFECYCLESTATUS":"AC"}},
{"type":"Feature","id":49,"geometry":{"type":"Point","coordinates":[-122.28972305302656,37.87588889770079]},"properties":{"OBJECTID":49,"HYDRANTNUMBER":"909","LIFECYCLESTATUS":"AC"}},
{"type":"Feature","id":50,"geometry":{"type":"Point","coordinates":[-122.2847436805503,37.87468917265998]},"properties":{"OBJECTID":50,"HYDRANTNUMBER":"13876","LIFECYCLESTATUS":"AC"}},
{"type":"Feature","id":51,"geometry":{"type":"Point","coordinates":[-122.28342709646567,37.87507957992999]},"properties":{"OBJECTID":51,"HYDRANTNUMBER":"13884","LIFECYCLESTATUS":"AC"}},
{"type":"Feature","id":52,"geometry":{"type":"Point","coordinates":[-122.28464572934568,37.87378197225774]},"properties":{"OBJECTID":52,"HYDRANTNUMBER":"1317","LIFECYCLESTATUS":"AC"}},
{"type":"Feature","id":53,"geometry":{"type":"Point","coordinates":[-122.28445189175514,37.87170751729575]},"properties":{"OBJECTID":53,"HYDRANTNUMBER":"1326","LIFECYCLESTATUS":"AC"}},
{"type":"Feature","id":54,"geometry":{"type":"Point","coordinates":[-122.28519621279864,37.8736651734592]},"properties":{"OBJECTID":54,"HYDRANTNUMBER":"13882","LIFECYCLESTATUS":"AC"}},
{"type":"Feature","id":55,"geometry":{"type":"Point","coordinates":[-122.28244300461488,37.873211718139515]},"properties":{"OBJECTID":55,"HYDRANTNUMBER":"13879","LIFECYCLESTATUS":"AC"}},
{"type":"Feature","id":56,"geometry":{"type":"Point","coordinates":[-122.28230976661405,37.871971922450655]},"properties":{"OBJECTID":56,"HYDRANTNUMBER":"612","LIFECYCLESTATUS":"AC"}},
{"type":"Feature","id":57,"geometry":{"type":"Point","coordinates":[-122.28428361031223,37.87094526001083]},"properties":{"OBJECTID":57,"HYDRANTNUMBER":"1137","LIFECYCLESTATUS":"AC"}},
{"type":"Feature","id":58,"geometry":{"type":"Point","coordinates":[-122.28338033845746,37.8730013268296]},"properties":{"OBJECTID":58,"HYDRANTNUMBER":"1253","LIFECYCLESTATUS":"AC"}},
{"type":"Feature","id":62,"geometry":{"type":"Point","coordinates":[-122.28224290816541,37.87495920592408]},"properties":{"OBJECTID":62,"HYDRANTNUMBER":"592","LIFECYCLESTATUS":"AC"}},
{"type":"Feature","id":64,"geometry":{"type":"Point","coordinates":[-122.2801552536841,37.87522477553714]},"properties":{"OBJECTID":64,"HYDRANTNUMBER":"593","LIFECYCLESTATUS":"AC"}},
{"type":"Feature","id":67,"geometry":{"type":"Point","coordinates":[-122.28101310333105,37.874192598943004]},"properties":{"OBJECTID":67,"HYDRANTNUMBER":"1628","LIFECYCLESTATUS":"AC"}},
{"type":"Feature","id":68,"geometry":{"type":"Point","coordinates":[-122.27984139025048,37.87249209305976]},"properties":{"OBJECTID":68,"HYDRANTNUMBER":"1191","LIFECYCLESTATUS":"AC"}},
{"type":"Feature","id":69,"geometry":{"type":"Point","coordinates":[-122.27999214045471,37.873227463273395]},"properties":{"OBJECTID":69,"HYDRANTNUMBER":"473","LIFECYCLESTATUS":"AC"}},
{"type":"Feature","id":108,"geometry":{"type":"Point","coordinates":[-122.28355434668991,37.87733551259642]},"properties":{"OBJECTID":108,"HYDRANTNUMBER":"1541","LIFECYCLESTATUS":"AC"}},
{"type":"Feature","id":109,"geometry":{"type":"Point","coordinates":[-122.28168158908626,37.87687208598859]},"properties":{"OBJECTID":109,"HYDRANTNUMBER":"1368","LIFECYCLESTATUS":"AC"}},
{"type":"Feature","id":110,"geometry":{"type":"Point","coordinates":[-122.28572635874043,37.87975942460646]},"properties":{"OBJECTID":110,"HYDRANTNUMBER":"783","LIFECYCLESTATUS":"AC"}},
{"type":"Feature","id":111,"geometry":{"type":"Point","coordinates":[-122.28178174159514,37.88063776633079]},"properties":{"OBJECTID":111,"HYDRANTNUMBER":"1419","LIFECYCLESTATUS":"AC"}},
{"type":"Feature","id":112,"geometry":{"type":"Point","coordinates":[-122.28068060766593,37.88118596890543]},"properties":{"OBJECTID":112,"HYDRANTNUMBER":"1420","LIFECYCLESTATUS":"AC"}},
{"type":"Feature","id":115,"geometry":{"type":"Point","coordinates":[-122.28862521517627,37.87812973921816]},"properties":{"OBJECTID":115,"HYDRANTNUMBER":"13887","LIFECYCLESTATUS":"AC"}},
{"type":"Feature","id":116,"geometry":{"type":"Point","coordinates":[-122.28993809991708,37.87748561036516]},"properties":{"OBJECTID":116,"HYDRANTNUMBER":"780","LIFECYCLESTATUS":"AC"}},
{"type":"Feature","id":117,"geometry":{"type":"Point","coordinates":[-122.2904864037955,37.880020206984064]},"properties":{"OBJECTID":117,"HYDRANTNUMBER":"1357","LIFECYCLESTATUS":"AC"}},
{"type":"Feature","id":118,"geometry":{"type":"Point","coordinates":[-122.29003341808671,37.87890525004444]},"properties":{"OBJECTID":118,"HYDRANTNUMBER":"1441","LIFECYCLESTATUS":"AC"}},
{"type":"Feature","id":119,"geometry":{"type":"Point","coordinates":[-122.28658624260929,37.880675578181176]},"properties":{"OBJECTID":119,"HYDRANTNUMBER":"1298","LIFECYCLESTATUS":"AC"}},
{"type":"Feature","id":120,"geometry":{"type":"Point","coordinates":[-122.28543692617471,37.87896333739776]},"properties":{"OBJECTID":120,"HYDRANTNUMBER":"1020","LIFECYCLESTATUS":"AC"}},
{"type":"Feature","id":121,"geometry":{"type":"Point","coordinates":[-122.29486842223585,37.88078544719223]},"properties":{"OBJECTID":121,"HYDRANTNUMBER":"1418","LIFECYCLESTATUS":"AC"}},
{"type":"Feature","id":122,"geometry":{"type":"Point","coordinates":[-122.29403045846877,37.88095502892364]},"properties":{"OBJECTID":122,"HYDRANTNUMBER":"1395","LIFECYCLESTATUS":"AC"}},
{"type":"Feature","id":172,"geometry":{"type":"Point","coordinates":[-122.29372134405415,37.876604558353954]},"properties":{"OBJECTID":172,"HYDRANTNUMBER":"1641","LIFECYCLESTATUS":"AC"}},
{"type":"Feature","id":173,"geometry":{"type":"Point","coordinates":[-122.29447342424953,37.87895924718523]},"properties":{"OBJECTID":173,"HYDRANTNUMBER":"1095","LIFECYCLESTATUS":"AC"}},
{"type":"Feature","id":174,"geometry":{"type":"Point","coordinates":[-122.29363785384413,37.87912603882755]},"properties":{"OBJECTID":174,"HYDRANTNUMBER":"276","LIFECYCLESTATUS":"AC"}},
{"type":"Feature","id":175,"geometry":{"type":"Point","coordinates":[-122.29197553245322,37.87946661302638]},"properties":{"OBJECTID":175,"HYDRANTNUMBER":"275","LIFECYCLESTATUS":"AC"}},
{"type":"Feature","id":719,"geometry":{"type":"Point","coordinates":[-122.29168285665392,37.86729312339098]},"properties":{"OBJECTID":719,"HYDRANTNUMBER":"1148","LIFECYCLESTATUS":"AC"}},
{"type":"Feature","id":720,"geometry":{"type":"Point","coordinates":[-122.28669994358796,37.869868882457496]},"properties":{"OBJECTID":720,"HYDRANTNUMBER":"19739","LIFECYCLESTATUS":"AC"}},
{"type":"Feature","id":721,"geometry":{"type":"Point","coordinates":[-122.28991294673763,37.86662736712906]},"properties":{"OBJECTID":721,"HYDRANTNUMBER":"1156","LIFECYCLESTATUS":"AC"}},
{"type":"Feature","id":722,"geometry":{"type":"Point","coordinates":[-122.28914817481898,37.86672562160796]},"properties":{"OBJECTID":722,"HYDRANTNUMBER":"1157","LIFECYCLESTATUS":"AC"}},
{"type":"Feature","id":723,"geometry":{"type":"Point","coordinates":[-122.29159537243656,37.86812592400857]},"properties":{"OBJECTID":723,"HYDRANTNUMBER":"H-11523","LIFECYCLESTATUS":"AC"}},
{"type":"Feature","id":724,"geometry":{"type":"Point","coordinates":[-122.29025827200024,37.868299697645725]},"properties":{"OBJECTID":724,"HYDRANTNUMBER":"1510","LIFECYCLESTATUS":"AC"}},
{"type":"Feature","id":725,"geometry":{"type":"Point","coordinates":[-122.28972769278585,37.869311466676585]},"properties":{"OBJECTID":725,"HYDRANTNUMBER":"12732","LIFECYCLESTATUS":"AC"}},
{"type":"Feature","id":805,"geometry":{"type":"Point","coordinates":[-122.29376827383666,37.85960449020875]},"properties":{"OBJECTID":805,"HYDRANTNUMBER":"1370","LIFECYCLESTATUS":"AC"}},
{"type":"Feature","id":821,"geometry":{"type":"Point","coordinates":[-122.2922960889023,37.868966112778864]},"properties":{"OBJECTID":821,"HYDRANTNUMBER":"12733","LIFECYCLESTATUS":"AC"}},
{"type":"Feature","id":822,"geometry":{"type":"Point","coordinates":[-122.29339150961849,37.86601684117942]},"properties":{"OBJECTID":822,"HYDRANTNUMBER":"17951","LIFECYCLESTATUS":"AC"}},
{"type":"Feature","id":823,"geometry":{"type":"Point","coordinates":[-122.29500255149297,37.87000946125186]},"properties":{"OBJECTID":823,"HYDRANTNUMBER":"1503","LIFECYCLESTATUS":"AC"}},
{"type":"Feature","id":824,"geometry":{"type":"Point","coordinates":[-122.29241567799514,37.86962406196464]},"properties":{"OBJECTID":824,"HYDRANTNUMBER":"1337","LIFECYCLESTATUS":"AC"}},
{"type":"Feature","id":828,"geometry":{"type":"Point","coordinates":[-122.28070865724975,37.869645573672535]},"properties":{"OBJECTID":828,"HYDRANTNUMBER":"1629","LIFECYCLESTATUS":"AC"}},
{"type":"Feature","id":833,"geometry":{"type":"Point","coordinates":[-122.28214741128991,37.87027069680217]},"properties":{"OBJECTID":833,"HYDRANTNUMBER":"12771","LIFECYCLESTATUS":"AC"}},
{"type":"Feature","id":835,"geometry":{"type":"Point","coordinates":[-122.2840393074105,37.86927313987645]},"properties":{"OBJECTID":835,"HYDRANTNUMBER":"1343","LIFECYCLESTATUS":"AC"}},
{"type":"Feature","id":837,"geometry":{"type":"Point","coordinates":[-122.28167948816548,37.86590606369052]},"properties":{"OBJECTID":837,"HYDRANTNUMBER":"596","LIFECYCLESTATUS":"AC"}},
{"type":"Feature","id":838,"geometry":{"type":"Point","coordinates":[-122.28255400183767,37.86557571564893]},"properties":{"OBJECTID":838,"HYDRANTNUMBER":"1321","LIFECYCLESTATUS":"AC"}},
{"type":"Feature","id":839,"geometry":{"type":"Point","coordinates":[-122.28361640502,37.86560902386637]},"properties":{"OBJECTID":839,"HYDRANTNUMBER":"1322","LIFECYCLESTATUS":"AC"}},
{"type":"Feature","id":840,"geometry":{"type":"Point","coordinates":[-122.28488263976841,37.8670211938022]},"properties":{"OBJECTID":840,"HYDRANTNUMBER":"16611","LIFECYCLESTATUS":"AC"}},
{"type":"Feature","id":841,"geometry":{"type":"Point","coordinates":[-122.28141708443468,37.870574751140055]},"properties":{"OBJECTID":841,"HYDRANTNUMBER":"12772","LIFECYCLESTATUS":"AC"}},
{"type":"Feature","id":887,"geometry":{"type":"Point","coordinates":[-122.28339431708923,37.86380348146183]},"properties":{"OBJECTID":887,"HYDRANTNUMBER":"550","LIFECYCLESTATUS":"AC"}},
{"type":"Feature","id":888,"geometry":{"type":"Point","coordinates":[-122.28374112006603,37.86196772095009]},"properties":{"OBJECTID":888,"HYDRANTNUMBER":"1109","LIFECYCLESTATUS":"AC"}},
{"type":"Feature","id":895,"geometry":{"type":"Point","coordinates":[-122.28449021317267,37.86181839147599]},"properties":{"OBJECTID":895,"HYDRANTNUMBER":"1535","LIFECYCLESTATUS":"AC"}},
{"type":"Feature","id":896,"geometry":{"type":"Point","coordinates":[-122.28221877046313,37.862119467337784]},"properties":{"OBJECTID":896,"HYDRANTNUMBER":"1254","LIFECYCLESTATUS":"AC"}},
{"type":"Feature","id":967,"geometry":{"type":"Point","coordinates":[-122.29346640886001,37.862291243664984]},"properties":{"OBJECTID":967,"HYDRANTNUMBER":"1505","LIFECYCLESTATUS":"AC"}},
{"type":"Feature","id":1239,"geometry":{"type":"Point","coordinates":[-122.29540537881073,37.86830058638536]},"properties":{"OBJECTID":1239,"HYDRANTNUMBER":"17953","LIFECYCLESTATUS":"AC"}},
{"type":"Feature","id":1250,"geometry":{"type":"Point","coordinates":[-122.31732600913887,37.86352100514524]},"properties":{"OBJECTID":1250,"HYDRANTNUMBER":"13615","LIFECYCLESTATUS":"AC"}},
{"type":"Feature","id":1356,"geometry":{"type":"Point","coordinates":[-122.29457402569476,37.86206865999333]},"properties":{"OBJECTID":1356,"HYDRANTNUMBER":"1154","LIFECYCLESTATUS":"AC"}},
{"type":"Feature","id":1543,"geometry":{"type":"Point","coordinates":[-122.29498914216754,37.867058081056854]},"properties":{"OBJECTID":1543,"HYDRANTNUMBER":"17952","LIFECYCLESTATUS":"AC"}},
{"type":"Feature","id":1545,"geometry":{"type":"Point","coordinates":[-122.2974964682835,37.87474096964261]},"properties":{"OBJECTID":1545,"HYDRANTNUMBER":"19918","LIFECYCLESTATUS":"AC"}},
{"type":"Feature","id":1546,"geometry":{"type":"Point","coordinates":[-122.30122370588724,37.872002171291115]},"properties":{"OBJECTID":1546,"HYDRANTNUMBER":"442","LIFECYCLESTATUS":"AC"}},
{"type":"Feature","id":1678,"geometry":{"type":"Point","coordinates":[-122.29668417993737,37.8578933734245]},"properties":{"OBJECTID":1678,"HYDRANTNUMBER":"13083","LIFECYCLESTATUS":"AC"}},
{"type":"Feature","id":1682,"geometry":{"type":"Point","coordinates":[-122.29894218114326,37.875597712904565]},"properties":{"OBJECTID":1682,"HYDRANTNUMBER":"1329","LIFECYCLESTATUS":"AC"}},
{"type":"Feature","id":1748,"geometry":{"type":"Point","coordinates":[-122.30285469060988,37.877088261345364]},"properties":{"OBJECTID":1748,"HYDRANTNUMBER":"446","LIFECYCLESTATUS":"AC"}},
{"type":"Feature","id":1872,"geometry":{"type":"Point","coordinates":[-122.30232073601489,37.86600367916001]},"properties":{"OBJECTID":1872,"HYDRANTNUMBER":"FH-13923","LIFECYCLESTATUS":"AC"}},
{"type":"Feature","id":1937,"geometry":{"type":"Point","coordinates":[-122.29876391881659,37.8743702191221]},"properties":{"OBJECTID":1937,"HYDRANTNUMBER":"935","LIFECYCLESTATUS":"AC"}},
{"type":"Feature","id":2182,"geometry":{"type":"Point","coordinates":[-122.29502742687168,37.860107199508406]},"properties":{"OBJECTID":2182,"HYDRANTNUMBER":"1620","LIFECYCLESTATUS":"AC"}},
{"type":"Feature","id":2254,"geometry":{"type":"Point","coordinates":[-122.29849557928969,37.881783281741505]},"properties":{"OBJECTID":2254,"HYDRANTNUMBER":"1560","LIFECYCLESTATUS":"AC"}},
{"type":"Feature","id":2256,"geometry":{"type":"Point","coordinates":[-122.29660197547172,37.882285168843225]},"properties":{"OBJECTID":2256,"HYDRANTNUMBER":"1088","LIFECYCLESTATUS":"AC"}},
{"type":"Feature","id":2259,"geometry":{"type":"Point","coordinates":[-122.30692524153774,37.88178861124506]},"properties":{"OBJECTID":2259,"HYDRANTNUMBER":"1152","LIFECYCLESTATUS":"AC"}},
{"type":"Feature","id":2276,"geometry":{"type":"Point","coordinates":[-122.29697421663843,37.87718917842675]},"properties":{"OBJECTID":2276,"HYDRANTNUMBER":"1093","LIFECYCLESTATUS":"AC"}},
{"type":"Feature","id":2277,"geometry":{"type":"Point","coordinates":[-122.29593804858226,37.87739849175233]},"properties":{"OBJECTID":2277,"HYDRANTNUMBER":"1092","LIFECYCLESTATUS":"AC"}},
{"type":"Feature","id":2278,"geometry":{"type":"Point","coordinates":[-122.29853118447043,37.877972463706286]},"properties":{"OBJECTID":2278,"HYDRANTNUMBER":"1094","LIFECYCLESTATUS":"AC"}},
{"type":"Feature","id":2279,"geometry":{"type":"Point","coordinates":[-122.30508958057167,37.87681808594027]},"properties":{"OBJECTID":2279,"HYDRANTNUMBER":"632","LIFECYCLESTATUS":"AC"}},
{"type":"Feature","id":2281,"geometry":{"type":"Point","coordinates":[-122.30188468366045,37.87751594430613]},"properties":{"OBJECTID":2281,"HYDRANTNUMBER":"1306","LIFECYCLESTATUS":"AC"}},
{"type":"Feature","id":2284,"geometry":{"type":"Point","coordinates":[-122.30394228062417,37.87986252629396]},"properties":{"OBJECTID":2284,"HYDRANTNUMBER":"16463","LIFECYCLESTATUS":"AC"}},
{"type":"Feature","id":2285,"geometry":{"type":"Point","coordinates":[-122.30487254307981,37.88061219614071]},"properties":{"OBJECTID":2285,"HYDRANTNUMBER":"627","LIFECYCLESTATUS":"AC"}},
{"type":"Feature","id":2286,"geometry":{"type":"Point","coordinates":[-122.30394591374568,37.88067559278164]},"properties":{"OBJECTID":2286,"HYDRANTNUMBER":"1590","LIFECYCLESTATUS":"AC"}},
{"type":"Feature","id":2287,"geometry":{"type":"Point","coordinates":[-122.30472334667544,37.87564081104187]},"properties":{"OBJECTID":2287,"HYDRANTNUMBER":"15743","LIFECYCLESTATUS":"AC"}},
{"type":"Feature","id":2289,"geometry":{"type":"Point","coordinates":[-122.29665211391134,37.876006676730256]},"properties":{"OBJECTID":2289,"HYDRANTNUMBER":"1383","LIFECYCLESTATUS":"AC"}},
{"type":"Feature","id":2298,"geometry":{"type":"Point","coordinates":[-122.29886837829886,37.8724276294595]},"properties":{"OBJECTID":2298,"HYDRANTNUMBER":"580","LIFECYCLESTATUS":"AC"}},
{"type":"Feature","id":2299,"geometry":{"type":"Point","coordinates":[-122.29680099110902,37.872845853277525]},"properties":{"OBJECTID":2299,"HYDRANTNUMBER":"577","LIFECYCLESTATUS":"AC"}},
{"type":"Feature","id":2340,"geometry":{"type":"Point","coordinates":[-122.28495117727769,37.85532490739472]},"properties":{"OBJECTID":2340,"HYDRANTNUMBER":"17055","LIFECYCLESTATUS":"AC"}},
{"type":"Feature","id":2341,"geometry":{"type":"Point","coordinates":[-122.28222891218476,37.85768091991867]},"properties":{"OBJECTID":2341,"HYDRANTNUMBER":"354","LIFECYCLESTATUS":"AC"}},
{"type":"Feature","id":2342,"geometry":{"type":"Point","coordinates":[-122.28178365453765,37.854604739695226]},"properties":{"OBJECTID":2342,"HYDRANTNUMBER":"355","LIFECYCLESTATUS":"AC"}},
{"type":"Feature","id":2343,"geometry":{"type":"Point","coordinates":[-122.28113739698678,37.85588837128105]},"properties":{"OBJECTID":2343,"HYDRANTNUMBER":"17057","LIFECYCLESTATUS":"AC"}},
{"type":"Feature","id":2344,"geometry":{"type":"Point","coordinates":[-122.28010014502445,37.85791387776174]},"properties":{"OBJECTID":2344,"HYDRANTNUMBER":"655","LIFECYCLESTATUS":"AC"}},
{"type":"Feature","id":2345,"geometry":{"type":"Point","coordinates":[-122.27942349018244,37.85611194238997]},"properties":{"OBJECTID":2345,"HYDRANTNUMBER":"H-13357","LIFECYCLESTATUS":"AC"}},
{"type":"Feature","id":2349,"geometry":{"type":"Point","coordinates":[-122.28254092309126,37.85742701526208]},"properties":{"OBJECTID":2349,"HYDRANTNUMBER":"11975","LIFECYCLESTATUS":"AC"}},
{"type":"Feature","id":2350,"geometry":{"type":"Point","coordinates":[-122.27983530903069,37.85605630115065]},"properties":{"OBJECTID":2350,"HYDRANTNUMBER":"H-13349","LIFECYCLESTATUS":"AC"}},
{"type":"Feature","id":2351,"geometry":{"type":"Point","coordinates":[-122.27955530673137,37.85314614722308]},"properties":{"OBJECTID":2351,"HYDRANTNUMBER":"H-19303","LIFECYCLESTATUS":"AC"}},
{"type":"Feature","id":2400,"geometry":{"type":"Point","coordinates":[-122.2970739840797,37.856001481695706]},"properties":{"OBJECTID":2400,"HYDRANTNUMBER":"679","LIFECYCLESTATUS":"AC"}},
{"type":"Feature","id":2401,"geometry":{"type":"Point","coordinates":[-122.29762081487391,37.85767113580186]},"properties":{"OBJECTID":2401,"HYDRANTNUMBER":"669","LIFECYCLESTATUS":"AC"}},
{"type":"Feature","id":2402,"geometry":{"type":"Point","coordinates":[-122.31511201951596,37.86919532822155]},"properties":{"OBJECTID":2402,"HYDRANTNUMBER":"12326","LIFECYCLESTATUS":"AC"}},
{"type":"Feature","id":2403,"geometry":{"type":"Point","coordinates":[-122.31365617092347,37.86935574978473]},"properties":{"OBJECTID":2403,"HYDRANTNUMBER":"12329","LIFECYCLESTATUS":"AC"}},
{"type":"Feature","id":2405,"geometry":{"type":"Point","coordinates":[-122.31157485100742,37.86559151190773]},"properties":{"OBJECTID":2405,"HYDRANTNUMBER":"12330","LIFECYCLESTATUS":"AC"}},
{"type":"Feature","id":2406,"geometry":{"type":"Point","coordinates":[-122.29728693899624,37.86335420296809]},"properties":{"OBJECTID":2406,"HYDRANTNUMBER":"665","LIFECYCLESTATUS":"AC"}},
{"type":"Feature","id":2408,"geometry":{"type":"Point","coordinates":[-122.29887665784479,37.8647303550936]},"properties":{"OBJECTID":2408,"HYDRANTNUMBER":"18066","LIFECYCLESTATUS":"AC"}},
{"type":"Feature","id":2431,"geometry":{"type":"Point","coordinates":[-122.28813012927874,37.88180642148155]},"properties":{"OBJECTID":2431,"HYDRANTNUMBER":"H-11893","LIFECYCLESTATUS":"AC"}},
{"type":"Feature","id":2434,"geometry":{"type":"Point","coordinates":[-122.29583572135961,37.85789954231132]},"properties":{"OBJECTID":2434,"HYDRANTNUMBER":"671","LIFECYCLESTATUS":"AC"}},
{"type":"Feature","id":2478,"geometry":{"type":"Point","coordinates":[-122.28615886989483,37.857177647947935]},"properties":{"OBJECTID":2478,"HYDRANTNUMBER":"1126","LIFECYCLESTATUS":"AC"}},
{"type":"Feature","id":2479,"geometry":{"type":"Point","coordinates":[-122.28687943591767,37.859544663087426]},"properties":{"OBJECTID":2479,"HYDRANTNUMBER":"11976","LIFECYCLESTATUS":"AC"}},
{"type":"Feature","id":2480,"geometry":{"type":"Point","coordinates":[-122.2846348246071,37.858201184404]},"properties":{"OBJECTID":2480,"HYDRANTNUMBER":"1338","LIFECYCLESTATUS":"AC"}},
{"type":"Feature","id":2481,"geometry":{"type":"Point","coordinates":[-122.28824377057593,37.85773559351526]},"properties":{"OBJECTID":2481,"HYDRANTNUMBER":"H-11525","LIFECYCLESTATUS":"AC"}},
{"type":"Feature","id":2482,"geometry":{"type":"Point","coordinates":[-122.28884013291972,37.859459608091996]},"properties":{"OBJECTID":2482,"HYDRANTNUMBER":"361","LIFECYCLESTATUS":"AC"}},
{"type":"Feature","id":2483,"geometry":{"type":"Point","coordinates":[-122.28849473809545,37.8585558784]},"properties":{"OBJECTID":2483,"HYDRANTNUMBER":"H-11524","LIFECYCLESTATUS":"AC"}},
{"type":"Feature","id":2484,"geometry":{"type":"Point","coordinates":[-122.29006422559453,37.85900590671965]},"properties":{"OBJECTID":2484,"HYDRANTNUMBER":"674","LIFECYCLESTATUS":"AC"}},
{"type":"Feature","id":2485,"geometry":{"type":"Point","coordinates":[-122.28912085307655,37.8560834663013]},"properties":{"OBJECTID":2485,"HYDRANTNUMBER":"1635","LIFECYCLESTATUS":"AC"}},
{"type":"Feature","id":2486,"geometry":{"type":"Point","coordinates":[-122.29336263018946,37.858341219749555]},"properties":{"OBJECTID":2486,"HYDRANTNUMBER":"1062","LIFECYCLESTATUS":"AC"}},
{"type":"Feature","id":2491,"geometry":{"type":"Point","coordinates":[-122.2802713121303,37.88258131836899]},"properties":{"OBJECTID":2491,"HYDRANTNUMBER":"787","LIFECYCLESTATUS":"AC"}},
{"type":"Feature","id":2494,"geometry":{"type":"Point","coordinates":[-122.29183254104122,37.857313725708956]},"properties":{"OBJECTID":2494,"HYDRANTNUMBER":"1399","LIFECYCLESTATUS":"AC"}},
{"type":"Feature","id":2495,"geometry":{"type":"Point","coordinates":[-122.28966680768639,37.85785159090477]},"properties":{"OBJECTID":2495,"HYDRANTNUMBER":"1401","LIFECYCLESTATUS":"AC"}},
{"type":"Feature","id":2496,"geometry":{"type":"Point","coordinates":[-122.29537250954562,37.85641753369487]},"properties":{"OBJECTID":2496,"HYDRANTNUMBER":"16461","LIFECYCLESTATUS":"AC"}},
{"type":"Feature","id":2497,"geometry":{"type":"Point","coordinates":[-122.29265654394723,37.85619195650407]},"properties":{"OBJECTID":2497,"HYDRANTNUMBER":"642","LIFECYCLESTATUS":"AC"}},
{"type":"Feature","id":2498,"geometry":{"type":"Point","coordinates":[-122.29177946390251,37.85636679853002]},"properties":{"OBJECTID":2498,"HYDRANTNUMBER":"1308","LIFECYCLESTATUS":"AC"}},
{"type":"Feature","id":2499,"geometry":{"type":"Point","coordinates":[-122.29042781014762,37.85671177932596]},"properties":{"OBJECTID":2499,"HYDRANTNUMBER":"1659","LIFECYCLESTATUS":"AC"}},
{"type":"Feature","id":2500,"geometry":{"type":"Point","coordinates":[-122.2876249014052,37.85440948785793]},"properties":{"OBJECTID":2500,"HYDRANTNUMBER":"409","LIFECYCLESTATUS":"AC"}},
{"type":"Feature","id":2501,"geometry":{"type":"Point","coordinates":[-122.28618370150866,37.853825646186046]},"properties":{"OBJECTID":2501,"HYDRANTNUMBER":"1403","LIFECYCLESTATUS":"AC"}},
{"type":"Feature","id":2502,"geometry":{"type":"Point","coordinates":[-122.28540130383148,37.85337142919094]},"properties":{"OBJECTID":2502,"HYDRANTNUMBER":"1654","LIFECYCLESTATUS":"AC"}},
{"type":"Feature","id":2503,"geometry":{"type":"Point","coordinates":[-122.28872603188694,37.854181025649204]},"properties":{"OBJECTID":2503,"HYDRANTNUMBER":"426","LIFECYCLESTATUS":"AC"}},
{"type":"Feature","id":2504,"geometry":{"type":"Point","coordinates":[-122.29094029671953,37.85372691587205]},"properties":{"OBJECTID":2504,"HYDRANTNUMBER":"428","LIFECYCLESTATUS":"AC"}},
{"type":"Feature","id":2505,"geometry":{"type":"Point","coordinates":[-122.29362422649763,37.851830592187945]},"properties":{"OBJECTID":2505,"HYDRANTNUMBER":"15936","LIFECYCLESTATUS":"AC"}},
{"type":"Feature","id":2506,"geometry":{"type":"Point","coordinates":[-122.29233458634191,37.85120023775262]},"properties":{"OBJECTID":2506,"HYDRANTNUMBER":"1175","LIFECYCLESTATUS":"AC"}},
{"type":"Feature","id":2507,"geometry":{"type":"Point","coordinates":[-122.29065587688966,37.85015520749411]},"properties":{"OBJECTID":2507,"HYDRANTNUMBER":"676","LIFECYCLESTATUS":"AC"}},
{"type":"Feature","id":2508,"geometry":{"type":"Point","coordinates":[-122.28960445251602,37.85037006175784]},"properties":{"OBJECTID":2508,"HYDRANTNUMBER":"677","LIFECYCLESTATUS":"AC"}},
{"type":"Feature","id":2509,"geometry":{"type":"Point","coordinates":[-122.28707472936351,37.85303088994652]},"properties":{"OBJECTID":2509,"HYDRANTNUMBER":"1151","LIFECYCLESTATUS":"AC"}},
{"type":"Feature","id":2510,"geometry":{"type":"Point","coordinates":[-122.2867375456985,37.85164771130564]},"properties":{"OBJECTID":2510,"HYDRANTNUMBER":"860","LIFECYCLESTATUS":"AC"}},
{"type":"Feature","id":2511,"geometry":{"type":"Point","coordinates":[-122.28623532045353,37.8501383008112]},"properties":{"OBJECTID":2511,"HYDRANTNUMBER":"3156","LIFECYCLESTATUS":"AC"}},
{"type":"Feature","id":2512,"geometry":{"type":"Point","coordinates":[-122.28259641004892,37.85849226700765]},"properties":{"OBJECTID":2512,"HYDRANTNUMBER":"1340","LIFECYCLESTATUS":"AC"}},
{"type":"Feature","id":2513,"geometry":{"type":"Point","coordinates":[-122.28016061440319,37.85955325655278]},"properties":{"OBJECTID":2513,"HYDRANTNUMBER":"364","LIFECYCLESTATUS":"AC"}},
{"type":"Feature","id":2636,"geometry":{"type":"Point","coordinates":[-122.28391731812948,37.853720421459414]},"properties":{"OBJECTID":2636,"HYDRANTNUMBER":"1407","LIFECYCLESTATUS":"AC"}},
{"type":"Feature","id":2952,"geometry":{"type":"Point","coordinates":[-122.28270044731462,37.854413574404234]},"properties":{"OBJECTID":2952,"HYDRANTNUMBER":"1200","LIFECYCLESTATUS":"AC"}},
{"type":"Feature","id":3292,"geometry":{"type":"Point","coordinates":[-122.28149184556773,37.86410523529413]},"properties":{"OBJECTID":3292,"HYDRANTNUMBER":"636","LIFECYCLESTATUS":"AC"}},
{"type":"Feature","id":3293,"geometry":{"type":"Point","coordinates":[-122.28130173875464,37.86229271806168]},"properties":{"OBJECTID":3293,"HYDRANTNUMBER":"597","LIFECYCLESTATUS":"AC"}},
{"type":"Feature","id":3294,"geometry":{"type":"Point","coordinates":[-122.28292160234163,37.86007754918078]},"properties":{"OBJECTID":3294,"HYDRANTNUMBER":"1346","LIFECYCLESTATUS":"AC"}},
{"type":"Feature","id":3295,"geometry":{"type":"Point","coordinates":[-122.28057343300628,37.86130400223658]},"properties":{"OBJECTID":3295,"HYDRANTNUMBER":"10545","LIFECYCLESTATUS":"AC"}},
{"type":"Feature","id":3299,"geometry":{"type":"Point","coordinates":[-122.27993322910956,37.86240723562606]},"properties":{"OBJECTID":3299,"HYDRANTNUMBER":"1518","LIFECYCLESTATUS":"AC"}},
{"type":"Feature","id":3301,"geometry":{"type":"Point","coordinates":[-122.28006495582503,37.86422117207566]},"properties":{"OBJECTID":3301,"HYDRANTNUMBER":"635","LIFECYCLESTATUS":"AC"}},
{"type":"Feature","id":3341,"geometry":{"type":"Point","coordinates":[-122.30436958053245,37.87446486010922]},"properties":{"OBJECTID":3341,"HYDRANTNUMBER":"1674","LIFECYCLESTATUS":"AC"}},
{"type":"Feature","id":3363,"geometry":{"type":"Point","coordinates":[-122.29401805126989,37.860326275199185]},"properties":{"OBJECTID":3363,"HYDRANTNUMBER":"1155","LIFECYCLESTATUS":"AC"}},
{"type":"Feature","id":3364,"geometry":{"type":"Point","coordinates":[-122.29290858397724,37.86052851738054]},"properties":{"OBJECTID":3364,"HYDRANTNUMBER":"1506","LIFECYCLESTATUS":"AC"}},
{"type":"Feature","id":3365,"geometry":{"type":"Point","coordinates":[-122.29048095342193,37.863638793620765]},"properties":{"OBJECTID":3365,"HYDRANTNUMBER":"1149","LIFECYCLESTATUS":"AC"}},
{"type":"Feature","id":3366,"geometry":{"type":"Point","coordinates":[-122.29119693321496,37.862710197079906]},"properties":{"OBJECTID":3366,"HYDRANTNUMBER":"1645","LIFECYCLESTATUS":"AC"}},
{"type":"Feature","id":3367,"geometry":{"type":"Point","coordinates":[-122.29063982942581,37.86095130889632]},"properties":{"OBJECTID":3367,"HYDRANTNUMBER":"1531","LIFECYCLESTATUS":"AC"}},
{"type":"Feature","id":3368,"geometry":{"type":"Point","coordinates":[-122.28936623092864,37.86019080994074]},"properties":{"OBJECTID":3368,"HYDRANTNUMBER":"1090","LIFECYCLESTATUS":"AC"}},
{"type":"Feature","id":3369,"geometry":{"type":"Point","coordinates":[-122.28854852386561,37.86393934802664]},"properties":{"OBJECTID":3369,"HYDRANTNUMBER":"1516","LIFECYCLESTATUS":"AC"}},
{"type":"Feature","id":3370,"geometry":{"type":"Point","coordinates":[-122.28610005166205,37.863451585630585]},"properties":{"OBJECTID":3370,"HYDRANTNUMBER":"552","LIFECYCLESTATUS":"AC"}},
{"type":"Feature","id":3371,"geometry":{"type":"Point","coordinates":[-122.28782731613933,37.86144310028751]},"properties":{"OBJECTID":3371,"HYDRANTNUMBER":"1515","LIFECYCLESTATUS":"AC"}},
{"type":"Feature","id":3373,"geometry":{"type":"Point","coordinates":[-122.28723204219581,37.86129078334699]},"properties":{"OBJECTID":3373,"HYDRANTNUMBER":"1206","LIFECYCLESTATUS":"AC"}},
{"type":"Feature","id":3374,"geometry":{"type":"Point","coordinates":[-122.28651870422503,37.86528834873151]},"properties":{"OBJECTID":3374,"HYDRANTNUMBER":"638","LIFECYCLESTATUS":"AC"}},
{"type":"Feature","id":3425,"geometry":{"type":"Point","coordinates":[-122.31745090974233,37.86591339812941]},"properties":{"OBJECTID":3425,"HYDRANTNUMBER":"H-10672","LIFECYCLESTATUS":"AC"}},
{"type":"Feature","id":3532,"geometry":{"type":"Point","coordinates":[-122.28733468778324,37.86328999372613]},"properties":{"OBJECTID":3532,"HYDRANTNUMBER":"1113","LIFECYCLESTATUS":"AC"}},
{"type":"Feature","id":4194,"geometry":{"type":"Point","coordinates":[-122.2920545149517,37.86929099870874]},"properties":{"OBJECTID":4194,"HYDRANTNUMBER":"12891","LIFECYCLESTATUS":"AC"}},
{"type":"Feature","id":4251,"geometry":{"type":"Point","coordinates":[-122.28787881258552,37.866910940319194]},"properties":{"OBJECTID":4251,"HYDRANTNUMBER":"1513","LIFECYCLESTATUS":"AC"}},
{"type":"Feature","id":4282,"geometry":{"type":"Point","coordinates":[-122.29781191959367,37.86141394910934]},"properties":{"OBJECTID":4282,"HYDRANTNUMBER":"18065","LIFECYCLESTATUS":"AC"}},
{"type":"Feature","id":4283,"geometry":{"type":"Point","coordinates":[-122.29676546067442,37.86160960012425]},"properties":{"OBJECTID":4283,"HYDRANTNUMBER":"1625","LIFECYCLESTATUS":"AC"}},
{"type":"Feature","id":4284,"geometry":{"type":"Point","coordinates":[-122.29619850689772,37.85986219925672]},"properties":{"OBJECTID":4284,"HYDRANTNUMBER":"1626","LIFECYCLESTATUS":"AC"}},
{"type":"Feature","id":4285,"geometry":{"type":"Point","coordinates":[-122.29585021989693,37.86966173924548]},"properties":{"OBJECTID":4285,"HYDRANTNUMBER":"1502","LIFECYCLESTATUS":"AC"}},
{"type":"Feature","id":4286,"geometry":{"type":"Point","coordinates":[-122.29659352928459,37.86836629344489]},"properties":{"OBJECTID":4286,"HYDRANTNUMBER":"16959","LIFECYCLESTATUS":"AC"}},
{"type":"Feature","id":4287,"geometry":{"type":"Point","coordinates":[-122.29762222342764,37.86818019475506]},"properties":{"OBJECTID":4287,"HYDRANTNUMBER":"12888","LIFECYCLESTATUS":"AC"}},
{"type":"Feature","id":4288,"geometry":{"type":"Point","coordinates":[-122.296730112319,37.868061552147246]},"properties":{"OBJECTID":4288,"HYDRANTNUMBER":"12731","LIFECYCLESTATUS":"AC"}},
{"type":"Feature","id":4289,"geometry":{"type":"Point","coordinates":[-122.30066037613445,37.87026510281925]},"properties":{"OBJECTID":4289,"HYDRANTNUMBER":"H-11357","LIFECYCLESTATUS":"AC"}},
{"type":"Feature","id":4290,"geometry":{"type":"Point","coordinates":[-122.30209246289874,37.86727801000795]},"properties":{"OBJECTID":4290,"HYDRANTNUMBER":"1459","LIFECYCLESTATUS":"AC"}},
{"type":"Feature","id":4291,"geometry":{"type":"Point","coordinates":[-122.30190777811498,37.86669135297736]},"properties":{"OBJECTID":4291,"HYDRANTNUMBER":"14008","LIFECYCLESTATUS":"AC"}},
{"type":"Feature","id":4292,"geometry":{"type":"Point","coordinates":[-122.29974051356079,37.86739904391496]},"properties":{"OBJECTID":4292,"HYDRANTNUMBER":"36","LIFECYCLESTATUS":"AC"}},
{"type":"Feature","id":4293,"geometry":{"type":"Point","coordinates":[-122.29834127340663,37.86659750874659]},"properties":{"OBJECTID":4293,"HYDRANTNUMBER":"1623","LIFECYCLESTATUS":"AC"}},
{"type":"Feature","id":4294,"geometry":{"type":"Point","coordinates":[-122.29672738751489,37.865393152120085]},"properties":{"OBJECTID":4294,"HYDRANTNUMBER":"1617","LIFECYCLESTATUS":"AC"}},
{"type":"Feature","id":4295,"geometry":{"type":"Point","coordinates":[-122.29718639502626,37.86682703108944]},"properties":{"OBJECTID":4295,"HYDRANTNUMBER":"1616","LIFECYCLESTATUS":"AC"}},
{"type":"Feature","id":4296,"geometry":{"type":"Point","coordinates":[-122.30310703195086,37.870087447858076]},"properties":{"OBJECTID":4296,"HYDRANTNUMBER":"H-11543","LIFECYCLESTATUS":"AC"}},
{"type":"Feature","id":4297,"geometry":{"type":"Point","coordinates":[-122.302568436389,37.86889445039946]},"properties":{"OBJECTID":4297,"HYDRANTNUMBER":"401","LIFECYCLESTATUS":"AC"}},
{"type":"Feature","id":4298,"geometry":{"type":"Point","coordinates":[-122.28124728177917,37.85328179358556]},"properties":{"OBJECTID":4298,"HYDRANTNUMBER":"733","LIFECYCLESTATUS":"AC"}},
{"type":"Feature","id":4300,"geometry":{"type":"Point","coordinates":[-122.28013434440003,37.85120417465511]},"properties":{"OBJECTID":4300,"HYDRANTNUMBER":"18071","LIFECYCLESTATUS":"AC"}},
{"type":"Feature","id":5400,"geometry":{"type":"Point","coordinates":[-122.28338748288088,37.8727194811081]},"properties":{"OBJECTID":5400,"HYDRANTNUMBER":"13881","LIFECYCLESTATUS":"AC"}},
{"type":"Feature","id":6233,"geometry":{"type":"Point","coordinates":[-122.29503351133147,37.852917092848145]},"properties":{"OBJECTID":6233,"HYDRANTNUMBER":"432","LIFECYCLESTATUS":"AC"}},
{"type":"Feature","id":6405,"geometry":{"type":"Point","coordinates":[-122.29587565685108,37.852740503554195]},"properties":{"OBJECTID":6405,"HYDRANTNUMBER":"FH-14026","LIFECYCLESTATUS":"AC"}},
{"type":"Feature","id":6459,"geometry":{"type":"Point","coordinates":[-122.29033101910561,37.85377757769973]},"properties":{"OBJECTID":6459,"HYDRANTNUMBER":"FH-13722","LIFECYCLESTATUS":"AC"}},
{"type":"Feature","id":7340,"geometry":{"type":"Point","coordinates":[-122.28611976484498,37.868837423082844]},"properties":{"OBJECTID":7340,"HYDRANTNUMBER":"15542","LIFECYCLESTATUS":"AC"}},
{"type":"Feature","id":7407,"geometry":{"type":"Point","coordinates":[-122.29396917333587,37.85312405234798]},"properties":{"OBJECTID":7407,"HYDRANTNUMBER":"431","LIFECYCLESTATUS":"AC"}},
{"type":"Feature","id":7562,"geometry":{"type":"Point","coordinates":[-122.28209258960304,37.8693486006843]},"properties":{"OBJECTID":7562,"HYDRANTNUMBER":"664","LIFECYCLESTATUS":"AC"}},
{"type":"Feature","id":7938,"geometry":{"type":"Point","coordinates":[-122.28223237995397,37.87124153901037]},"properties":{"OBJECTID":7938,"HYDRANTNUMBER":"611","LIFECYCLESTATUS":"AC"}},
{"type":"Feature","id":8090,"geometry":{"type":"Point","coordinates":[-122.2829888475025,37.861146385974024]},"properties":{"OBJECTID":8090,"HYDRANTNUMBER":"1345","LIFECYCLESTATUS":"AC"}},
{"type":"Feature","id":8183,"geometry":{"type":"Point","coordinates":[-122.28293137587593,37.87906714450488]},"properties":{"OBJECTID":8183,"HYDRANTNUMBER":"13","LIFECYCLESTATUS":"AC"}},
{"type":"Feature","id":8629,"geometry":{"type":"Point","coordinates":[-122.29633355922157,37.87113664220998]},"properties":{"OBJECTID":8629,"HYDRANTNUMBER":"16480","LIFECYCLESTATUS":"AC"}},
{"type":"Feature","id":9289,"geometry":{"type":"Point","coordinates":[-122.29777885443303,37.875780176237924]},"properties":{"OBJECTID":9289,"HYDRANTNUMBER":"1382","LIFECYCLESTATUS":"AC"}},
{"type":"Feature","id":9358,"geometry":{"type":"Point","coordinates":[-122.28946334800216,37.86966280211944]},"properties":{"OBJECTID":9358,"HYDRANTNUMBER":"13072","LIFECYCLESTATUS":"AC"}},
{"type":"Feature","id":9360,"geometry":{"type":"Point","coordinates":[-122.28440155214145,37.869989734722445]},"properties":{"OBJECTID":9360,"HYDRANTNUMBER":"12776","LIFECYCLESTATUS":"AC"}},
{"type":"Feature","id":9749,"geometry":{"type":"Point","coordinates":[-122.28368113309675,37.87849728611129]},"properties":{"OBJECTID":9749,"HYDRANTNUMBER":"1540","LIFECYCLESTATUS":"AC"}},
{"type":"Feature","id":9750,"geometry":{"type":"Point","coordinates":[-122.29267907384862,37.87672144005671]},"properties":{"OBJECTID":9750,"HYDRANTNUMBER":"1397","LIFECYCLESTATUS":"AC"}},
{"type":"Feature","id":9757,"geometry":{"type":"Point","coordinates":[-122.29518896150103,37.87134786451253]},"properties":{"OBJECTID":9757,"HYDRANTNUMBER":"1669","LIFECYCLESTATUS":"AC"}},
{"type":"Feature","id":9758,"geometry":{"type":"Point","coordinates":[-122.29140407859471,37.87562048672622]},"properties":{"OBJECTID":9758,"HYDRANTNUMBER":"1389","LIFECYCLESTATUS":"AC"}},
{"type":"Feature","id":9759,"geometry":{"type":"Point","coordinates":[-122.29275847160538,37.87180340749968]},"properties":{"OBJECTID":9759,"HYDRANTNUMBER":"335","LIFECYCLESTATUS":"AC"}},
{"type":"Feature","id":9962,"geometry":{"type":"Point","coordinates":[-122.28209174452114,37.85579138052453]},"properties":{"OBJECTID":9962,"HYDRANTNUMBER":"370","LIFECYCLESTATUS":"AC"}},
{"type":"Feature","id":10140,"geometry":{"type":"Point","coordinates":[-122.31315930618133,37.86449097155643]},"properties":{"OBJECTID":10140,"HYDRANTNUMBER":"H-15918","LIFECYCLESTATUS":"AC"}},
{"type":"Feature","id":10143,"geometry":{"type":"Point","coordinates":[-122.30074507176954,37.86607295466368]},"properties":{"OBJECTID":10143,"HYDRANTNUMBER":"1422","LIFECYCLESTATUS":"AC"}},
{"type":"Feature","id":10197,"geometry":{"type":"Point","coordinates":[-122.29962349396516,37.870488769318065]},"properties":{"OBJECTID":10197,"HYDRANTNUMBER":"H-11358","LIFECYCLESTATUS":"AC"}},
{"type":"Feature","id":10216,"geometry":{"type":"Point","coordinates":[-122.29602641354677,37.85050836286314]},"properties":{"OBJECTID":10216,"HYDRANTNUMBER":"H-14103","LIFECYCLESTATUS":"AC"}},
{"type":"Feature","id":10331,"geometry":{"type":"Point","coordinates":[-122.3125036019247,37.86724635567324]},"properties":{"OBJECTID":10331,"HYDRANTNUMBER":"FH-11410","LIFECYCLESTATUS":"AC"}},
{"type":"Feature","id":10354,"geometry":{"type":"Point","coordinates":[-122.28749383230789,37.865107655450544]},"properties":{"OBJECTID":10354,"HYDRANTNUMBER":"1475","LIFECYCLESTATUS":"AC"}},
{"type":"Feature","id":10361,"geometry":{"type":"Point","coordinates":[-122.29316942383836,37.86872884429022]},"properties":{"OBJECTID":10361,"HYDRANTNUMBER":"1665","LIFECYCLESTATUS":"AC"}},
{"type":"Feature","id":10362,"geometry":{"type":"Point","coordinates":[-122.29453708662805,37.86566242374828]},"properties":{"OBJECTID":10362,"HYDRANTNUMBER":"H-14768","LIFECYCLESTATUS":"AC"}},
{"type":"Feature","id":10935,"geometry":{"type":"Point","coordinates":[-122.28825039714965,37.86851908123151]},"properties":{"OBJECTID":10935,"HYDRANTNUMBER":"FH-14135","LIFECYCLESTATUS":"AC"}},
{"type":"Feature","id":10938,"geometry":{"type":"Point","coordinates":[-122.29879595699273,37.86797293947145]},"properties":{"OBJECTID":10938,"HYDRANTNUMBER":"1611","LIFECYCLESTATUS":"AC"}},
{"type":"Feature","id":10966,"geometry":{"type":"Point","coordinates":[-122.29388754858962,37.85680737380157]},"properties":{"OBJECTID":10966,"HYDRANTNUMBER":"16462","LIFECYCLESTATUS":"AC"}},
{"type":"Feature","id":11040,"geometry":{"type":"Point","coordinates":[-122.29171897275677,37.86072937571242]},"properties":{"OBJECTID":11040,"HYDRANTNUMBER":"1532","LIFECYCLESTATUS":"AC"}},
{"type":"Feature","id":11045,"geometry":{"type":"Point","coordinates":[-122.29984559035657,37.867761492621824]},"properties":{"OBJECTID":11045,"HYDRANTNUMBER":"FH-14553","LIFECYCLESTATUS":"AC"}},
{"type":"Feature","id":11046,"geometry":{"type":"Point","coordinates":[-122.29944783577339,37.86780004892666]},"properties":{"OBJECTID":11046,"HYDRANTNUMBER":"FH-14554","LIFECYCLESTATUS":"AC"}},
{"type":"Feature","id":11131,"geometry":{"type":"Point","coordinates":[-122.31860371782088,37.86983135588377]},"properties":{"OBJECTID":11131,"HYDRANTNUMBER":"H-14592","LIFECYCLESTATUS":"AC"}},
{"type":"Feature","id":11456,"geometry":{"type":"Point","coordinates":[-122.30180046035048,37.87378792083863]},"properties":{"OBJECTID":11456,"HYDRANTNUMBER":"443","LIFECYCLESTATUS":"AC"}},
{"type":"Feature","id":11714,"geometry":{"type":"Point","coordinates":[-122.2964654231448,37.854552207362936]},"properties":{"OBJECTID":11714,"HYDRANTNUMBER":"FH-11793","LIFECYCLESTATUS":"AC"}},
{"type":"Feature","id":11851,"geometry":{"type":"Point","coordinates":[-122.29398608603223,37.86401882240079]},"properties":{"OBJECTID":11851,"HYDRANTNUMBER":"667","LIFECYCLESTATUS":"AC"}},
{"type":"Feature","id":11985,"geometry":{"type":"Point","coordinates":[-122.29226473588277,37.86249118184853]},"properties":{"OBJECTID":11985,"HYDRANTNUMBER":"1634","LIFECYCLESTATUS":"AC"}},
{"type":"Feature","id":11986,"geometry":{"type":"Point","coordinates":[-122.28953181050747,37.86484637086348]},"properties":{"OBJECTID":11986,"HYDRANTNUMBER":"1474","LIFECYCLESTATUS":"AC"}},
{"type":"Feature","id":11987,"geometry":{"type":"Point","coordinates":[-122.28525193414049,37.86087168142905]},"properties":{"OBJECTID":11987,"HYDRANTNUMBER":"769","LIFECYCLESTATUS":"AC"}},
{"type":"Feature","id":12883,"geometry":{"type":"Point","coordinates":[-122.28292608674847,37.8504618275671]},"properties":{"OBJECTID":12883,"HYDRANTNUMBER":"937","LIFECYCLESTATUS":"AC"}},
{"type":"Feature","id":13185,"geometry":{"type":"Point","coordinates":[-122.28405529889127,37.86370988769098]},"properties":{"OBJECTID":13185,"HYDRANTNUMBER":"1650","LIFECYCLESTATUS":"AC"}},
{"type":"Feature","id":13219,"geometry":{"type":"Point","coordinates":[-122.28881519214633,37.88197131110369]},"properties":{"OBJECTID":13219,"HYDRANTNUMBER":"1442","LIFECYCLESTATUS":"AC"}},
{"type":"Feature","id":13222,"geometry":{"type":"Point","coordinates":[-122.29173553104204,37.87377691030706]},"properties":{"OBJECTID":13222,"HYDRANTNUMBER":"583","LIFECYCLESTATUS":"AC"}},
{"type":"Feature","id":13226,"geometry":{"type":"Point","coordinates":[-122.31240542059206,37.86475075069227]},"properties":{"OBJECTID":13226,"HYDRANTNUMBER":"19543","LIFECYCLESTATUS":"AC"}},
{"type":"Feature","id":13377,"geometry":{"type":"Point","coordinates":[-122.28544845669268,37.88040316722265]},"properties":{"OBJECTID":13377,"HYDRANTNUMBER":"1325","LIFECYCLESTATUS":"AC"}},
{"type":"Feature","id":13477,"geometry":{"type":"Point","coordinates":[-122.30166844995509,37.86593244924775]},"properties":{"OBJECTID":13477,"HYDRANTNUMBER":"1421","LIFECYCLESTATUS":"AC"}},
{"type":"Feature","id":13480,"geometry":{"type":"Point","coordinates":[-122.29144026641094,37.85890509915735]},"properties":{"OBJECTID":13480,"HYDRANTNUMBER":"17433","LIFECYCLESTATUS":"AC"}},
{"type":"Feature","id":13481,"geometry":{"type":"Point","coordinates":[-122.29507325894919,37.8508153039038]},"properties":{"OBJECTID":13481,"HYDRANTNUMBER":"1177","LIFECYCLESTATUS":"AC"}},
{"type":"Feature","id":13595,"geometry":{"type":"Point","coordinates":[-122.29866767312228,37.86756102822033]},"properties":{"OBJECTID":13595,"HYDRANTNUMBER":"1621","LIFECYCLESTATUS":"AC"}},
{"type":"Feature","id":13596,"geometry":{"type":"Point","coordinates":[-122.29617385638504,37.86703900471059]},"properties":{"OBJECTID":13596,"HYDRANTNUMBER":"940","LIFECYCLESTATUS":"AC"}},
{"type":"Feature","id":13597,"geometry":{"type":"Point","coordinates":[-122.28400119971629,37.85419508274762]},"properties":{"OBJECTID":13597,"HYDRANTNUMBER":"1405","LIFECYCLESTATUS":"AC"}},
{"type":"Feature","id":13659,"geometry":{"type":"Point","coordinates":[-122.29244911633839,37.876133936451616]},"properties":{"OBJECTID":13659,"HYDRANTNUMBER":"235","LIFECYCLESTATUS":"AC"}},
{"type":"Feature","id":13660,"geometry":{"type":"Point","coordinates":[-122.29088834879045,37.87067810881121]},"properties":{"OBJECTID":13660,"HYDRANTNUMBER":"1681","LIFECYCLESTATUS":"AC"}},
{"type":"Feature","id":13661,"geometry":{"type":"Point","coordinates":[-122.28837830829083,37.873117088851934]},"properties":{"OBJECTID":13661,"HYDRANTNUMBER":"659","LIFECYCLESTATUS":"AC"}},
{"type":"Feature","id":13662,"geometry":{"type":"Point","coordinates":[-122.28364764063036,37.875790537355726]},"properties":{"OBJECTID":13662,"HYDRANTNUMBER":"1374","LIFECYCLESTATUS":"AC"}},
{"type":"Feature","id":13663,"geometry":{"type":"Point","coordinates":[-122.28253905987485,37.874034793443926]},"properties":{"OBJECTID":13663,"HYDRANTNUMBER":"594","LIFECYCLESTATUS":"AC"}},
{"type":"Feature","id":13855,"geometry":{"type":"Point","coordinates":[-122.28636823842582,37.86973611030338]},"properties":{"OBJECTID":13855,"HYDRANTNUMBER":"12775","LIFECYCLESTATUS":"AC"}},
{"type":"Feature","id":14026,"geometry":{"type":"Point","coordinates":[-122.2950704755478,37.8638012628663]},"properties":{"OBJECTID":14026,"HYDRANTNUMBER":"666","LIFECYCLESTATUS":"AC"}},
{"type":"Feature","id":14116,"geometry":{"type":"Point","coordinates":[-122.29605111876863,37.856255371290786]},"properties":{"OBJECTID":14116,"HYDRANTNUMBER":"15745","LIFECYCLESTATUS":"AC"}},
{"type":"Feature","id":14247,"geometry":{"type":"Point","coordinates":[-122.29724144280144,37.85963750560522]},"properties":{"OBJECTID":14247,"HYDRANTNUMBER":"439","LIFECYCLESTATUS":"AC"}},
{"type":"Feature","id":14248,"geometry":{"type":"Point","coordinates":[-122.29828422136804,37.86935156641706]},"properties":{"OBJECTID":14248,"HYDRANTNUMBER":"1467","LIFECYCLESTATUS":"AC"}},
{"type":"Feature","id":14249,"geometry":{"type":"Point","coordinates":[-122.30575196938511,37.86656799753787]},"properties":{"OBJECTID":14249,"HYDRANTNUMBER":"11701","LIFECYCLESTATUS":"AC"}},
{"type":"Feature","id":14287,"geometry":{"type":"Point","coordinates":[-122.28720947841289,37.87832494112026]},"properties":{"OBJECTID":14287,"HYDRANTNUMBER":"1019","LIFECYCLESTATUS":"AC"}},
{"type":"Feature","id":14352,"geometry":{"type":"Point","coordinates":[-122.28847384627836,37.87235300548463]},"properties":{"OBJECTID":14352,"HYDRANTNUMBER":"647","LIFECYCLESTATUS":"AC"}},
{"type":"Feature","id":14353,"geometry":{"type":"Point","coordinates":[-122.28483953829519,37.876477061632826]},"properties":{"OBJECTID":14353,"HYDRANTNUMBER":"1544","LIFECYCLESTATUS":"AC"}},
{"type":"Feature","id":14359,"geometry":{"type":"Point","coordinates":[-122.28907957823522,37.88127670382611]},"properties":{"OBJECTID":14359,"HYDRANTNUMBER":"511","LIFECYCLESTATUS":"AC"}},
{"type":"Feature","id":14360,"geometry":{"type":"Point","coordinates":[-122.29470577287194,37.87640474280425]},"properties":{"OBJECTID":14360,"HYDRANTNUMBER":"1622","LIFECYCLESTATUS":"AC"}},
{"type":"Feature","id":14537,"geometry":{"type":"Point","coordinates":[-122.28927177317846,37.868400034720075]},"properties":{"OBJECTID":14537,"HYDRANTNUMBER":"1512","LIFECYCLESTATUS":"AC"}},
{"type":"Feature","id":14568,"geometry":{"type":"Point","coordinates":[-122.28217579973236,37.86394365141867]},"properties":{"OBJECTID":14568,"HYDRANTNUMBER":"637","LIFECYCLESTATUS":"AC"}},
{"type":"Feature","id":14685,"geometry":{"type":"Point","coordinates":[-122.28655652673314,37.87065957997517]},"properties":{"OBJECTID":14685,"HYDRANTNUMBER":"1501","LIFECYCLESTATUS":"AC"}},
{"type":"Feature","id":14686,"geometry":{"type":"Point","coordinates":[-122.2832026750054,37.86199614802077]},"properties":{"OBJECTID":14686,"HYDRANTNUMBER":"1134","LIFECYCLESTATUS":"AC"}},
{"type":"Feature","id":15024,"geometry":{"type":"Point","coordinates":[-122.28182729274593,37.88180555100637]},"properties":{"OBJECTID":15024,"HYDRANTNUMBER":"786","LIFECYCLESTATUS":"AC"}},
{"type":"Feature","id":15027,"geometry":{"type":"Point","coordinates":[-122.28360463136094,37.85283483768477]},"properties":{"OBJECTID":15027,"HYDRANTNUMBER":"732","LIFECYCLESTATUS":"AC"}},
{"type":"Feature","id":15432,"geometry":{"type":"Point","coordinates":[-122.29564902957185,37.880617502349715]},"properties":{"OBJECTID":15432,"HYDRANTNUMBER":"1547","LIFECYCLESTATUS":"AC"}},
{"type":"Feature","id":15582,"geometry":{"type":"Point","coordinates":[-122.30010798639913,37.87219191394736]},"properties":{"OBJECTID":15582,"HYDRANTNUMBER":"575","LIFECYCLESTATUS":"AC"}},
{"type":"Feature","id":15708,"geometry":{"type":"Point","coordinates":[-122.29452882843312,37.858279300570786]},"properties":{"OBJECTID":15708,"HYDRANTNUMBER":"H-19957","LIFECYCLESTATUS":"AC"}},
{"type":"Feature","id":15758,"geometry":{"type":"Point","coordinates":[-122.29137553646173,37.867372940555676]},"properties":{"OBJECTID":15758,"HYDRANTNUMBER":"18326","LIFECYCLESTATUS":"AC"}},
{"type":"Feature","id":15760,"geometry":{"type":"Point","coordinates":[-122.29455264105215,37.86850450600125]},"properties":{"OBJECTID":15760,"HYDRANTNUMBER":"12889","LIFECYCLESTATUS":"AC"}},
{"type":"Feature","id":15761,"geometry":{"type":"Point","coordinates":[-122.2919643649541,37.867845498099705]},"properties":{"OBJECTID":15761,"HYDRANTNUMBER":"356","LIFECYCLESTATUS":"AC"}},
{"type":"Feature","id":15763,"geometry":{"type":"Point","coordinates":[-122.28384843253743,37.86721347730595]},"properties":{"OBJECTID":15763,"HYDRANTNUMBER":"1344","LIFECYCLESTATUS":"AC"}},
{"type":"Feature","id":15861,"geometry":{"type":"Point","coordinates":[-122.28650826678687,37.85795236597665]},"properties":{"OBJECTID":15861,"HYDRANTNUMBER":"1339","LIFECYCLESTATUS":"AC"}},
{"type":"Feature","id":15862,"geometry":{"type":"Point","coordinates":[-122.29134206664754,37.85563150660431]},"properties":{"OBJECTID":15862,"HYDRANTNUMBER":"1633","LIFECYCLESTATUS":"AC"}},
{"type":"Feature","id":15864,"geometry":{"type":"Point","coordinates":[-122.29106300805765,37.851466689322756]},"properties":{"OBJECTID":15864,"HYDRANTNUMBER":"1015","LIFECYCLESTATUS":"AC"}},
{"type":"Feature","id":15866,"geometry":{"type":"Point","coordinates":[-122.28648557392894,37.852254958973816]},"properties":{"OBJECTID":15866,"HYDRANTNUMBER":"411","LIFECYCLESTATUS":"AC"}},
{"type":"Feature","id":15867,"geometry":{"type":"Point","coordinates":[-122.28863575927578,37.85185303689063]},"properties":{"OBJECTID":15867,"HYDRANTNUMBER":"1577","LIFECYCLESTATUS":"AC"}},
{"type":"Feature","id":15976,"geometry":{"type":"Point","coordinates":[-122.2908881980152,37.8813622181456]},"properties":{"OBJECTID":15976,"HYDRANTNUMBER":"502","LIFECYCLESTATUS":"AC"}},
{"type":"Feature","id":16183,"geometry":{"type":"Point","coordinates":[-122.29741650808828,37.88200203884199]},"properties":{"OBJECTID":16183,"HYDRANTNUMBER":"1561","LIFECYCLESTATUS":"AC"}},
{"type":"Feature","id":16261,"geometry":{"type":"Point","coordinates":[-122.28709359631365,37.86063576457129]},"properties":{"OBJECTID":16261,"HYDRANTNUMBER":"1207","LIFECYCLESTATUS":"AC"}},
{"type":"Feature","id":16345,"geometry":{"type":"Point","coordinates":[-122.30019649970583,37.87529003324292]},"properties":{"OBJECTID":16345,"HYDRANTNUMBER":"1673","LIFECYCLESTATUS":"AC"}},
{"type":"Feature","id":16346,"geometry":{"type":"Point","coordinates":[-122.2859801766358,37.85062198719104]},"properties":{"OBJECTID":16346,"HYDRANTNUMBER":"413","LIFECYCLESTATUS":"AC"}},
{"type":"Feature","id":16426,"geometry":{"type":"Point","coordinates":[-122.29019770297647,37.85164781231271]},"properties":{"OBJECTID":16426,"HYDRANTNUMBER":"1018","LIFECYCLESTATUS":"AC"}},
{"type":"Feature","id":16681,"geometry":{"type":"Point","coordinates":[-122.30633073113526,37.87844539206854]},"properties":{"OBJECTID":16681,"HYDRANTNUMBER":"1699","LIFECYCLESTATUS":"AC"}},
{"type":"Feature","id":16699,"geometry":{"type":"Point","coordinates":[-122.31400315085554,37.86435070662681]},"properties":{"OBJECTID":16699,"HYDRANTNUMBER":"12323","LIFECYCLESTATUS":"AC"}},
{"type":"Feature","id":16701,"geometry":{"type":"Point","coordinates":[-122.28060227490866,37.85001915925902]},"properties":{"OBJECTID":16701,"HYDRANTNUMBER":"741","LIFECYCLESTATUS":"AC"}},
{"type":"Feature","id":16702,"geometry":{"type":"Point","coordinates":[-122.29391303064935,37.85499685828465]},"properties":{"OBJECTID":16702,"HYDRANTNUMBER":"1232","LIFECYCLESTATUS":"AC"}},
{"type":"Feature","id":16751,"geometry":{"type":"Point","coordinates":[-122.2979063495534,37.88015690829547]},"properties":{"OBJECTID":16751,"HYDRANTNUMBER":"1562","LIFECYCLESTATUS":"AC"}},
{"type":"Feature","id":16869,"geometry":{"type":"Point","coordinates":[-122.28723999518704,37.8789350164854]},"properties":{"OBJECTID":16869,"HYDRANTNUMBER":"782","LIFECYCLESTATUS":"AC"}},
{"type":"Feature","id":16870,"geometry":{"type":"Point","coordinates":[-122.29547007329947,37.87876109557462]},"properties":{"OBJECTID":16870,"HYDRANTNUMBER":"24","LIFECYCLESTATUS":"AC"}},
{"type":"Feature","id":16880,"geometry":{"type":"Point","coordinates":[-122.2923602648868,37.88132890598245]},"properties":{"OBJECTID":16880,"HYDRANTNUMBER":"1224","LIFECYCLESTATUS":"AC"}},
{"type":"Feature","id":16921,"geometry":{"type":"Point","coordinates":[-122.28490262304605,37.85911659246245]},"properties":{"OBJECTID":16921,"HYDRANTNUMBER":"767","LIFECYCLESTATUS":"AC"}},
{"type":"Feature","id":17161,"geometry":{"type":"Point","coordinates":[-122.29297640359448,37.857097421065006]},"properties":{"OBJECTID":17161,"HYDRANTNUMBER":"643","LIFECYCLESTATUS":"AC"}},
{"type":"Feature","id":17329,"geometry":{"type":"Point","coordinates":[-122.29790297947115,37.86515393800345]},"properties":{"OBJECTID":17329,"HYDRANTNUMBER":"1624","LIFECYCLESTATUS":"AC"}},
{"type":"Feature","id":17330,"geometry":{"type":"Point","coordinates":[-122.30349059600638,37.86828440229479]},"properties":{"OBJECTID":17330,"HYDRANTNUMBER":"11702","LIFECYCLESTATUS":"AC"}},
{"type":"Feature","id":17346,"geometry":{"type":"Point","coordinates":[-122.28029432170197,37.85880839641755]},"properties":{"OBJECTID":17346,"HYDRANTNUMBER":"600","LIFECYCLESTATUS":"AC"}},
{"type":"Feature","id":17347,"geometry":{"type":"Point","coordinates":[-122.29052375157123,37.88229854711476]},"properties":{"OBJECTID":17347,"HYDRANTNUMBER":"13886","LIFECYCLESTATUS":"AC"}},
{"type":"Feature","id":17576,"geometry":{"type":"Point","coordinates":[-122.28037777404856,37.87703418582301]},"properties":{"OBJECTID":17576,"HYDRANTNUMBER":"692","LIFECYCLESTATUS":"AC"}},
{"type":"Feature","id":17577,"geometry":{"type":"Point","coordinates":[-122.28875462623328,37.876006023024125]},"properties":{"OBJECTID":17577,"HYDRANTNUMBER":"970","LIFECYCLESTATUS":"AC"}},
{"type":"Feature","id":18044,"geometry":{"type":"Point","coordinates":[-122.28916339875917,37.87411487373311]},"properties":{"OBJECTID":18044,"HYDRANTNUMBER":"586","LIFECYCLESTATUS":"AC"}},
{"type":"Feature","id":18110,"geometry":{"type":"Point","coordinates":[-122.2944812620526,37.8649350783324]},"properties":{"OBJECTID":18110,"HYDRANTNUMBER":"FH-10759","LIFECYCLESTATUS":"AC"}},
{"type":"Feature","id":18238,"geometry":{"type":"Point","coordinates":[-122.30064789837658,37.87770288562928]},"properties":{"OBJECTID":18238,"HYDRANTNUMBER":"1301","LIFECYCLESTATUS":"AC"}},
{"type":"Feature","id":18239,"geometry":{"type":"Point","coordinates":[-122.30844614871744,37.878017595632464]},"properties":{"OBJECTID":18239,"HYDRANTNUMBER":"1700","LIFECYCLESTATUS":"AC"}},
{"type":"Feature","id":18240,"geometry":{"type":"Point","coordinates":[-122.30065800599044,37.873912118214726]},"properties":{"OBJECTID":18240,"HYDRANTNUMBER":"1255","LIFECYCLESTATUS":"AC"}},
{"type":"Feature","id":18313,"geometry":{"type":"Point","coordinates":[-122.2793542831186,37.854243918568336]},"properties":{"OBJECTID":18313,"HYDRANTNUMBER":"603","LIFECYCLESTATUS":"AC"}},
{"type":"Feature","id":18314,"geometry":{"type":"Point","coordinates":[-122.28096630833089,37.85167421092666]},"properties":{"OBJECTID":18314,"HYDRANTNUMBER":"743","LIFECYCLESTATUS":"AC"}},
{"type":"Feature","id":18315,"geometry":{"type":"Point","coordinates":[-122.28692966168968,37.85691704853694]},"properties":{"OBJECTID":18315,"HYDRANTNUMBER":"1632","LIFECYCLESTATUS":"AC"}},
{"type":"Feature","id":18316,"geometry":{"type":"Point","coordinates":[-122.28884883204452,37.858521248045975]},"properties":{"OBJECTID":18316,"HYDRANTNUMBER":"207","LIFECYCLESTATUS":"AC"}},
{"type":"Feature","id":18318,"geometry":{"type":"Point","coordinates":[-122.29090913594447,37.85089418804275]},"properties":{"OBJECTID":18318,"HYDRANTNUMBER":"1375","LIFECYCLESTATUS":"AC"}},
{"type":"Feature","id":18319,"geometry":{"type":"Point","coordinates":[-122.28652609834748,37.85100061990723]},"properties":{"OBJECTID":18319,"HYDRANTNUMBER":"412","LIFECYCLESTATUS":"AC"}},
{"type":"Feature","id":18432,"geometry":{"type":"Point","coordinates":[-122.28553759672019,37.871537871302074]},"properties":{"OBJECTID":18432,"HYDRANTNUMBER":"1449","LIFECYCLESTATUS":"AC"}},
{"type":"Feature","id":18454,"geometry":{"type":"Point","coordinates":[-122.29963414343709,37.877908894043664]},"properties":{"OBJECTID":18454,"HYDRANTNUMBER":"1302","LIFECYCLESTATUS":"AC"}},
{"type":"Feature","id":18796,"geometry":{"type":"Point","coordinates":[-122.28564203373666,37.85527610783009]},"properties":{"OBJECTID":18796,"HYDRANTNUMBER":"369","LIFECYCLESTATUS":"AC"}},
{"type":"Feature","id":18813,"geometry":{"type":"Point","coordinates":[-122.2806551329912,37.860562724678665]},"properties":{"OBJECTID":18813,"HYDRANTNUMBER":"599","LIFECYCLESTATUS":"AC"}},
{"type":"Feature","id":18814,"geometry":{"type":"Point","coordinates":[-122.2919989211962,37.864421058363796]},"properties":{"OBJECTID":18814,"HYDRANTNUMBER":"668","LIFECYCLESTATUS":"AC"}},
{"type":"Feature","id":18815,"geometry":{"type":"Point","coordinates":[-122.2885702306656,37.86501563093375]},"properties":{"OBJECTID":18815,"HYDRANTNUMBER":"1238","LIFECYCLESTATUS":"AC"}},
{"type":"Feature","id":18864,"geometry":{"type":"Point","coordinates":[-122.28576763770427,37.86428917912684]},"properties":{"OBJECTID":18864,"HYDRANTNUMBER":"FH-10272","LIFECYCLESTATUS":"AC"}},
{"type":"Feature","id":18980,"geometry":{"type":"Point","coordinates":[-122.28487677314429,37.863608172392226]},"properties":{"OBJECTID":18980,"HYDRANTNUMBER":"551","LIFECYCLESTATUS":"AC"}},
{"type":"Feature","id":19077,"geometry":{"type":"Point","coordinates":[-122.29320047082123,37.875723120168196]},"properties":{"OBJECTID":19077,"HYDRANTNUMBER":"1099","LIFECYCLESTATUS":"AC"}},
{"type":"Feature","id":19078,"geometry":{"type":"Point","coordinates":[-122.29406135962616,37.8715514060263]},"properties":{"OBJECTID":19078,"HYDRANTNUMBER":"28","LIFECYCLESTATUS":"AC"}},
{"type":"Feature","id":19079,"geometry":{"type":"Point","coordinates":[-122.29436179698371,37.87523435067983]},"properties":{"OBJECTID":19079,"HYDRANTNUMBER":"1489","LIFECYCLESTATUS":"AC"}},
{"type":"Feature","id":19092,"geometry":{"type":"Point","coordinates":[-122.28487926072529,37.87707635729432]},"properties":{"OBJECTID":19092,"HYDRANTNUMBER":"1542","LIFECYCLESTATUS":"AC"}},
{"type":"Feature","id":19093,"geometry":{"type":"Point","coordinates":[-122.28154947885031,37.878197254463544]},"properties":{"OBJECTID":19093,"HYDRANTNUMBER":"1642","LIFECYCLESTATUS":"AC"}},
{"type":"Feature","id":19094,"geometry":{"type":"Point","coordinates":[-122.29125750213082,37.878008715552355]},"properties":{"OBJECTID":19094,"HYDRANTNUMBER":"1356","LIFECYCLESTATUS":"AC"}},
{"type":"Feature","id":19388,"geometry":{"type":"Point","coordinates":[-122.2876290494717,37.86957269802565]},"properties":{"OBJECTID":19388,"HYDRANTNUMBER":"322","LIFECYCLESTATUS":"AC"}},
{"type":"Feature","id":19389,"geometry":{"type":"Point","coordinates":[-122.28725922112997,37.86885812257866]},"properties":{"OBJECTID":19389,"HYDRANTNUMBER":"640","LIFECYCLESTATUS":"AC"}},
{"type":"Feature","id":19391,"geometry":{"type":"Point","coordinates":[-122.29385944858448,37.87023848428296]},"properties":{"OBJECTID":19391,"HYDRANTNUMBER":"1504","LIFECYCLESTATUS":"AC"}},
{"type":"Feature","id":19393,"geometry":{"type":"Point","coordinates":[-122.28442945366916,37.87022983029175]},"properties":{"OBJECTID":19393,"HYDRANTNUMBER":"12778","LIFECYCLESTATUS":"AC"}},
{"type":"Feature","id":19440,"geometry":{"type":"Point","coordinates":[-122.28899162045762,37.87673133173419]},"properties":{"OBJECTID":19440,"HYDRANTNUMBER":"234","LIFECYCLESTATUS":"AC"}},
{"type":"Feature","id":19896,"geometry":{"type":"Point","coordinates":[-122.28968645938737,37.86118734436673]},"properties":{"OBJECTID":19896,"HYDRANTNUMBER":"1354","LIFECYCLESTATUS":"AC"}},
{"type":"Feature","id":19917,"geometry":{"type":"Point","coordinates":[-122.30144201259063,37.876289093231165]},"properties":{"OBJECTID":19917,"HYDRANTNUMBER":"634","LIFECYCLESTATUS":"AC"}},
{"type":"Feature","id":19936,"geometry":{"type":"Point","coordinates":[-122.28572251847265,37.86680566296108]},"properties":{"OBJECTID":19936,"HYDRANTNUMBER":"H-15060","LIFECYCLESTATUS":"AC"}},
{"type":"Feature","id":20009,"geometry":{"type":"Point","coordinates":[-122.30387678343055,37.87579485556249]},"properties":{"OBJECTID":20009,"HYDRANTNUMBER":"16101","LIFECYCLESTATUS":"AC"}},
{"type":"Feature","id":20010,"geometry":{"type":"Point","coordinates":[-122.30120542098896,37.86875576191823]},"properties":{"OBJECTID":20010,"HYDRANTNUMBER":"1466","LIFECYCLESTATUS":"AC"}},
{"type":"Feature","id":20012,"geometry":{"type":"Point","coordinates":[-122.29349880894908,37.85123084511336]},"properties":{"OBJECTID":20012,"HYDRANTNUMBER":"16053","LIFECYCLESTATUS":"AC"}},
{"type":"Feature","id":20231,"geometry":{"type":"Point","coordinates":[-122.29529917943586,37.86375637256859]},"properties":{"OBJECTID":20231,"HYDRANTNUMBER":"14714","LIFECYCLESTATUS":"AC"}},
{"type":"Feature","id":20252,"geometry":{"type":"Point","coordinates":[-122.28764470347525,37.88093182284202]},"properties":{"OBJECTID":20252,"HYDRANTNUMBER":"1294","LIFECYCLESTATUS":"AC"}},
{"type":"Feature","id":20428,"geometry":{"type":"Point","coordinates":[-122.29740316121263,37.87836040988988]},"properties":{"OBJECTID":20428,"HYDRANTNUMBER":"1563","LIFECYCLESTATUS":"AC"}},
{"type":"Feature","id":20429,"geometry":{"type":"Point","coordinates":[-122.30293482708947,37.88087973443549]},"properties":{"OBJECTID":20429,"HYDRANTNUMBER":"1555","LIFECYCLESTATUS":"AC"}},
{"type":"Feature","id":20430,"geometry":{"type":"Point","coordinates":[-122.30311249620627,37.87470354439446]},"properties":{"OBJECTID":20430,"HYDRANTNUMBER":"1675","LIFECYCLESTATUS":"AC"}},
{"type":"Feature","id":20431,"geometry":{"type":"Point","coordinates":[-122.29628475400587,37.874833706827204]},"properties":{"OBJECTID":20431,"HYDRANTNUMBER":"1309","LIFECYCLESTATUS":"AC"}},
{"type":"Feature","id":20551,"geometry":{"type":"Point","coordinates":[-122.30426581658156,37.87698272379757]},"properties":{"OBJECTID":20551,"HYDRANTNUMBER":"633","LIFECYCLESTATUS":"AC"}},
{"type":"Feature","id":20552,"geometry":{"type":"Point","coordinates":[-122.30173623135296,37.881122681549186]},"properties":{"OBJECTID":20552,"HYDRANTNUMBER":"1557","LIFECYCLESTATUS":"AC"}},
{"type":"Feature","id":20555,"geometry":{"type":"Point","coordinates":[-122.30027837327685,37.864521262916746]},"properties":{"OBJECTID":20555,"HYDRANTNUMBER":"14310","LIFECYCLESTATUS":"AC"}},
{"type":"Feature","id":20556,"geometry":{"type":"Point","coordinates":[-122.28286208897008,37.85449447353156]},"properties":{"OBJECTID":20556,"HYDRANTNUMBER":"11697","LIFECYCLESTATUS":"AC"}},
{"type":"Feature","id":20561,"geometry":{"type":"Point","coordinates":[-122.2883412788043,37.85619934985644]},"properties":{"OBJECTID":20561,"HYDRANTNUMBER":"407","LIFECYCLESTATUS":"AC"}},
{"type":"Feature","id":20701,"geometry":{"type":"Point","coordinates":[-122.30119200297233,37.87947601605305]},"properties":{"OBJECTID":20701,"HYDRANTNUMBER":"891","LIFECYCLESTATUS":"AC"}},
{"type":"Feature","id":20806,"geometry":{"type":"Point","coordinates":[-122.28986898655556,37.853947541712685]},"properties":{"OBJECTID":20806,"HYDRANTNUMBER":"427","LIFECYCLESTATUS":"AC"}},
{"type":"Feature","id":20831,"geometry":{"type":"Point","coordinates":[-122.30025388979419,37.869034892657275]},"properties":{"OBJECTID":20831,"HYDRANTNUMBER":"14614","LIFECYCLESTATUS":"AC"}},
{"type":"Feature","id":20911,"geometry":{"type":"Point","coordinates":[-122.2868445153231,37.866861886848056]},"properties":{"OBJECTID":20911,"HYDRANTNUMBER":"639","LIFECYCLESTATUS":"AC"}},
{"type":"Feature","id":20981,"geometry":{"type":"Point","coordinates":[-122.29931121360788,37.876767058368216]},"properties":{"OBJECTID":20981,"HYDRANTNUMBER":"1330","LIFECYCLESTATUS":"AC"}},
{"type":"Feature","id":21001,"geometry":{"type":"Point","coordinates":[-122.30026493501323,37.87636793285807]},"properties":{"OBJECTID":21001,"HYDRANTNUMBER":"1677","LIFECYCLESTATUS":"AC"}},
{"type":"Feature","id":21032,"geometry":{"type":"Point","coordinates":[-122.28936898551122,37.87967958617053]},"properties":{"OBJECTID":21032,"HYDRANTNUMBER":"13877","LIFECYCLESTATUS":"AC"}},
{"type":"Feature","id":21034,"geometry":{"type":"Point","coordinates":[-122.28046336552697,37.87859882279305]},"properties":{"OBJECTID":21034,"HYDRANTNUMBER":"1323","LIFECYCLESTATUS":"AC"}},
{"type":"Feature","id":21103,"geometry":{"type":"Point","coordinates":[-122.28654116349665,37.87629791719829]},"properties":{"OBJECTID":21103,"HYDRANTNUMBER":"1545","LIFECYCLESTATUS":"AC"}},
{"type":"Feature","id":21366,"geometry":{"type":"Point","coordinates":[-122.30199970315776,37.871812836372015]},"properties":{"OBJECTID":21366,"HYDRANTNUMBER":"1573","LIFECYCLESTATUS":"AC"}},
{"type":"Feature","id":21369,"geometry":{"type":"Point","coordinates":[-122.3034202482794,37.871559481997515]},"properties":{"OBJECTID":21369,"HYDRANTNUMBER":"573","LIFECYCLESTATUS":"AC"}},
{"type":"Feature","id":21403,"geometry":{"type":"Point","coordinates":[-122.28075637597387,37.85329438560201]},"properties":{"OBJECTID":21403,"HYDRANTNUMBER":"734","LIFECYCLESTATUS":"AC"}},
{"type":"Feature","id":21424,"geometry":{"type":"Point","coordinates":[-122.28763632501088,37.87732495441377]},"properties":{"OBJECTID":21424,"HYDRANTNUMBER":"971","LIFECYCLESTATUS":"AC"}},
{"type":"Feature","id":21475,"geometry":{"type":"Point","coordinates":[-122.28032361201234,37.86603246524433]},"properties":{"OBJECTID":21475,"HYDRANTNUMBER":"1428","LIFECYCLESTATUS":"AC"}},
{"type":"Feature","id":21629,"geometry":{"type":"Point","coordinates":[-122.28322201205101,37.851237369534694]},"properties":{"OBJECTID":21629,"HYDRANTNUMBER":"938","LIFECYCLESTATUS":"AC"}},
{"type":"Feature","id":21683,"geometry":{"type":"Point","coordinates":[-122.28184558517903,37.86745917884702]},"properties":{"OBJECTID":21683,"HYDRANTNUMBER":"653","LIFECYCLESTATUS":"AC"}},
{"type":"Feature","id":21694,"geometry":{"type":"Point","coordinates":[-122.28953966606261,37.87890263251104]},"properties":{"OBJECTID":21694,"HYDRANTNUMBER":"1443","LIFECYCLESTATUS":"AC"}},
{"type":"Feature","id":21817,"geometry":{"type":"Point","coordinates":[-122.279361020632,37.85223673817944]},"properties":{"OBJECTID":21817,"HYDRANTNUMBER":"H-19296","LIFECYCLESTATUS":"AC"}},
{"type":"Feature","id":21860,"geometry":{"type":"Point","coordinates":[-122.28969158878314,37.85247858919144]},"properties":{"OBJECTID":21860,"HYDRANTNUMBER":"FH-13506","LIFECYCLESTATUS":"AC"}},
{"type":"Feature","id":21873,"geometry":{"type":"Point","coordinates":[-122.28523335103523,37.865235467975126]},"properties":{"OBJECTID":21873,"HYDRANTNUMBER":"1303","LIFECYCLESTATUS":"AC"}},
{"type":"Feature","id":21974,"geometry":{"type":"Point","coordinates":[-122.29229342103469,37.85873189150055]},"properties":{"OBJECTID":21974,"HYDRANTNUMBER":"672","LIFECYCLESTATUS":"AC"}},
{"type":"Feature","id":21977,"geometry":{"type":"Point","coordinates":[-122.29185424050856,37.853618772167664]},"properties":{"OBJECTID":21977,"HYDRANTNUMBER":"429","LIFECYCLESTATUS":"AC"}},
{"type":"Feature","id":22025,"geometry":{"type":"Point","coordinates":[-122.28264478630854,37.87801451142386]},"properties":{"OBJECTID":22025,"HYDRANTNUMBER":"1165","LIFECYCLESTATUS":"AC"}},
{"type":"Feature","id":22026,"geometry":{"type":"Point","coordinates":[-122.28528029391136,37.87815424872626]},"properties":{"OBJECTID":22026,"HYDRANTNUMBER":"1398","LIFECYCLESTATUS":"AC"}},
{"type":"Feature","id":22157,"geometry":{"type":"Point","coordinates":[-122.28639530811033,37.87748317791972]},"properties":{"OBJECTID":22157,"HYDRANTNUMBER":"1546","LIFECYCLESTATUS":"AC"}},
{"type":"Feature","id":22254,"geometry":{"type":"Point","coordinates":[-122.29571365736838,37.865597174758086]},"properties":{"OBJECTID":22254,"HYDRANTNUMBER":"941","LIFECYCLESTATUS":"AC"}},
{"type":"Feature","id":22309,"geometry":{"type":"Point","coordinates":[-122.2945812196322,37.87329822459615]},"properties":{"OBJECTID":22309,"HYDRANTNUMBER":"579","LIFECYCLESTATUS":"AC"}},
{"type":"Feature","id":22479,"geometry":{"type":"Point","coordinates":[-122.31653116055837,37.868878096427956]},"properties":{"OBJECTID":22479,"HYDRANTNUMBER":"12325","LIFECYCLESTATUS":"AC"}},
{"type":"Feature","id":22582,"geometry":{"type":"Point","coordinates":[-122.29935108956073,37.86617709808518]},"properties":{"OBJECTID":22582,"HYDRANTNUMBER":"440","LIFECYCLESTATUS":"AC"}},
{"type":"Feature","id":22588,"geometry":{"type":"Point","coordinates":[-122.27977994879393,37.87150528677379]},"properties":{"OBJECTID":22588,"HYDRANTNUMBER":"471","LIFECYCLESTATUS":"AC"}},
{"type":"Feature","id":22857,"geometry":{"type":"Point","coordinates":[-122.2858177021953,37.87449844367266]},"properties":{"OBJECTID":22857,"HYDRANTNUMBER":"589","LIFECYCLESTATUS":"AC"}},
{"type":"Feature","id":22860,"geometry":{"type":"Point","coordinates":[-122.28598106148868,37.87355892717952]},"properties":{"OBJECTID":22860,"HYDRANTNUMBER":"1133","LIFECYCLESTATUS":"AC"}},
{"type":"Feature","id":22888,"geometry":{"type":"Point","coordinates":[-122.28360595875455,37.874775479050754]},"properties":{"OBJECTID":22888,"HYDRANTNUMBER":"591","LIFECYCLESTATUS":"AC"}},
{"type":"Feature","id":22974,"geometry":{"type":"Point","coordinates":[-122.28054839174358,37.856895916398905]},"properties":{"OBJECTID":22974,"HYDRANTNUMBER":"H-17645","LIFECYCLESTATUS":"AC"}},
{"type":"Feature","id":23083,"geometry":{"type":"Point","coordinates":[-122.28813699427499,37.8631882340409]},"properties":{"OBJECTID":23083,"HYDRANTNUMBER":"553","LIFECYCLESTATUS":"AC"}},
{"type":"Feature","id":23262,"geometry":{"type":"Point","coordinates":[-122.28441728779805,37.87287506444936]},"properties":{"OBJECTID":23262,"HYDRANTNUMBER":"13883","LIFECYCLESTATUS":"AC"}},
{"type":"Feature","id":23276,"geometry":{"type":"Point","coordinates":[-122.29752271829787,37.86783436184332]},"properties":{"OBJECTID":23276,"HYDRANTNUMBER":"1615","LIFECYCLESTATUS":"AC"}},
{"type":"Feature","id":23277,"geometry":{"type":"Point","coordinates":[-122.28737005581314,37.855017415905685]},"properties":{"OBJECTID":23277,"HYDRANTNUMBER":"408","LIFECYCLESTATUS":"AC"}},
{"type":"Feature","id":23346,"geometry":{"type":"Point","coordinates":[-122.28374628919636,37.88176351409232]},"properties":{"OBJECTID":23346,"HYDRANTNUMBER":"19416","LIFECYCLESTATUS":"AC"}},
{"type":"Feature","id":23353,"geometry":{"type":"Point","coordinates":[-122.30017252750758,37.87886271590806]},"properties":{"OBJECTID":23353,"HYDRANTNUMBER":"FH-13810","LIFECYCLESTATUS":"AC"}},
{"type":"Feature","id":23443,"geometry":{"type":"Point","coordinates":[-122.28030995658571,37.876166476675635]},"properties":{"OBJECTID":23443,"HYDRANTNUMBER":"693","LIFECYCLESTATUS":"AC"}},
{"type":"Feature","id":23463,"geometry":{"type":"Point","coordinates":[-122.29814482114521,37.87695214187977]},"properties":{"OBJECTID":23463,"HYDRANTNUMBER":"508","LIFECYCLESTATUS":"AC"}},
{"type":"Feature","id":23591,"geometry":{"type":"Point","coordinates":[-122.30073300164818,37.88132160701001]},"properties":{"OBJECTID":23591,"HYDRANTNUMBER":"1558","LIFECYCLESTATUS":"AC"}},
{"type":"Feature","id":23611,"geometry":{"type":"Point","coordinates":[-122.29549583859492,37.86861106742318]},"properties":{"OBJECTID":23611,"HYDRANTNUMBER":"387","LIFECYCLESTATUS":"AC"}},
{"type":"Feature","id":23664,"geometry":{"type":"Point","coordinates":[-122.28345437143952,37.85205788042934]},"properties":{"OBJECTID":23664,"HYDRANTNUMBER":"939","LIFECYCLESTATUS":"AC"}},
{"type":"Feature","id":23675,"geometry":{"type":"Point","coordinates":[-122.2907105887863,37.85759691374647]},"properties":{"OBJECTID":23675,"HYDRANTNUMBER":"1400","LIFECYCLESTATUS":"AC"}},
{"type":"Feature","id":23727,"geometry":{"type":"Point","coordinates":[-122.30254510997491,37.87610835247235]},"properties":{"OBJECTID":23727,"HYDRANTNUMBER":"445","LIFECYCLESTATUS":"AC"}},
{"type":"Feature","id":23730,"geometry":{"type":"Point","coordinates":[-122.29745463240654,37.874626611999055]},"properties":{"OBJECTID":23730,"HYDRANTNUMBER":"1290","LIFECYCLESTATUS":"AC"}},
{"type":"Feature","id":23759,"geometry":{"type":"Point","coordinates":[-122.29243775489923,37.85543734906289]},"properties":{"OBJECTID":23759,"HYDRANTNUMBER":"641","LIFECYCLESTATUS":"AC"}},
{"type":"Feature","id":23764,"geometry":{"type":"Point","coordinates":[-122.29831820052475,37.86316421882008]},"properties":{"OBJECTID":23764,"HYDRANTNUMBER":"1352","LIFECYCLESTATUS":"AC"}},
{"type":"Feature","id":23772,"geometry":{"type":"Point","coordinates":[-122.29560861744926,37.86190609586804]},"properties":{"OBJECTID":23772,"HYDRANTNUMBER":"1619","LIFECYCLESTATUS":"AC"}},
{"type":"Feature","id":23809,"geometry":{"type":"Point","coordinates":[-122.2909540671621,37.87669467124122]},"properties":{"OBJECTID":23809,"HYDRANTNUMBER":"403","LIFECYCLESTATUS":"AC"}},
{"type":"Feature","id":23906,"geometry":{"type":"Point","coordinates":[-122.29110101116011,37.866524116357205]},"properties":{"OBJECTID":23906,"HYDRANTNUMBER":"357","LIFECYCLESTATUS":"AC"}},
{"type":"Feature","id":23931,"geometry":{"type":"Point","coordinates":[-122.28294202160039,37.87671786600605]},"properties":{"OBJECTID":23931,"HYDRANTNUMBER":"1543","LIFECYCLESTATUS":"AC"}},
{"type":"Feature","id":24002,"geometry":{"type":"Point","coordinates":[-122.29616298893062,37.863623194458924]},"properties":{"OBJECTID":24002,"HYDRANTNUMBER":"1618","LIFECYCLESTATUS":"AC"}},
{"type":"Feature","id":24019,"geometry":{"type":"Point","coordinates":[-122.29051185362513,37.875735103102585]},"properties":{"OBJECTID":24019,"HYDRANTNUMBER":"1353","LIFECYCLESTATUS":"AC"}},
{"type":"Feature","id":24136,"geometry":{"type":"Point","coordinates":[-122.29425610658261,37.85292376646328]},"properties":{"OBJECTID":24136,"HYDRANTNUMBER":"FH-14335","LIFECYCLESTATUS":"AC"}},
{"type":"Feature","id":24149,"geometry":{"type":"Point","coordinates":[-122.290928401845,37.86464554328764]},"properties":{"OBJECTID":24149,"HYDRANTNUMBER":"15596","LIFECYCLESTATUS":"AC"}},
{"type":"Feature","id":24243,"geometry":{"type":"Point","coordinates":[-122.29244934200747,37.87052087673573]},"properties":{"OBJECTID":24243,"HYDRANTNUMBER":"1162","LIFECYCLESTATUS":"AC"}},
{"type":"Feature","id":24334,"geometry":{"type":"Point","coordinates":[-122.29511170514628,37.877564181458716]},"properties":{"OBJECTID":24334,"HYDRANTNUMBER":"244","LIFECYCLESTATUS":"AC"}},
{"type":"Feature","id":24414,"geometry":{"type":"Point","coordinates":[-122.29014871013396,37.85567461356442]},"properties":{"OBJECTID":24414,"HYDRANTNUMBER":"1679","LIFECYCLESTATUS":"AC"}},
{"type":"Feature","id":24466,"geometry":{"type":"Point","coordinates":[-122.30568124510697,37.87856137850033]},"properties":{"OBJECTID":24466,"HYDRANTNUMBER":"629","LIFECYCLESTATUS":"AC"}},
{"type":"Feature","id":24538,"geometry":{"type":"Point","coordinates":[-122.28941815494615,37.85700769199968]},"properties":{"OBJECTID":24538,"HYDRANTNUMBER":"1636","LIFECYCLESTATUS":"AC"}},
{"type":"Feature","id":24539,"geometry":{"type":"Point","coordinates":[-122.28002489778524,37.85883254017829]},"properties":{"OBJECTID":24539,"HYDRANTNUMBER":"10546","LIFECYCLESTATUS":"AC"}},
{"type":"Feature","id":24604,"geometry":{"type":"Point","coordinates":[-122.28870618498001,37.861317539944814]},"properties":{"OBJECTID":24604,"HYDRANTNUMBER":"1514","LIFECYCLESTATUS":"AC"}},
{"type":"Feature","id":24614,"geometry":{"type":"Point","coordinates":[-122.28664486047242,37.858722380526984]},"properties":{"OBJECTID":24614,"HYDRANTNUMBER":"362","LIFECYCLESTATUS":"AC"}},
{"type":"Feature","id":24746,"geometry":{"type":"Point","coordinates":[-122.29322056346679,37.85041181368706]},"properties":{"OBJECTID":24746,"HYDRANTNUMBER":"945","LIFECYCLESTATUS":"AC"}},
{"type":"Feature","id":24750,"geometry":{"type":"Point","coordinates":[-122.29745731956551,37.87466858214122]},"properties":{"OBJECTID":24750,"HYDRANTNUMBER":"1582","LIFECYCLESTATUS":"AC"}},
{"type":"Feature","id":24820,"geometry":{"type":"Point","coordinates":[-122.30216828594627,37.87493501949905]},"properties":{"OBJECTID":24820,"HYDRANTNUMBER":"444","LIFECYCLESTATUS":"AC"}},
{"type":"Feature","id":24842,"geometry":{"type":"Point","coordinates":[-122.28485552314581,37.882073993620736]},"properties":{"OBJECTID":24842,"HYDRANTNUMBER":"18148","LIFECYCLESTATUS":"AC"}},
{"type":"Feature","id":24873,"geometry":{"type":"Point","coordinates":[-122.30019317301833,37.87968062509815]},"properties":{"OBJECTID":24873,"HYDRANTNUMBER":"1534","LIFECYCLESTATUS":"AC"}},
{"type":"Feature","id":24971,"geometry":{"type":"Point","coordinates":[-122.28577831103611,37.861714702587044]},"properties":{"OBJECTID":24971,"HYDRANTNUMBER":"770","LIFECYCLESTATUS":"AC"}},
{"type":"Feature","id":25130,"geometry":{"type":"Point","coordinates":[-122.31641856714387,37.86394690945855]},"properties":{"OBJECTID":25130,"HYDRANTNUMBER":"12324","LIFECYCLESTATUS":"AC"}},
{"type":"Feature","id":25159,"geometry":{"type":"Point","coordinates":[-122.29907925601736,37.879912179059694]},"properties":{"OBJECTID":25159,"HYDRANTNUMBER":"892","LIFECYCLESTATUS":"AC"}},
{"type":"Feature","id":25366,"geometry":{"type":"Point","coordinates":[-122.28624581561596,37.851455694596666]},"properties":{"OBJECTID":25366,"HYDRANTNUMBER":"15820","LIFECYCLESTATUS":"AC"}},
{"type":"Feature","id":25417,"geometry":{"type":"Point","coordinates":[-122.2926043648517,37.86242218105773]},"properties":{"OBJECTID":25417,"HYDRANTNUMBER":"14713","LIFECYCLESTATUS":"AC"}},
{"type":"Feature","id":25533,"geometry":{"type":"Point","coordinates":[-122.29512699141176,37.87112120747795]},"properties":{"OBJECTID":25533,"HYDRANTNUMBER":"14715","LIFECYCLESTATUS":"AC"}},
{"type":"Feature","id":25703,"geometry":{"type":"Point","coordinates":[-122.28314623016183,37.88112911877101]},"properties":{"OBJECTID":25703,"HYDRANTNUMBER":"785","LIFECYCLESTATUS":"AC"}},
{"type":"Feature","id":25707,"geometry":{"type":"Point","coordinates":[-122.28115862735054,37.85251095568723]},"properties":{"OBJECTID":25707,"HYDRANTNUMBER":"744","LIFECYCLESTATUS":"AC"}},
{"type":"Feature","id":25865,"geometry":{"type":"Point","coordinates":[-122.28095107133406,37.86144314518693]},"properties":{"OBJECTID":25865,"HYDRANTNUMBER":"598","LIFECYCLESTATUS":"AC"}},
{"type":"Feature","id":25879,"geometry":{"type":"Point","coordinates":[-122.28676199897015,37.861529781062615]},"properties":{"OBJECTID":25879,"HYDRANTNUMBER":"1205","LIFECYCLESTATUS":"AC"}},
{"type":"Feature","id":26002,"geometry":{"type":"Point","coordinates":[-122.31700412081518,37.86172008730377]},"properties":{"OBJECTID":26002,"HYDRANTNUMBER":"13616","LIFECYCLESTATUS":"AC"}},
{"type":"Feature","id":26199,"geometry":{"type":"Point","coordinates":[-122.29950892351874,37.874006326018254]},"properties":{"OBJECTID":26199,"HYDRANTNUMBER":"1666","LIFECYCLESTATUS":"AC"}},
{"type":"Feature","id":26252,"geometry":{"type":"Point","coordinates":[-122.28409704667682,37.88062407244954]},"properties":{"OBJECTID":26252,"HYDRANTNUMBER":"784","LIFECYCLESTATUS":"AC"}},
{"type":"Feature","id":26389,"geometry":{"type":"Point","coordinates":[-122.29277241645747,37.879308773753834]},"properties":{"OBJECTID":26389,"HYDRANTNUMBER":"1096","LIFECYCLESTATUS":"AC"}},
{"type":"Feature","id":26390,"geometry":{"type":"Point","coordinates":[-122.29738611711838,37.87089002953212]},"properties":{"OBJECTID":26390,"HYDRANTNUMBER":"1079","LIFECYCLESTATUS":"AC"}},
{"type":"Feature","id":26392,"geometry":{"type":"Point","coordinates":[-122.29792101474159,37.872630435427986]},"properties":{"OBJECTID":26392,"HYDRANTNUMBER":"576","LIFECYCLESTATUS":"AC"}},
{"type":"Feature","id":26395,"geometry":{"type":"Point","coordinates":[-122.29318610127548,37.881129412193225]},"properties":{"OBJECTID":26395,"HYDRANTNUMBER":"1417","LIFECYCLESTATUS":"AC"}},
{"type":"Feature","id":26396,"geometry":{"type":"Point","coordinates":[-122.2930670471667,37.87266931748169]},"properties":{"OBJECTID":26396,"HYDRANTNUMBER":"18552","LIFECYCLESTATUS":"AC"}},
{"type":"Feature","id":26397,"geometry":{"type":"Point","coordinates":[-122.29001782249316,37.87401700032853]},"properties":{"OBJECTID":26397,"HYDRANTNUMBER":"585","LIFECYCLESTATUS":"AC"}},
{"type":"Feature","id":26398,"geometry":{"type":"Point","coordinates":[-122.28800334049758,37.86980792875297]},"properties":{"OBJECTID":26398,"HYDRANTNUMBER":"644","LIFECYCLESTATUS":"AC"}},
{"type":"Feature","id":26400,"geometry":{"type":"Point","coordinates":[-122.2880782049795,37.87048976708405]},"properties":{"OBJECTID":26400,"HYDRANTNUMBER":"645","LIFECYCLESTATUS":"AC"}},
{"type":"Feature","id":26401,"geometry":{"type":"Point","coordinates":[-122.29167936550735,37.87655013125264]},"properties":{"OBJECTID":26401,"HYDRANTNUMBER":"1100","LIFECYCLESTATUS":"AC"}},
{"type":"Feature","id":26420,"geometry":{"type":"Point","coordinates":[-122.31395127737557,37.86931929354861]},"properties":{"OBJECTID":26420,"HYDRANTNUMBER":"H-15964","LIFECYCLESTATUS":"AC"}},
{"type":"Feature","id":26428,"geometry":{"type":"Point","coordinates":[-122.29630493712136,37.87858362354716]},"properties":{"OBJECTID":26428,"HYDRANTNUMBER":"1091","LIFECYCLESTATUS":"AC"}},
{"type":"Feature","id":26471,"geometry":{"type":"Point","coordinates":[-122.29695193831645,37.880393987228636]},"properties":{"OBJECTID":26471,"HYDRANTNUMBER":"1291","LIFECYCLESTATUS":"AC"}},
{"type":"Feature","id":26481,"geometry":{"type":"Point","coordinates":[-122.28904321625322,37.86306793906363]},"properties":{"OBJECTID":26481,"HYDRANTNUMBER":"1125","LIFECYCLESTATUS":"AC"}},
{"type":"Feature","id":26496,"geometry":{"type":"Point","coordinates":[-122.28149825897907,37.85777592462145]},"properties":{"OBJECTID":26496,"HYDRANTNUMBER":"18233","LIFECYCLESTATUS":"AC"}},
{"type":"Feature","id":26511,"geometry":{"type":"Point","coordinates":[-122.29145395638172,37.881425378904225]},"properties":{"OBJECTID":26511,"HYDRANTNUMBER":"1318","LIFECYCLESTATUS":"AC"}},
{"type":"Feature","id":26540,"geometry":{"type":"Point","coordinates":[-122.28656186172482,37.85516330879138]},"properties":{"OBJECTID":26540,"HYDRANTNUMBER":"1631","LIFECYCLESTATUS":"AC"}},
{"type":"Feature","id":26552,"geometry":{"type":"Point","coordinates":[-122.29207093471611,37.878242374986364]},"properties":{"OBJECTID":26552,"HYDRANTNUMBER":"1575","LIFECYCLESTATUS":"AC"}},
{"type":"Feature","id":26553,"geometry":{"type":"Point","coordinates":[-122.2898574726991,37.87311217139119]},"properties":{"OBJECTID":26553,"HYDRANTNUMBER":"1331","LIFECYCLESTATUS":"AC"}},
{"type":"Feature","id":26641,"geometry":{"type":"Point","coordinates":[-122.30113288396916,37.8751454200971]},"properties":{"OBJECTID":26641,"HYDRANTNUMBER":"1653","LIFECYCLESTATUS":"AC"}},
{"type":"Feature","id":26700,"geometry":{"type":"Point","coordinates":[-122.283254108339,37.87181528925839]},"properties":{"OBJECTID":26700,"HYDRANTNUMBER":"1498","LIFECYCLESTATUS":"AC"}},
{"type":"Feature","id":26724,"geometry":{"type":"Point","coordinates":[-122.28281675021388,37.866190616218894]},"properties":{"OBJECTID":26724,"HYDRANTNUMBER":"10078","LIFECYCLESTATUS":"AC"}},
{"type":"Feature","id":26739,"geometry":{"type":"Point","coordinates":[-122.28982156998143,37.88145733801542]},"properties":{"OBJECTID":26739,"HYDRANTNUMBER":"1097","LIFECYCLESTATUS":"AC"}},
{"type":"Feature","id":26750,"geometry":{"type":"Point","coordinates":[-122.28278024102936,37.85936068421727]},"properties":{"OBJECTID":26750,"HYDRANTNUMBER":"363","LIFECYCLESTATUS":"AC"}},
{"type":"Feature","id":26844,"geometry":{"type":"Point","coordinates":[-122.29277902194228,37.85336634994723]},"properties":{"OBJECTID":26844,"HYDRANTNUMBER":"430","LIFECYCLESTATUS":"AC"}},
{"type":"Feature","id":26920,"geometry":{"type":"Point","coordinates":[-122.29524358642897,37.85473277363771]},"properties":{"OBJECTID":26920,"HYDRANTNUMBER":"1233","LIFECYCLESTATUS":"AC"}},
{"type":"Feature","id":27057,"geometry":{"type":"Point","coordinates":[-122.28331725702806,37.857370269886275]},"properties":{"OBJECTID":27057,"HYDRANTNUMBER":"18688","LIFECYCLESTATUS":"AC"}},
{"type":"Feature","id":27128,"geometry":{"type":"Point","coordinates":[-122.28691872235898,37.85370722218704]},"properties":{"OBJECTID":27128,"HYDRANTNUMBER":"410","LIFECYCLESTATUS":"AC"}},
{"type":"Feature","id":27137,"geometry":{"type":"Point","coordinates":[-122.27963047662689,37.85493412634946]},"properties":{"OBJECTID":27137,"HYDRANTNUMBER":"H-13348","LIFECYCLESTATUS":"AC"}},
{"type":"Feature","id":27195,"geometry":{"type":"Point","coordinates":[-122.31639453275447,37.859725470211814]},"properties":{"OBJECTID":27195,"HYDRANTNUMBER":"13617","LIFECYCLESTATUS":"AC"}},
{"type":"Feature","id":27202,"geometry":{"type":"Point","coordinates":[-122.28443026394221,37.85740093988709]},"properties":{"OBJECTID":27202,"HYDRANTNUMBER":"353","LIFECYCLESTATUS":"AC"}},
{"type":"Feature","id":27204,"geometry":{"type":"Point","coordinates":[-122.29164398052835,37.85223984496507]},"properties":{"OBJECTID":27204,"HYDRANTNUMBER":"1672","LIFECYCLESTATUS":"AC"}},
{"type":"Feature","id":27254,"geometry":{"type":"Point","coordinates":[-122.2801108947109,37.87437001628609]},"properties":{"OBJECTID":27254,"HYDRANTNUMBER":"947","LIFECYCLESTATUS":"AC"}},
{"type":"Feature","id":27295,"geometry":{"type":"Point","coordinates":[-122.28037210983989,37.87769055956676]},"properties":{"OBJECTID":27295,"HYDRANTNUMBER":"1131","LIFECYCLESTATUS":"AC"}},
{"type":"Feature","id":27308,"geometry":{"type":"Point","coordinates":[-122.2970115142699,37.869646091660464]},"properties":{"OBJECTID":27308,"HYDRANTNUMBER":"1153","LIFECYCLESTATUS":"AC"}},
{"type":"Feature","id":27414,"geometry":{"type":"Point","coordinates":[-122.30128396053371,37.86742469764757]},"properties":{"OBJECTID":27414,"HYDRANTNUMBER":"1463","LIFECYCLESTATUS":"AC"}},
{"type":"Feature","id":27464,"geometry":{"type":"Point","coordinates":[-122.293843235497,37.877826005253446]},"properties":{"OBJECTID":27464,"HYDRANTNUMBER":"1643","LIFECYCLESTATUS":"AC"}},
{"type":"Feature","id":27686,"geometry":{"type":"Point","coordinates":[-122.29560319555792,37.876261935968856]},"properties":{"OBJECTID":27686,"HYDRANTNUMBER":"1384","LIFECYCLESTATUS":"AC"}},
{"type":"Feature","id":27726,"geometry":{"type":"Point","coordinates":[-122.31301013863948,37.868262465820074]},"properties":{"OBJECTID":27726,"HYDRANTNUMBER":"12328","LIFECYCLESTATUS":"AC"}},
{"type":"Feature","id":27738,"geometry":{"type":"Point","coordinates":[-122.30425423240575,37.873217631668126]},"properties":{"OBJECTID":27738,"HYDRANTNUMBER":"1539","LIFECYCLESTATUS":"AC"}},
{"type":"Feature","id":27743,"geometry":{"type":"Point","coordinates":[-122.2997774145904,37.86290130272798]},"properties":{"OBJECTID":27743,"HYDRANTNUMBER":"1408","LIFECYCLESTATUS":"AC"}},
{"type":"Feature","id":27753,"geometry":{"type":"Point","coordinates":[-122.28858771965768,37.857716141136805]},"properties":{"OBJECTID":27753,"HYDRANTNUMBER":"1150","LIFECYCLESTATUS":"AC"}},
{"type":"Feature","id":27800,"geometry":{"type":"Point","coordinates":[-122.28849643685359,37.874204383020256]},"properties":{"OBJECTID":27800,"HYDRANTNUMBER":"587","LIFECYCLESTATUS":"AC"}},
{"type":"Feature","id":27814,"geometry":{"type":"Point","coordinates":[-122.2799254247025,37.85703161595488]},"properties":{"OBJECTID":27814,"HYDRANTNUMBER":"907","LIFECYCLESTATUS":"AC"}},
{"type":"Feature","id":28023,"geometry":{"type":"Point","coordinates":[-122.30082303107783,37.86751238527408]},"properties":{"OBJECTID":28023,"HYDRANTNUMBER":"1460","LIFECYCLESTATUS":"AC"}},
{"type":"Feature","id":28038,"geometry":{"type":"Point","coordinates":[-122.28019529101242,37.854836388680496]},"properties":{"OBJECTID":28038,"HYDRANTNUMBER":"19076","LIFECYCLESTATUS":"AC"}},
{"type":"Feature","id":28063,"geometry":{"type":"Point","coordinates":[-122.29031537489873,37.867492744336616]},"properties":{"OBJECTID":28063,"HYDRANTNUMBER":"18325","LIFECYCLESTATUS":"AC"}},
{"type":"Feature","id":28075,"geometry":{"type":"Point","coordinates":[-122.28096834862836,37.85475222725972]},"properties":{"OBJECTID":28075,"HYDRANTNUMBER":"18232","LIFECYCLESTATUS":"AC"}},
{"type":"Feature","id":28091,"geometry":{"type":"Point","coordinates":[-122.2899594866645,37.8629922768232]},"properties":{"OBJECTID":28091,"HYDRANTNUMBER":"359","LIFECYCLESTATUS":"AC"}},
{"type":"Feature","id":28092,"geometry":{"type":"Point","coordinates":[-122.28292943995545,37.855446739852454]},"properties":{"OBJECTID":28092,"HYDRANTNUMBER":"1201","LIFECYCLESTATUS":"AC"}},
{"type":"Feature","id":28112,"geometry":{"type":"Point","coordinates":[-122.28354300209885,37.882013453515334]},"properties":{"OBJECTID":28112,"HYDRANTNUMBER":"950","LIFECYCLESTATUS":"AC"}},
{"type":"Feature","id":28158,"geometry":{"type":"Point","coordinates":[-122.28849024751668,37.850591829251194]},"properties":{"OBJECTID":28158,"HYDRANTNUMBER":"678","LIFECYCLESTATUS":"AC"}},
{"type":"Feature","id":28219,"geometry":{"type":"Point","coordinates":[-122.29289530530949,37.86429041976332]},"properties":{"OBJECTID":28219,"HYDRANTNUMBER":"12487","LIFECYCLESTATUS":"AC"}},
{"type":"Feature","id":28242,"geometry":{"type":"Point","coordinates":[-122.2807939325428,37.867541666143474]},"properties":{"OBJECTID":28242,"HYDRANTNUMBER":"885","LIFECYCLESTATUS":"AC"}},
{"type":"Feature","id":28397,"geometry":{"type":"Point","coordinates":[-122.2825017752239,37.87683145918897]},"properties":{"OBJECTID":28397,"HYDRANTNUMBER":"1164","LIFECYCLESTATUS":"AC"}},
{"type":"Feature","id":28405,"geometry":{"type":"Point","coordinates":[-122.29964298156162,37.88155133064624]},"properties":{"OBJECTID":28405,"HYDRANTNUMBER":"1559","LIFECYCLESTATUS":"AC"}},
{"type":"Feature","id":28434,"geometry":{"type":"Point","coordinates":[-122.29579722242224,37.88007534058413]},"properties":{"OBJECTID":28434,"HYDRANTNUMBER":"15249","LIFECYCLESTATUS":"AC"}},
{"type":"Feature","id":28463,"geometry":{"type":"Point","coordinates":[-122.28170408965268,37.869329806497696]},"properties":{"OBJECTID":28463,"HYDRANTNUMBER":"477","LIFECYCLESTATUS":"AC"}},
{"type":"Feature","id":28524,"geometry":{"type":"Point","coordinates":[-122.30243678742303,37.86854914912605]},"properties":{"OBJECTID":28524,"HYDRANTNUMBER":"14651","LIFECYCLESTATUS":"AC"}},
{"type":"Feature","id":28548,"geometry":{"type":"Point","coordinates":[-122.30635669572396,37.880156102917226]},"properties":{"OBJECTID":28548,"HYDRANTNUMBER":"626","LIFECYCLESTATUS":"AC"}},
{"type":"Feature","id":28638,"geometry":{"type":"Point","coordinates":[-122.30236104985171,37.87923861587469]},"properties":{"OBJECTID":28638,"HYDRANTNUMBER":"890","LIFECYCLESTATUS":"AC"}},
{"type":"Feature","id":28644,"geometry":{"type":"Point","coordinates":[-122.28531377165055,37.85397407639256]},"properties":{"OBJECTID":28644,"HYDRANTNUMBER":"1404","LIFECYCLESTATUS":"AC"}},
{"type":"Feature","id":28664,"geometry":{"type":"Point","coordinates":[-122.28075929691488,37.85067644329597]},"properties":{"OBJECTID":28664,"HYDRANTNUMBER":"742","LIFECYCLESTATUS":"AC"}},
{"type":"Feature","id":28675,"geometry":{"type":"Point","coordinates":[-122.29566537864105,37.87307556309033]},"properties":{"OBJECTID":28675,"HYDRANTNUMBER":"578","LIFECYCLESTATUS":"AC"}},
{"type":"Feature","id":28709,"geometry":{"type":"Point","coordinates":[-122.2817386330315,37.879259280908386]},"properties":{"OBJECTID":28709,"HYDRANTNUMBER":"562","LIFECYCLESTATUS":"AC"}},
{"type":"Feature","id":28786,"geometry":{"type":"Point","coordinates":[-122.29437133086326,37.86884395929182]},"properties":{"OBJECTID":28786,"HYDRANTNUMBER":"1670","LIFECYCLESTATUS":"AC"}},
{"type":"Feature","id":28798,"geometry":{"type":"Point","coordinates":[-122.29904419225286,37.869199797130115]},"properties":{"OBJECTID":28798,"HYDRANTNUMBER":"14615","LIFECYCLESTATUS":"AC"}},
{"type":"Feature","id":28805,"geometry":{"type":"Point","coordinates":[-122.28239590721486,37.875883375631744]},"properties":{"OBJECTID":28805,"HYDRANTNUMBER":"1163","LIFECYCLESTATUS":"AC"}},
{"type":"Feature","id":28863,"geometry":{"type":"Point","coordinates":[-122.2815454014991,37.85418174521143]},"properties":{"OBJECTID":28863,"HYDRANTNUMBER":"748","LIFECYCLESTATUS":"AC"}},
{"type":"Feature","id":28876,"geometry":{"type":"Point","coordinates":[-122.29843860322279,37.87072297792751]},"properties":{"OBJECTID":28876,"HYDRANTNUMBER":"1667","LIFECYCLESTATUS":"AC"}},
{"type":"Feature","id":28877,"geometry":{"type":"Point","coordinates":[-122.28686087056728,37.85971520094017]},"properties":{"OBJECTID":28877,"HYDRANTNUMBER":"1158","LIFECYCLESTATUS":"AC"}},
{"type":"Feature","id":28922,"geometry":{"type":"Point","coordinates":[-122.29309326078896,37.87802351315117]},"properties":{"OBJECTID":28922,"HYDRANTNUMBER":"1396","LIFECYCLESTATUS":"AC"}},
{"type":"Feature","id":28938,"geometry":{"type":"Point","coordinates":[-122.28564931589726,37.8727360049356]},"properties":{"OBJECTID":28938,"HYDRANTNUMBER":"1249","LIFECYCLESTATUS":"AC"}},
{"type":"Feature","id":28967,"geometry":{"type":"Point","coordinates":[-122.30315087861779,37.8779879780719]},"properties":{"OBJECTID":28967,"HYDRANTNUMBER":"H-19900","LIFECYCLESTATUS":"AC"}},
{"type":"Feature","id":29078,"geometry":{"type":"Point","coordinates":[-122.30437377210473,37.87883742990035]},"properties":{"OBJECTID":29078,"HYDRANTNUMBER":"FH-13639","LIFECYCLESTATUS":"AC"}},
{"type":"Feature","id":29189,"geometry":{"type":"Point","coordinates":[-122.30350976853023,37.879106690919365]},"properties":{"OBJECTID":29189,"HYDRANTNUMBER":"631","LIFECYCLESTATUS":"AC"}},
{"type":"Feature","id":29192,"geometry":{"type":"Point","coordinates":[-122.28215939257952,37.87388890421772]},"properties":{"OBJECTID":29192,"HYDRANTNUMBER":"13880","LIFECYCLESTATUS":"AC"}},
{"type":"Feature","id":29324,"geometry":{"type":"Point","coordinates":[-122.28507330711058,37.859991648659665]},"properties":{"OBJECTID":29324,"HYDRANTNUMBER":"768","LIFECYCLESTATUS":"AC"}},
{"type":"Feature","id":29447,"geometry":{"type":"Point","coordinates":[-122.28914285992771,37.8512479500115]},"properties":{"OBJECTID":29447,"HYDRANTNUMBER":"1379","LIFECYCLESTATUS":"AC"}},
{"type":"Feature","id":29510,"geometry":{"type":"Point","coordinates":[-122.2879510548054,37.85694727178308]},"properties":{"OBJECTID":29510,"HYDRANTNUMBER":"352","LIFECYCLESTATUS":"AC"}},
{"type":"Feature","id":29715,"geometry":{"type":"Point","coordinates":[-122.29238873530788,37.86627396864604]},"properties":{"OBJECTID":29715,"HYDRANTNUMBER":"1664","LIFECYCLESTATUS":"AC"}},
{"type":"Feature","id":29716,"geometry":{"type":"Point","coordinates":[-122.29285129728378,37.86770846420145]},"properties":{"OBJECTID":29716,"HYDRANTNUMBER":"1663","LIFECYCLESTATUS":"AC"}},
{"type":"Feature","id":29717,"geometry":{"type":"Point","coordinates":[-122.29328199111139,37.869057755328804]},"properties":{"OBJECTID":29717,"HYDRANTNUMBER":"12890","LIFECYCLESTATUS":"AC"}},
{"type":"Feature","id":29893,"geometry":{"type":"Point","coordinates":[-122.29419368936807,37.867398722572084]},"properties":{"OBJECTID":29893,"HYDRANTNUMBER":"1680","LIFECYCLESTATUS":"AC"}},
{"type":"Feature","id":30011,"geometry":{"type":"Point","coordinates":[-122.29975548095571,37.8689251199092]},"properties":{"OBJECTID":30011,"HYDRANTNUMBER":"FH-14552","LIFECYCLESTATUS":"AC"}},
{"type":"Feature","id":30012,"geometry":{"type":"Point","coordinates":[-122.29921855947316,37.86872870978144]},"properties":{"OBJECTID":30012,"HYDRANTNUMBER":"FH-14556","LIFECYCLESTATUS":"AC"}},
{"type":"Feature","id":30067,"geometry":{"type":"Point","coordinates":[-122.28305949393578,37.880073333953796]},"properties":{"OBJECTID":30067,"HYDRANTNUMBER":"1021","LIFECYCLESTATUS":"AC"}}
]}
