{"type":"FeatureCollection","features":[
{"type":"Feature","id":1201,"geometry":{"type":"Point","coordinates":[-122.28465429971939,37.87018050013864]},"properties":{"OBJECTID":1201,"stp_identi":"9903580","stp_descri":"University Av:Acton St","route":" J 51B 800","stp_511_id":51573}},
{"type":"Feature","id":1205,"geometry":{"type":"Point","coordinates":[-122.28027649944879,37.870745299626]},"properties":{"OBJECTID":1205,"stp_identi":"9903620","stp_descri":"University Av:California St","route":" 52 88 51B 800","stp_511_id":51583}},
{"type":"Feature","id":1214,"geometry":{"type":"Point","coordinates":[-122.29931150009298,37.879969199698536]},"properties":{"OBJECTID":1214,"stp_identi":"9903720","stp_descri":"8th St:Gilman St","route":" 80","stp_511_id":51613}},
{"type":"Feature","id":1216,"geometry":{"type":"Point","coordinates":[-122.28696509974078,37.869654200074194]},"properties":{"OBJECTID":1216,"stp_identi":"9903740","stp_descri":"University Av:Bonar St","route":" FS 51B 800","stp_511_id":51617}},
{"type":"Feature","id":1250,"geometry":{"type":"Point","coordinates":[-122.28842790051502,37.87592309988647]},"properties":{"OBJECTID":1250,"stp_identi":"9904120","stp_descri":"Cedar St:Chestnut St","route":" 52","stp_511_id":51735}},
{"type":"Feature","id":1263,"geometry":{"type":"Point","coordinates":[-122.30184300034915,37.879357799669506]},"properties":{"OBJECTID":1263,"stp_identi":"9904280","stp_descri":"Gilman St:6th St","route":" 12","stp_511_id":51784}},
{"type":"Feature","id":1264,"geometry":{"type":"Point","coordinates":[-122.30398349988309,37.880547900413106]},"properties":{"OBJECTID":1264,"stp_identi":"9904290","stp_descri":"4th St:Harrison St","route":" 12","stp_511_id":51786}},
{"type":"Feature","id":1265,"geometry":{"type":"Point","coordinates":[-122.29923129968185,37.88011330032239]},"properties":{"OBJECTID":1265,"stp_identi":"9904300","stp_descri":"8th St:Gilman St","route":" 80","stp_511_id":51791}},
{"type":"Feature","id":1268,"geometry":{"type":"Point","coordinates":[-122.29945360014698,37.866063500184936]},"properties":{"OBJECTID":1268,"stp_identi":"9904370","stp_descri":"4th St:Addison St","route":" 80 81","stp_511_id":51814}},
{"type":"Feature","id":1507,"geometry":{"type":"Point","coordinates":[-122.29989039972183,37.86786720039098]},"properties":{"OBJECTID":1507,"stp_identi":"0300010","stp_descri":"4th St:University Av","route":" 80 81","stp_511_id":55146}},
{"type":"Feature","id":1508,"geometry":{"type":"Point","coordinates":[-122.30013009964772,37.86815469967759]},"properties":{"OBJECTID":1508,"stp_identi":"0300020","stp_descri":"4th St:University Av","route":" 80 81","stp_511_id":52626}},
{"type":"Feature","id":1509,"geometry":{"type":"Point","coordinates":[-122.29682090011582,37.86507950025611]},"properties":{"OBJECTID":1509,"stp_identi":"0300030","stp_descri":"6th St:Allston Way","route":" Z 80 81","stp_511_id":52231}},
{"type":"Feature","id":1510,"geometry":{"type":"Point","coordinates":[-122.29680850042033,37.86548910028186]},"properties":{"OBJECTID":1510,"stp_identi":"0300040","stp_descri":"6th St:Allston Way","route":" Z","stp_511_id":57589}},
{"type":"Feature","id":1511,"geometry":{"type":"Point","coordinates":[-122.29969729949187,37.87386700016931]},"properties":{"OBJECTID":1511,"stp_identi":"0300070","stp_descri":"6th St:Cedar St","route":" Z 80","stp_511_id":52236}},
{"type":"Feature","id":1512,"geometry":{"type":"Point","coordinates":[-122.29966259956788,37.87433229966703]},"properties":{"OBJECTID":1512,"stp_identi":"0300080","stp_descri":"6th St:Cedar St","route":" Z","stp_511_id":53227}},
{"type":"Feature","id":1513,"geometry":{"type":"Point","coordinates":[-122.29555460056343,37.8616396002281]},"properties":{"OBJECTID":1513,"stp_identi":"0300090","stp_descri":"6th St:Channing Way","route":" Z 80 81","stp_511_id":59338}},
{"type":"Feature","id":1514,"geometry":{"type":"Point","coordinates":[-122.29578469987263,37.861816199994124]},"properties":{"OBJECTID":1514,"stp_identi":"0300100","stp_descri":"6th St:Channing Way","route":" Z 80 81","stp_511_id":55790}},
{"type":"Feature","id":1515,"geometry":{"type":"Point","coordinates":[-122.29850529961827,37.87082660002709]},"properties":{"OBJECTID":1515,"stp_identi":"0300110","stp_descri":"6th St:Delaware St","route":" Z","stp_511_id":59757}},
{"type":"Feature","id":1516,"geometry":{"type":"Point","coordinates":[-122.29868500024939,37.87083299995227]},"properties":{"OBJECTID":1516,"stp_identi":"0300120","stp_descri":"6th St:Delaware St","route":" Z 80","stp_511_id":55149}},
{"type":"Feature","id":1517,"geometry":{"type":"Point","coordinates":[-122.30128380041647,37.87889329998696]},"properties":{"OBJECTID":1517,"stp_identi":"0300130","stp_descri":"6th St:Gilman St","route":" Z 80","stp_511_id":59668}},
{"type":"Feature","id":1518,"geometry":{"type":"Point","coordinates":[-122.29828259969493,37.869459400107964]},"properties":{"OBJECTID":1518,"stp_identi":"0300140","stp_descri":"6th St:Hearst Av","route":" Z 80","stp_511_id":56499}},
{"type":"Feature","id":1519,"geometry":{"type":"Point","coordinates":[-122.30051979989481,37.87651430001001]},"properties":{"OBJECTID":1519,"stp_identi":"0300150","stp_descri":"6th St:Page St","route":" Z 80","stp_511_id":52310}},
{"type":"Feature","id":1520,"geometry":{"type":"Point","coordinates":[-122.30028400045428,37.87634939984176]},"properties":{"OBJECTID":1520,"stp_identi":"0300160","stp_descri":"6th St:Page St","route":" Z 80","stp_511_id":56465}},
{"type":"Feature","id":1521,"geometry":{"type":"Point","coordinates":[-122.29768819961848,37.86830689981808]},"properties":{"OBJECTID":1521,"stp_identi":"0300170","stp_descri":"6th St:University Av","route":" Z 81","stp_511_id":55065}},
{"type":"Feature","id":1522,"geometry":{"type":"Point","coordinates":[-122.29769599980682,37.867683600095496]},"properties":{"OBJECTID":1522,"stp_identi":"0300180","stp_descri":"6th St:University Av","route":" Z","stp_511_id":56310}},
{"type":"Feature","id":1523,"geometry":{"type":"Point","coordinates":[-122.29894969958859,37.87223629966482]},"properties":{"OBJECTID":1523,"stp_identi":"0300190","stp_descri":"6th St:Virginia St","route":" Z","stp_511_id":59774}},
{"type":"Feature","id":1524,"geometry":{"type":"Point","coordinates":[-122.29912310020718,37.872077799631576]},"properties":{"OBJECTID":1524,"stp_identi":"0300200","stp_descri":"6th St:Virginia St","route":" Z 80","stp_511_id":59908}},
{"type":"Feature","id":1525,"geometry":{"type":"Point","coordinates":[-122.2916087998486,37.85228520014619]},"properties":{"OBJECTID":1525,"stp_identi":"0300210","stp_descri":"7th St:Anthony St","route":" Z 36 80 81","stp_511_id":55909}},
{"type":"Feature","id":1526,"geometry":{"type":"Point","coordinates":[-122.2913787001885,37.8521795997576]},"properties":{"OBJECTID":1526,"stp_identi":"0300220","stp_descri":"7th St:Anthony St","route":" Z 36 80 81","stp_511_id":55915}},
{"type":"Feature","id":1527,"geometry":{"type":"Point","coordinates":[-122.29261020004817,37.855413400074575]},"properties":{"OBJECTID":1527,"stp_identi":"0300260","stp_descri":"7th St:Grayson St","route":" Z 36 80 81","stp_511_id":55970}},
{"type":"Feature","id":1528,"geometry":{"type":"Point","coordinates":[-122.29257019964032,37.855568599813125]},"properties":{"OBJECTID":1528,"stp_identi":"0300270","stp_descri":"7th St:Grayson St","route":" Z 36 80 81","stp_511_id":50633}},
{"type":"Feature","id":1529,"geometry":{"type":"Point","coordinates":[-122.2917664999058,37.853334200325065]},"properties":{"OBJECTID":1529,"stp_identi":"0300290","stp_descri":"7th St:Heinz Av","route":" Z 36 80 81","stp_511_id":58667}},
{"type":"Feature","id":1530,"geometry":{"type":"Point","coordinates":[-122.29348370010001,37.85860270028845]},"properties":{"OBJECTID":1530,"stp_identi":"0300300","stp_descri":"7th St:Parker St","route":" Z 36 80 81","stp_511_id":55738}},
{"type":"Feature","id":1531,"geometry":{"type":"Point","coordinates":[-122.29366470017108,37.858547799591314]},"properties":{"OBJECTID":1531,"stp_identi":"0300310","stp_descri":"7th St:Parker St","route":" Z 36 80 81","stp_511_id":55807}},
{"type":"Feature","id":1559,"geometry":{"type":"Point","coordinates":[-122.29046359991239,37.851195200251524]},"properties":{"OBJECTID":1559,"stp_identi":"0300710","stp_descri":"Ashby Av:7th St","route":" J 80 81","stp_511_id":55817}},
{"type":"Feature","id":1560,"geometry":{"type":"Point","coordinates":[-122.28097240011803,37.85316169991474]},"properties":{"OBJECTID":1560,"stp_identi":"0300720","stp_descri":"Ashby Av:Acton St","route":" J 80 81","stp_511_id":50667}},
{"type":"Feature","id":1561,"geometry":{"type":"Point","coordinates":[-122.2817184005608,37.85321779972987]},"properties":{"OBJECTID":1561,"stp_identi":"0300730","stp_descri":"Ashby Av:Acton St","route":" J 80 81","stp_511_id":54954}},
{"type":"Feature","id":1575,"geometry":{"type":"Point","coordinates":[-122.28345399972903,37.85273949995127]},"properties":{"OBJECTID":1575,"stp_identi":"0300900","stp_descri":"Ashby Av:Mabel St","route":" J 80 81","stp_511_id":50540}},
{"type":"Feature","id":1576,"geometry":{"type":"Point","coordinates":[-122.28398630023445,37.852758099589636]},"properties":{"OBJECTID":1576,"stp_identi":"0300910","stp_descri":"Ashby Av:Mabel St","route":" J 80 81","stp_511_id":54559}},
{"type":"Feature","id":1586,"geometry":{"type":"Point","coordinates":[-122.28624679998835,37.85217029979515]},"properties":{"OBJECTID":1586,"stp_identi":"0301010","stp_descri":"Ashby Av:San Pablo Av","route":" J 80 81","stp_511_id":52300}},
{"type":"Feature","id":1587,"geometry":{"type":"Point","coordinates":[-122.28715380012854,37.85214949967087]},"properties":{"OBJECTID":1587,"stp_identi":"0301020","stp_descri":"Ashby Av:San Pablo Av","route":" J 80 81","stp_511_id":52599}},
{"type":"Feature","id":1607,"geometry":{"type":"Point","coordinates":[-122.285180599538,37.87630990032989]},"properties":{"OBJECTID":1607,"stp_identi":"0301260","stp_descri":"Cedar St:Acton St","route":" 52","stp_511_id":58958}},
{"type":"Feature","id":1608,"geometry":{"type":"Point","coordinates":[-122.28527600027286,37.8764066996315]},"properties":{"OBJECTID":1608,"stp_identi":"0301270","stp_descri":"Cedar St:Acton St","route":" 52","stp_511_id":57156}},
{"type":"Feature","id":1609,"geometry":{"type":"Point","coordinates":[-122.28725370042936,37.87622090029832]},"properties":{"OBJECTID":1609,"stp_identi":"0301320","stp_descri":"Cedar St:Cedar Rose Park","route":" 52","stp_511_id":58432}},
{"type":"Feature","id":1610,"geometry":{"type":"Point","coordinates":[-122.29164750049478,37.875479999792134]},"properties":{"OBJECTID":1610,"stp_identi":"0301340","stp_descri":"Cedar St:Cornell Av","route":" 52","stp_511_id":50234}},
{"type":"Feature","id":1611,"geometry":{"type":"Point","coordinates":[-122.29135459947953,37.875636000140155]},"properties":{"OBJECTID":1611,"stp_identi":"0301350","stp_descri":"Cedar St:Cornell Av","route":" 52","stp_511_id":54501}},
{"type":"Feature","id":1612,"geometry":{"type":"Point","coordinates":[-122.28302299997738,37.876695000309276]},"properties":{"OBJECTID":1612,"stp_identi":"0301460","stp_descri":"Cedar St:Sacramento St","route":" 52","stp_511_id":55241}},
{"type":"Feature","id":1613,"geometry":{"type":"Point","coordinates":[-122.29390330005634,37.87535630038461]},"properties":{"OBJECTID":1613,"stp_identi":"0301480","stp_descri":"Cedar St:San Pablo Av","route":" 52","stp_511_id":55327}},
{"type":"Feature","id":1649,"geometry":{"type":"Point","coordinates":[-122.29367769998333,37.86020589990578]},"properties":{"OBJECTID":1649,"stp_identi":"0302050","stp_descri":"Dwight Way:7th St","route":" 36","stp_511_id":52556}},
{"type":"Feature","id":1650,"geometry":{"type":"Point","coordinates":[-122.29214660049331,37.86061440014589]},"properties":{"OBJECTID":1650,"stp_identi":"0302060","stp_descri":"Dwight Way:9th St","route":" 36","stp_511_id":51667}},
{"type":"Feature","id":1651,"geometry":{"type":"Point","coordinates":[-122.29163680015029,37.860621700003705]},"properties":{"OBJECTID":1651,"stp_identi":"0302070","stp_descri":"Dwight Way:9th St","route":" 36","stp_511_id":55925}},
{"type":"Feature","id":1652,"geometry":{"type":"Point","coordinates":[-122.28607789994025,37.86160919970321]},"properties":{"OBJECTID":1652,"stp_identi":"0302080","stp_descri":"Dwight Way:Bonar St","route":" 36","stp_511_id":56980}},
{"type":"Feature","id":1655,"geometry":{"type":"Point","coordinates":[-122.28778999996388,37.861391300411796]},"properties":{"OBJECTID":1655,"stp_identi":"0302110","stp_descri":"Dwight Way:Curtis St","route":" 36","stp_511_id":59234}},
{"type":"Feature","id":1658,"geometry":{"type":"Point","coordinates":[-122.28556960034767,37.86157839998918]},"properties":{"OBJECTID":1658,"stp_identi":"0302140","stp_descri":"Dwight Way:Mabel St","route":" 36","stp_511_id":51959}},
{"type":"Feature","id":1661,"geometry":{"type":"Point","coordinates":[-122.2870412996297,37.861370399949635]},"properties":{"OBJECTID":1661,"stp_identi":"0302170","stp_descri":"Dwight Way:Mathews St","route":" 36","stp_511_id":55313}},
{"type":"Feature","id":1665,"geometry":{"type":"Point","coordinates":[-122.28093359972516,37.8622920000841]},"properties":{"OBJECTID":1665,"stp_identi":"0302210","stp_descri":"Dwight Way:Sacramento St","route":" 36","stp_511_id":55019}},
{"type":"Feature","id":1666,"geometry":{"type":"Point","coordinates":[-122.2806686002341,37.862184800273596]},"properties":{"OBJECTID":1666,"stp_identi":"0302220","stp_descri":"Dwight Way:Sacramento St","route":" 36","stp_511_id":55070}},
{"type":"Feature","id":1667,"geometry":{"type":"Point","coordinates":[-122.28993140047726,37.86108799961636]},"properties":{"OBJECTID":1667,"stp_identi":"0302230","stp_descri":"Dwight Way:San Pablo Av","route":" 36","stp_511_id":50922}},
{"type":"Feature","id":1668,"geometry":{"type":"Point","coordinates":[-122.28915760048478,37.861103299625896]},"properties":{"OBJECTID":1668,"stp_identi":"0302240","stp_descri":"Dwight Way:San Pablo Av","route":" 36","stp_511_id":56200}},
{"type":"Feature","id":1669,"geometry":{"type":"Point","coordinates":[-122.28400810052183,37.86187729973296]},"properties":{"OBJECTID":1669,"stp_identi":"0302250","stp_descri":"Dwight Way:Valley St","route":" 36","stp_511_id":55249}},
{"type":"Feature","id":1670,"geometry":{"type":"Point","coordinates":[-122.28393920009059,37.86177710030665]},"properties":{"OBJECTID":1670,"stp_identi":"0302260","stp_descri":"Dwight Way:Valley St","route":" 36","stp_511_id":50877}},
{"type":"Feature","id":1710,"geometry":{"type":"Point","coordinates":[-122.29708040017383,37.88016220026681]},"properties":{"OBJECTID":1710,"stp_identi":"0302680","stp_descri":"Gilman St:10th St","route":" H Z 12","stp_511_id":58089}},
{"type":"Feature","id":1711,"geometry":{"type":"Point","coordinates":[-122.30043909979976,37.87948950018415]},"properties":{"OBJECTID":1711,"stp_identi":"0302700","stp_descri":"Gilman St:7th St","route":" H Z 12 80","stp_511_id":50404}},
{"type":"Feature","id":1712,"geometry":{"type":"Point","coordinates":[-122.29906280011352,37.87990350034747]},"properties":{"OBJECTID":1712,"stp_identi":"0302710","stp_descri":"Gilman St:8th St","route":" H Z 12","stp_511_id":52052}},
{"type":"Feature","id":1713,"geometry":{"type":"Point","coordinates":[-122.29341689996998,37.8810264003682]},"properties":{"OBJECTID":1713,"stp_identi":"0302720","stp_descri":"Gilman St:Cornell Av","route":" H 12","stp_511_id":51120}},
{"type":"Feature","id":1714,"geometry":{"type":"Point","coordinates":[-122.29330640036711,37.88094870011873]},"properties":{"OBJECTID":1714,"stp_identi":"0302730","stp_descri":"Gilman St:Cornell Av","route":" H 12","stp_511_id":52077}},
{"type":"Feature","id":1715,"geometry":{"type":"Point","coordinates":[-122.28987349995847,37.8813483999063]},"properties":{"OBJECTID":1715,"stp_identi":"0302740","stp_descri":"Gilman St:Curtis St","route":" H 12","stp_511_id":51175}},
{"type":"Feature","id":1716,"geometry":{"type":"Point","coordinates":[-122.28896769980865,37.88124019968771]},"properties":{"OBJECTID":1716,"stp_identi":"0302750","stp_descri":"Gilman St:Neilson St","route":" H 12","stp_511_id":53367}},
{"type":"Feature","id":1717,"geometry":{"type":"Point","coordinates":[-122.28654009987928,37.88055399996362]},"properties":{"OBJECTID":1717,"stp_identi":"0302760","stp_descri":"Gilman St:Ordway St","route":" H 12","stp_511_id":53380}},
{"type":"Feature","id":1718,"geometry":{"type":"Point","coordinates":[-122.28689570036032,37.88074700020387]},"properties":{"OBJECTID":1718,"stp_identi":"0302770","stp_descri":"Gilman St:Ordway St","route":" H 12","stp_511_id":52977}},
{"type":"Feature","id":1719,"geometry":{"type":"Point","coordinates":[-122.29622010053335,37.880325399959396]},"properties":{"OBJECTID":1719,"stp_identi":"0302780","stp_descri":"Gilman St:San Pablo Av","route":" H 12","stp_511_id":57715}},
{"type":"Feature","id":1720,"geometry":{"type":"Point","coordinates":[-122.29102139995037,37.881395800177145]},"properties":{"OBJECTID":1720,"stp_identi":"0302790","stp_descri":"Gilman St:Santa Fe Av","route":" H 12","stp_511_id":52877}},
{"type":"Feature","id":1721,"geometry":{"type":"Point","coordinates":[-122.29110940003959,37.88148970027219]},"properties":{"OBJECTID":1721,"stp_identi":"0302800","stp_descri":"Gilman St:Santa Fe Av","route":" H 12","stp_511_id":59545}},
{"type":"Feature","id":1748,"geometry":{"type":"Point","coordinates":[-122.29902559979436,37.869065899759704]},"properties":{"OBJECTID":1748,"stp_identi":"0303080","stp_descri":"Hearst Av:5th St","route":" 80 81","stp_511_id":51235}},
{"type":"Feature","id":1749,"geometry":{"type":"Point","coordinates":[-122.29948769998778,37.869119400141514]},"properties":{"OBJECTID":1749,"stp_identi":"0303090","stp_descri":"Hearst Av:5th St","route":" 80 81","stp_511_id":54385}},
{"type":"Feature","id":1755,"geometry":{"type":"Point","coordinates":[-122.28416399987212,37.88057560024644]},"properties":{"OBJECTID":1755,"stp_identi":"0303220","stp_descri":"Hopkins St:Albina Av","route":" H 12","stp_511_id":55129}},
{"type":"Feature","id":1758,"geometry":{"type":"Point","coordinates":[-122.2820449002072,37.88156330042678]},"properties":{"OBJECTID":1758,"stp_identi":"0303250","stp_descri":"Hopkins St:California St","route":" 12","stp_511_id":57887}},
{"type":"Feature","id":1761,"geometry":{"type":"Point","coordinates":[-122.28183259952873,37.88181509958432]},"properties":{"OBJECTID":1761,"stp_identi":"0303280","stp_descri":"Hopkins St:Monterey Av","route":" 12","stp_511_id":53536}},
{"type":"Feature","id":1762,"geometry":{"type":"Point","coordinates":[-122.28356080004879,37.88076380033242]},"properties":{"OBJECTID":1762,"stp_identi":"0303290","stp_descri":"Hopkins St:Sacramento St","route":" H 12","stp_511_id":53539}},
{"type":"Feature","id":1802,"geometry":{"type":"Point","coordinates":[-122.28213239973492,37.88178679980704]},"properties":{"OBJECTID":1802,"stp_identi":"0303800","stp_descri":"Monterey Av:Hopkins St","route":" H","stp_511_id":53356}},
{"type":"Feature","id":1803,"geometry":{"type":"Point","coordinates":[-122.2820079004796,37.88197529984716]},"properties":{"OBJECTID":1803,"stp_identi":"0303810","stp_descri":"Monterey Av:Hopkins St","route":" H","stp_511_id":57867}},
{"type":"Feature","id":1825,"geometry":{"type":"Point","coordinates":[-122.28154299945787,37.86764799970431]},"properties":{"OBJECTID":1825,"stp_identi":"0304090","stp_descri":"Sacramento St:Allston Way","route":" J 88","stp_511_id":54305}},
{"type":"Feature","id":1826,"geometry":{"type":"Point","coordinates":[-122.2818011004728,37.86710160014416]},"properties":{"OBJECTID":1826,"stp_identi":"0304100","stp_descri":"Sacramento St:Allston Way","route":" J 88","stp_511_id":55380}},
{"type":"Feature","id":1829,"geometry":{"type":"Point","coordinates":[-122.28134469992273,37.86610490009654]},"properties":{"OBJECTID":1829,"stp_identi":"0304130","stp_descri":"Sacramento St:Bancroft Way","route":" J 88","stp_511_id":52765}},
{"type":"Feature","id":1830,"geometry":{"type":"Point","coordinates":[-122.2816813996323,37.86592479987128]},"properties":{"OBJECTID":1830,"stp_identi":"0304140","stp_descri":"Sacramento St:Bancroft Way","route":" J 88","stp_511_id":52515}},
{"type":"Feature","id":1831,"geometry":{"type":"Point","coordinates":[-122.28052360041767,37.85967860005236]},"properties":{"OBJECTID":1831,"stp_identi":"0304150","stp_descri":"Sacramento St:Carleton St","route":" J 88","stp_511_id":52535}},
{"type":"Feature","id":1832,"geometry":{"type":"Point","coordinates":[-122.2802423998305,37.85983899986825]},"properties":{"OBJECTID":1832,"stp_identi":"0304160","stp_descri":"Sacramento St:Carleton St","route":" J 88","stp_511_id":55820}},
{"type":"Feature","id":1833,"geometry":{"type":"Point","coordinates":[-122.2827549994541,37.876438000435776]},"properties":{"OBJECTID":1833,"stp_identi":"0304180","stp_descri":"Sacramento St:Cedar St","route":" 52","stp_511_id":52154}},
{"type":"Feature","id":1834,"geometry":{"type":"Point","coordinates":[-122.28148460018254,37.86410450026303]},"properties":{"OBJECTID":1834,"stp_identi":"0304190","stp_descri":"Sacramento St:Channing Way","route":" J 88","stp_511_id":53977}},
{"type":"Feature","id":1835,"geometry":{"type":"Point","coordinates":[-122.28115849989824,37.86393239968129]},"properties":{"OBJECTID":1835,"stp_identi":"0304200","stp_descri":"Sacramento St:Channing Way","route":" J 88","stp_511_id":53765}},
{"type":"Feature","id":1836,"geometry":{"type":"Point","coordinates":[-122.28130170017569,37.862305800331]},"properties":{"OBJECTID":1836,"stp_identi":"0304220","stp_descri":"Sacramento St:Dwight Way","route":" J 88","stp_511_id":55451}},
{"type":"Feature","id":1837,"geometry":{"type":"Point","coordinates":[-122.28093199998862,37.862116400316864]},"properties":{"OBJECTID":1837,"stp_identi":"0304230","stp_descri":"Sacramento St:Dwight Way","route":" J 88","stp_511_id":53321}},
{"type":"Feature","id":1840,"geometry":{"type":"Point","coordinates":[-122.28198699999142,37.87201399991485]},"properties":{"OBJECTID":1840,"stp_identi":"0304260","stp_descri":"Sacramento St:Hearst Av","route":" 52","stp_511_id":52589}},
{"type":"Feature","id":1845,"geometry":{"type":"Point","coordinates":[-122.28177390053733,37.870128900269]},"properties":{"OBJECTID":1845,"stp_identi":"0304350","stp_descri":"Sacramento St:University Av","route":" 88","stp_511_id":55946}},
{"type":"Feature","id":1846,"geometry":{"type":"Point","coordinates":[-122.28252030002781,37.87377520037322]},"properties":{"OBJECTID":1846,"stp_identi":"0304360","stp_descri":"Sacramento St:Francisco St (North Berkeley BART)","route":" 52","stp_511_id":53243}},
{"type":"Feature","id":1847,"geometry":{"type":"Point","coordinates":[-122.28234260036676,37.87513280011568]},"properties":{"OBJECTID":1847,"stp_identi":"0304370","stp_descri":"Sacramento St:Virginia St","route":" 52","stp_511_id":53254}},
{"type":"Feature","id":1848,"geometry":{"type":"Point","coordinates":[-122.28015670004905,37.85789339979006]},"properties":{"OBJECTID":1848,"stp_identi":"0304380","stp_descri":"Sacramento St:Ward St","route":" J 88","stp_511_id":58335}},
{"type":"Feature","id":1850,"geometry":{"type":"Point","coordinates":[-122.29123870053547,37.866724299675376]},"properties":{"OBJECTID":1850,"stp_identi":"0304400","stp_descri":"San Pablo Av:Allston Way","route":" 72 72M 802","stp_511_id":52007}},
{"type":"Feature","id":1851,"geometry":{"type":"Point","coordinates":[-122.29143649959879,37.86648110003438]},"properties":{"OBJECTID":1851,"stp_identi":"0304410","stp_descri":"San Pablo Av:Allston Way","route":" 72 72M 802","stp_511_id":59591}},
{"type":"Feature","id":1852,"geometry":{"type":"Point","coordinates":[-122.28671240040713,37.85180470041643]},"properties":{"OBJECTID":1852,"stp_identi":"0304420","stp_descri":"San Pablo Av:Ashby Av","route":" 72 72M 72R 802","stp_511_id":52228}},
{"type":"Feature","id":1853,"geometry":{"type":"Point","coordinates":[-122.28667449966268,37.85251410026334]},"properties":{"OBJECTID":1853,"stp_identi":"0304430","stp_descri":"San Pablo Av:Ashby Av","route":" 72 72M 72R 802","stp_511_id":51117}},
{"type":"Feature","id":1854,"geometry":{"type":"Point","coordinates":[-122.29063059990513,37.86481579974798]},"properties":{"OBJECTID":1854,"stp_identi":"0304440","stp_descri":"San Pablo Av:Bancroft Way","route":" 72 72M 802","stp_511_id":55267}},
{"type":"Feature","id":1855,"geometry":{"type":"Point","coordinates":[-122.29086919989066,37.864710999772036]},"properties":{"OBJECTID":1855,"stp_identi":"0304450","stp_descri":"San Pablo Av:Bancroft Way","route":" 72 72M 802","stp_511_id":59277}},
{"type":"Feature","id":1856,"geometry":{"type":"Point","coordinates":[-122.29395140046474,37.87510779978396]},"properties":{"OBJECTID":1856,"stp_identi":"0304460","stp_descri":"San Pablo Av:Cedar St","route":" G 72 72M 800","stp_511_id":55165}},
{"type":"Feature","id":1857,"geometry":{"type":"Point","coordinates":[-122.29432939990218,37.875418199897815]},"properties":{"OBJECTID":1857,"stp_identi":"0304470","stp_descri":"San Pablo Av:Cedar St","route":" G 72 72M 800","stp_511_id":59600}},
{"type":"Feature","id":1858,"geometry":{"type":"Point","coordinates":[-122.28995640030146,37.862747700267185]},"properties":{"OBJECTID":1858,"stp_identi":"0304480","stp_descri":"San Pablo Av:Channing Way","route":" 72 72M 802","stp_511_id":52207}},
{"type":"Feature","id":1859,"geometry":{"type":"Point","coordinates":[-122.29029939973302,37.86293020005359]},"properties":{"OBJECTID":1859,"stp_identi":"0304490","stp_descri":"San Pablo Av:Channing Way","route":" 72 72M 802","stp_511_id":50344}},
{"type":"Feature","id":1860,"geometry":{"type":"Point","coordinates":[-122.29314739962697,37.87176300017114]},"properties":{"OBJECTID":1860,"stp_identi":"0304500","stp_descri":"San Pablo Av:Delaware St","route":" G 72 72M 800","stp_511_id":59755}},
{"type":"Feature","id":1861,"geometry":{"type":"Point","coordinates":[-122.2929364005129,37.87202760006407]},"properties":{"OBJECTID":1861,"stp_identi":"0304510","stp_descri":"San Pablo Av:Delaware St","route":" G 72 72M 800","stp_511_id":51001}},
{"type":"Feature","id":1862,"geometry":{"type":"Point","coordinates":[-122.29577309998791,37.8798968999446]},"properties":{"OBJECTID":1862,"stp_identi":"0304540","stp_descri":"San Pablo Av:Gilman St","route":" G 52 72 72M 72R 800","stp_511_id":55501}},
{"type":"Feature","id":1863,"geometry":{"type":"Point","coordinates":[-122.29578260019292,37.88082890026242]},"properties":{"OBJECTID":1863,"stp_identi":"0304550","stp_descri":"San Pablo Av:Gilman St","route":" G Z 52 72 72M 72R 800","stp_511_id":55100}},
{"type":"Feature","id":1864,"geometry":{"type":"Point","coordinates":[-122.28791110013654,37.85642600026246]},"properties":{"OBJECTID":1864,"stp_identi":"0304560","stp_descri":"San Pablo Av:Grayson St","route":" 72 72M 802","stp_511_id":51699}},
{"type":"Feature","id":1865,"geometry":{"type":"Point","coordinates":[-122.28815990014886,37.85629429958261]},"properties":{"OBJECTID":1865,"stp_identi":"0304570","stp_descri":"San Pablo Av:Grayson St","route":" 72 72M 802","stp_511_id":53003}},
{"type":"Feature","id":1867,"geometry":{"type":"Point","coordinates":[-122.29645159958835,37.882043000191985]},"properties":{"OBJECTID":1867,"stp_identi":"0304590","stp_descri":"San Pablo Av:Harrison St","route":" Z 52 72 72M 800","stp_511_id":55929}},
{"type":"Feature","id":1868,"geometry":{"type":"Point","coordinates":[-122.28600159969912,37.850473900261335]},"properties":{"OBJECTID":1868,"stp_identi":"0304600","stp_descri":"San Pablo Av:Haskell St","route":" 72 72M 802","stp_511_id":55603}},
{"type":"Feature","id":1869,"geometry":{"type":"Point","coordinates":[-122.28757670021506,37.85445570007696]},"properties":{"OBJECTID":1869,"stp_identi":"0304610","stp_descri":"San Pablo Av:Heinz Av","route":" 72 72M 802","stp_511_id":59377}},
{"type":"Feature","id":1870,"geometry":{"type":"Point","coordinates":[-122.28740759953672,37.85484699972032]},"properties":{"OBJECTID":1870,"stp_identi":"0304620","stp_descri":"San Pablo Av:Oregon St","route":" 72 72M 802","stp_511_id":55367}},
{"type":"Feature","id":1871,"geometry":{"type":"Point","coordinates":[-122.29481480011074,37.877773200199165]},"properties":{"OBJECTID":1871,"stp_identi":"0304630","stp_descri":"San Pablo Av:Page St","route":" 52 72 72M 800","stp_511_id":52273}},
{"type":"Feature","id":1872,"geometry":{"type":"Point","coordinates":[-122.29493170050542,37.87732379973631]},"properties":{"OBJECTID":1872,"stp_identi":"0304640","stp_descri":"San Pablo Av:Page St","route":" 52 72 72M 800","stp_511_id":53005}},
{"type":"Feature","id":1873,"geometry":{"type":"Point","coordinates":[-122.28885610024373,37.859315699796]},"properties":{"OBJECTID":1873,"stp_identi":"0304650","stp_descri":"San Pablo Av:Parker St","route":" 72 72M 802","stp_511_id":55701}},
{"type":"Feature","id":1874,"geometry":{"type":"Point","coordinates":[-122.28916990052515,37.859454300253034]},"properties":{"OBJECTID":1874,"stp_identi":"0304660","stp_descri":"San Pablo Av:Parker St","route":" 72M 802","stp_511_id":56077}},
{"type":"Feature","id":1875,"geometry":{"type":"Point","coordinates":[-122.29172519954258,37.86906370003779]},"properties":{"OBJECTID":1875,"stp_identi":"0304670","stp_descri":"University Av:San Pablo Av","route":" FS 51B 800","stp_511_id":55996}},
{"type":"Feature","id":1876,"geometry":{"type":"Point","coordinates":[-122.3172785003095,37.86281260033387]},"properties":{"OBJECTID":1876,"stp_identi":"0304730","stp_descri":"Seawall Dr:University Av","route":" 81","stp_511_id":58455}},
{"type":"Feature","id":1973,"geometry":{"type":"Point","coordinates":[-122.30067699985919,37.867274999813475]},"properties":{"OBJECTID":1973,"stp_identi":"0305760","stp_descri":"University Av:3rd St","route":" 51B 802","stp_511_id":58883}},
{"type":"Feature","id":1974,"geometry":{"type":"Point","coordinates":[-122.29973029997478,37.86772649999294]},"properties":{"OBJECTID":1974,"stp_identi":"0305770","stp_descri":"University Av:4th St","route":" 51B 802","stp_511_id":52355}},
{"type":"Feature","id":1975,"geometry":{"type":"Point","coordinates":[-122.29955679970986,37.86746500039099]},"properties":{"OBJECTID":1975,"stp_identi":"0305780","stp_descri":"University Av:4th St","route":" 51B","stp_511_id":54477}},
{"type":"Feature","id":1976,"geometry":{"type":"Point","coordinates":[-122.29735099945769,37.86794270043416]},"properties":{"OBJECTID":1976,"stp_identi":"0305790","stp_descri":"University Av:6th St","route":" G FS 51B 802","stp_511_id":55548}},
{"type":"Feature","id":1977,"geometry":{"type":"Point","coordinates":[-122.29741369962237,37.8681567000758]},"properties":{"OBJECTID":1977,"stp_identi":"0305800","stp_descri":"University Av:6th St","route":" G FS 51B 802","stp_511_id":51105}},
{"type":"Feature","id":1978,"geometry":{"type":"Point","coordinates":[-122.29430499955123,37.868791000246915]},"properties":{"OBJECTID":1978,"stp_identi":"0305810","stp_descri":"University Av:9th St","route":" 51B 802","stp_511_id":59004}},
{"type":"Feature","id":1979,"geometry":{"type":"Point","coordinates":[-122.2940788999517,37.86859990006958]},"properties":{"OBJECTID":1979,"stp_identi":"0305820","stp_descri":"University Av:9th St","route":" G FS 51B 802","stp_511_id":55855}},
{"type":"Feature","id":1980,"geometry":{"type":"Point","coordinates":[-122.2839187994899,37.8700912002283]},"properties":{"OBJECTID":1980,"stp_identi":"0305840","stp_descri":"University Av:Acton St","route":" 51B 800","stp_511_id":59900}},
{"type":"Feature","id":1981,"geometry":{"type":"Point","coordinates":[-122.31381989945909,37.863834199915324]},"properties":{"OBJECTID":1981,"stp_identi":"0305860","stp_descri":"University Av:Bait Shop","route":" 81","stp_511_id":58660}},
{"type":"Feature","id":1982,"geometry":{"type":"Point","coordinates":[-122.28741750027356,37.86983619988178]},"properties":{"OBJECTID":1982,"stp_identi":"0305880","stp_descri":"University Av:Bonar St","route":" FS 51B 800","stp_511_id":57335}},
{"type":"Feature","id":1985,"geometry":{"type":"Point","coordinates":[-122.31153729966918,37.8647648000369]},"properties":{"OBJECTID":1985,"stp_identi":"0305950","stp_descri":"University Av:Marina Blvd","route":" 81","stp_511_id":54393}},
{"type":"Feature","id":1988,"geometry":{"type":"Point","coordinates":[-122.28162730046695,37.87058640041029]},"properties":{"OBJECTID":1988,"stp_identi":"0306040","stp_descri":"University Av:Sacramento St","route":" 52 FS 51B 800","stp_511_id":55722}},
{"type":"Feature","id":1989,"geometry":{"type":"Point","coordinates":[-122.28134660046933,37.870367800360654]},"properties":{"OBJECTID":1989,"stp_identi":"0306050","stp_descri":"University Av:Sacramento St","route":" 52 FS 51B 800","stp_511_id":56667}},
{"type":"Feature","id":1990,"geometry":{"type":"Point","coordinates":[-122.29184510046066,37.86925129987195]},"properties":{"OBJECTID":1990,"stp_identi":"0306060","stp_descri":"University Av:San Pablo Av","route":" 800","stp_511_id":55365}},
{"type":"Feature","id":1992,"geometry":{"type":"Point","coordinates":[-122.30603509993605,37.86639949962087]},"properties":{"OBJECTID":1992,"stp_identi":"0306090","stp_descri":"University Av:W Frontage Rd","route":" 81","stp_511_id":57827}},
{"type":"Feature","id":2003,"geometry":{"type":"Point","coordinates":[-122.2895463995536,37.86146619992282]},"properties":{"OBJECTID":2003,"stp_identi":"0306290","stp_descri":"San Pablo Av:Dwight Way","route":" 72 72M 72R 802","stp_511_id":55880}},
{"type":"Feature","id":2004,"geometry":{"type":"Point","coordinates":[-122.29211810005185,37.86946699957858]},"properties":{"OBJECTID":2004,"stp_identi":"0306300","stp_descri":"San Pablo Av:University Av","route":" 72 72M 72R","stp_511_id":55525}},
{"type":"Feature","id":2005,"geometry":{"type":"Point","coordinates":[-122.29208959974918,37.8687056998034]},"properties":{"OBJECTID":2005,"stp_identi":"0306310","stp_descri":"San Pablo Av:University Av","route":" 72 72M 72R 802","stp_511_id":55111}},
{"type":"Feature","id":2006,"geometry":{"type":"Point","coordinates":[-122.28958280032397,37.86079440027533]},"properties":{"OBJECTID":2006,"stp_identi":"0306320","stp_descri":"San Pablo Av:Dwight Way","route":" 72 72M 72R 802","stp_511_id":57755}},
{"type":"Feature","id":2007,"geometry":{"type":"Point","coordinates":[-122.29254410012769,37.86911400005979]},"properties":{"OBJECTID":2007,"stp_identi":"0306410","stp_descri":"University Av:San Pablo Av","route":" G FS 51B 802","stp_511_id":52566}},
{"type":"Feature","id":2009,"geometry":{"type":"Point","coordinates":[-122.29443639964914,37.860456300226765]},"properties":{"OBJECTID":2009,"stp_identi":"0306440","stp_descri":"Dwight Crescent:7th St","route":" Z 80 81","stp_511_id":56450}},
{"type":"Feature","id":2010,"geometry":{"type":"Point","coordinates":[-122.29398119995146,37.859594199985274]},"properties":{"OBJECTID":2010,"stp_identi":"0306450","stp_descri":"7th St:Cutter Way","route":" Z 36 80 81","stp_511_id":57288}},
{"type":"Feature","id":2012,"geometry":{"type":"Point","coordinates":[-122.29375959954123,37.87520169962171]},"properties":{"OBJECTID":2012,"stp_identi":"0306480","stp_descri":"Cedar St:San Pablo Av","route":" 52","stp_511_id":56144}},
{"type":"Feature","id":2013,"geometry":{"type":"Point","coordinates":[-122.30342309966065,37.87902539971026]},"properties":{"OBJECTID":2013,"stp_identi":"0306490","stp_descri":"Gilman St:4th St","route":" H 12","stp_511_id":53007}},
{"type":"Feature","id":2014,"geometry":{"type":"Point","coordinates":[-122.30363699949028,37.87884160015583]},"properties":{"OBJECTID":2014,"stp_identi":"0306500","stp_descri":"Gilman St:4th St","route":" H","stp_511_id":58056}},
{"type":"Feature","id":2020,"geometry":{"type":"Point","coordinates":[-122.29705780045934,37.865292699988714]},"properties":{"OBJECTID":2020,"stp_identi":"0306580","stp_descri":"Allston Way:6th St","route":" 80 81","stp_511_id":56430}},
{"type":"Feature","id":2022,"geometry":{"type":"Point","coordinates":[-122.29636889980641,37.88045229988825]},"properties":{"OBJECTID":2022,"stp_identi":"0306660","stp_descri":"Gilman St:San Pablo Av","route":" H Z 12","stp_511_id":54354}},
{"type":"Feature","id":2024,"geometry":{"type":"Point","coordinates":[-122.2820799999544,37.87007200024241]},"properties":{"OBJECTID":2024,"stp_identi":"0306720","stp_descri":"Sacramento St:University Av","route":" J 88","stp_511_id":55998}},
{"type":"Feature","id":2025,"geometry":{"type":"Point","coordinates":[-122.28215160020615,37.87333029957511]},"properties":{"OBJECTID":2025,"stp_identi":"0306740","stp_descri":"Sacramento St:Delaware St","route":" 52","stp_511_id":50604}},
{"type":"Feature","id":4313,"geometry":{"type":"Point","coordinates":[-122.28619940026678,37.85020249991267]},"properties":{"OBJECTID":4313,"stp_identi":"1018420","stp_descri":"San Pablo Av:67th St","route":" 72 72M 802","stp_511_id":51661}}
]}
